<?xml version="1.0" encoding="UTF-8" standalone="no" ?>
<gpx xmlns="http://www.topografix.com/GPX/1/1" creator="OruxMaps v.10.5.0 GP" version="1.1" xmlns:gpxtpx="http://www.garmin.com/xmlschemas/TrackPointExtension/v2" xmlns:xsi="http://www.w3.org/2001/XMLSchema-instance" xmlns:om="http://www.oruxmaps.com/oruxmapsextensions/1/0" xsi:schemaLocation="http://www.topografix.com/GPX/1/1 http://www.topografix.com/GPX/1/1/gpx.xsd">
<!-- owner: ba6e6e5031d655 -->
<metadata>
<name><![CDATA[2026-08-02 05:30:56 Cima delle Cenge, Vetta Bella]]></name>
<link href="https://www.oruxmaps.com">
<text>OruxMaps GP</text>
</link>
<time>2026-08-02T03:30:56.924Z</time><bounds maxlat="46.4448638" maxlon="13.5717417" minlat="46.4233154" minlon="13.5208715"/>
</metadata>
<wpt lat="46.4418783" lon="13.5717417">
<ele>946.90</ele>
<time>2026-08-02T03:30:57.216Z</time>
<name><![CDATA[]]></name>
<sym>Waypoint</sym>
<type>Starting Point</type>
<extensions>
<om:oruxmapsextensions>
<om:ext type="ICON" subtype="0">38</om:ext>
</om:oruxmapsextensions>
</extensions>
</wpt>
<wpt lat="46.4417969" lon="13.5715347">
<ele>957.48</ele>
<time>2026-08-02T13:21:57.941Z</time>
<name><![CDATA[]]></name>
<desc><![CDATA[<p><br /><h3>Name: Segment: 1</h3><br />Type: Hiking<br/>Start time: 05:30 2 Aug 2026<br/>Finish time: 15:21 2 Aug 2026<br/>Distance: 23,7km (09:50)<br/>Moving time: 06:55<br/>Average speed: 2,41 km/h<br/>Avg. Speed Mov: 3,42 km/h<br/>Max. speed: 147,96 km/h<br/>Minimum altitude: 937 m<br/>Maximum altitude: 2113 m<br/>Ascent speed: 668,0 m/h<br/>Descent speed: 1105,8 m/h<br/>Elevation gain: 2910 m<br/>Elevation loss: 2895 m<br/>Ascent time: 04:21<br/>Descent time: 02:37<br/></p>]]></desc>
<sym>Waypoint</sym>
<type>Finishing Point</type>
<extensions>
<om:oruxmapsextensions>
<om:ext type="ICON" subtype="0">15</om:ext>
</om:oruxmapsextensions>
</extensions>
</wpt>
<trk>
<name><![CDATA[2026-08-02 05:30:56 Cima delle Cenge, Vetta Bella]]></name>
<desc><![CDATA[<p>Type: Hiking<br/>Start time: 05:30 2 Aug 2026<br/>Finish time: 15:21 2 Aug 2026<br/>Distance: 17,0 km (09:50)<br/>Moving time: 06:45<br/>Average speed: 1,73 km/h<br/>Avg. Speed Mov: 2,52 km/h<br/>Max. speed: 16,95 km/h<br/>Minimum altitude: 901 m<br/>Maximum altitude: 2103 m<br/>Ascent speed: 759,0 m/h<br/>Descent speed: 892,9 m/h<br/>Elevation gain: 2780 m<br/>Elevation loss: 2770 m<br/>Ascent time: 03:39<br/>Descent time: 03:06<br/></p><hr align="center" width="480" style="height: 2px; width: 517px"/>]]></desc>
<type>Hiking</type>
<extensions>
<om:oruxmapsextensions>
<om:ext type="TYPE" subtype="0">5</om:ext>
<om:ext type="DIFFICULTY">0</om:ext>
</om:oruxmapsextensions>
</extensions>
<trkseg>
<trkpt lat="46.4418783" lon="13.5717417">
<ele>946.90</ele>
<time>2026-08-02T03:30:56.154Z</time>
</trkpt>
<trkpt lat="46.4418783" lon="13.5717417">
<ele>946.90</ele>
<time>2026-08-02T03:31:10.154Z</time>
</trkpt>
<trkpt lat="46.4414871" lon="13.5713739">
<ele>1021.77</ele>
<time>2026-08-02T03:35:58.245Z</time>
</trkpt>
<trkpt lat="46.4411670" lon="13.5713918">
<ele>956.40</ele>
<time>2026-08-02T03:36:29.236Z</time>
</trkpt>
<trkpt lat="46.4409818" lon="13.5714088">
<ele>959.75</ele>
<time>2026-08-02T03:36:44.023Z</time>
</trkpt>
<trkpt lat="46.4407424" lon="13.5714993">
<ele>1011.35</ele>
<time>2026-08-02T03:36:54.191Z</time>
</trkpt>
<trkpt lat="46.4405831" lon="13.5713707">
<ele>950.31</ele>
<time>2026-08-02T03:37:18.744Z</time>
</trkpt>
<trkpt lat="46.4403995" lon="13.5713541">
<ele>948.89</ele>
<time>2026-08-02T03:37:30.245Z</time>
</trkpt>
<trkpt lat="46.4402252" lon="13.5712475">
<ele>958.20</ele>
<time>2026-08-02T03:37:53.946Z</time>
</trkpt>
<trkpt lat="46.4401293" lon="13.5710116">
<ele>949.71</ele>
<time>2026-08-02T03:38:04.487Z</time>
</trkpt>
<trkpt lat="46.4399921" lon="13.5708423">
<ele>947.34</ele>
<time>2026-08-02T03:38:16.346Z</time>
</trkpt>
<trkpt lat="46.4398342" lon="13.5706967">
<ele>946.57</ele>
<time>2026-08-02T03:38:29.905Z</time>
</trkpt>
<trkpt lat="46.4396898" lon="13.5705283">
<ele>948.13</ele>
<time>2026-08-02T03:38:43.323Z</time>
</trkpt>
<trkpt lat="46.4395951" lon="13.5702938">
<ele>949.18</ele>
<time>2026-08-02T03:38:56.027Z</time>
</trkpt>
<trkpt lat="46.4395541" lon="13.5700375">
<ele>948.64</ele>
<time>2026-08-02T03:39:07.924Z</time>
</trkpt>
<trkpt lat="46.4394646" lon="13.5697918">
<ele>946.79</ele>
<time>2026-08-02T03:39:20.884Z</time>
</trkpt>
<trkpt lat="46.4394061" lon="13.5695405">
<ele>950.30</ele>
<time>2026-08-02T03:39:33.783Z</time>
</trkpt>
<trkpt lat="46.4393691" lon="13.5692847">
<ele>948.51</ele>
<time>2026-08-02T03:39:45.686Z</time>
</trkpt>
<trkpt lat="46.4393491" lon="13.5690222">
<ele>949.87</ele>
<time>2026-08-02T03:39:58.363Z</time>
</trkpt>
<trkpt lat="46.4392761" lon="13.5687790">
<ele>951.44</ele>
<time>2026-08-02T03:40:11.846Z</time>
</trkpt>
<trkpt lat="46.4392083" lon="13.5685267">
<ele>951.70</ele>
<time>2026-08-02T03:40:22.385Z</time>
</trkpt>
<trkpt lat="46.4391657" lon="13.5682723">
<ele>950.02</ele>
<time>2026-08-02T03:40:32.924Z</time>
</trkpt>
<trkpt lat="46.4390993" lon="13.5680295">
<ele>951.46</ele>
<time>2026-08-02T03:40:42.986Z</time>
</trkpt>
<trkpt lat="46.4390615" lon="13.5677701">
<ele>954.69</ele>
<time>2026-08-02T03:40:52.665Z</time>
</trkpt>
<trkpt lat="46.4391127" lon="13.5675086">
<ele>953.94</ele>
<time>2026-08-02T03:41:05.166Z</time>
</trkpt>
<trkpt lat="46.4391347" lon="13.5672428">
<ele>955.60</ele>
<time>2026-08-02T03:41:20.359Z</time>
</trkpt>
<trkpt lat="46.4389465" lon="13.5671403">
<ele>1039.58</ele>
<time>2026-08-02T03:41:29.545Z</time>
</trkpt>
<trkpt lat="46.4388554" lon="13.5668928">
<ele>961.91</ele>
<time>2026-08-02T03:41:51.062Z</time>
</trkpt>
<trkpt lat="46.4387390" lon="13.5666849">
<ele>954.46</ele>
<time>2026-08-02T03:42:08.127Z</time>
</trkpt>
<trkpt lat="46.4385870" lon="13.5665263">
<ele>962.44</ele>
<time>2026-08-02T03:42:24.004Z</time>
</trkpt>
<trkpt lat="46.4384526" lon="13.5663513">
<ele>965.81</ele>
<time>2026-08-02T03:42:36.565Z</time>
</trkpt>
<trkpt lat="46.4382807" lon="13.5662651">
<ele>972.67</ele>
<time>2026-08-02T03:42:50.706Z</time>
</trkpt>
<trkpt lat="46.4381359" lon="13.5661009">
<ele>972.97</ele>
<time>2026-08-02T03:43:10.627Z</time>
</trkpt>
<trkpt lat="46.4380202" lon="13.5658893">
<ele>972.75</ele>
<time>2026-08-02T03:43:30.704Z</time>
</trkpt>
<trkpt lat="46.4379008" lon="13.5656859">
<ele>976.80</ele>
<time>2026-08-02T03:43:50.685Z</time>
</trkpt>
<trkpt lat="46.4377605" lon="13.5655115">
<ele>980.09</ele>
<time>2026-08-02T03:44:11.984Z</time>
</trkpt>
<trkpt lat="46.4376065" lon="13.5653764">
<ele>985.47</ele>
<time>2026-08-02T03:44:30.646Z</time>
</trkpt>
<trkpt lat="46.4375455" lon="13.5651238">
<ele>993.59</ele>
<time>2026-08-02T03:44:57.186Z</time>
</trkpt>
<trkpt lat="46.4374597" lon="13.5648932">
<ele>1001.07</ele>
<time>2026-08-02T03:45:26.246Z</time>
</trkpt>
<trkpt lat="46.4372893" lon="13.5647968">
<ele>1008.91</ele>
<time>2026-08-02T03:45:48.193Z</time>
</trkpt>
<trkpt lat="46.4371566" lon="13.5646204">
<ele>1013.71</ele>
<time>2026-08-02T03:46:12.237Z</time>
</trkpt>
<trkpt lat="46.4370457" lon="13.5644121">
<ele>1026.89</ele>
<time>2026-08-02T03:46:41.784Z</time>
</trkpt>
<trkpt lat="46.4371691" lon="13.5642190">
<ele>1036.36</ele>
<time>2026-08-02T03:47:08.902Z</time>
</trkpt>
<trkpt lat="46.4370468" lon="13.5640243">
<ele>1043.62</ele>
<time>2026-08-02T03:47:35.246Z</time>
</trkpt>
<trkpt lat="46.4368918" lon="13.5638819">
<ele>1046.06</ele>
<time>2026-08-02T03:48:00.205Z</time>
</trkpt>
<trkpt lat="46.4367483" lon="13.5637178">
<ele>1052.89</ele>
<time>2026-08-02T03:48:22.217Z</time>
</trkpt>
<trkpt lat="46.4365949" lon="13.5635721">
<ele>1056.49</ele>
<time>2026-08-02T03:48:42.845Z</time>
</trkpt>
<trkpt lat="46.4365384" lon="13.5633214">
<ele>1064.71</ele>
<time>2026-08-02T03:49:07.125Z</time>
</trkpt>
<trkpt lat="46.4363965" lon="13.5631549">
<ele>1071.25</ele>
<time>2026-08-02T03:49:28.045Z</time>
</trkpt>
<trkpt lat="46.4362359" lon="13.5630371">
<ele>1077.33</ele>
<time>2026-08-02T03:49:47.782Z</time>
</trkpt>
<trkpt lat="46.4360693" lon="13.5629310">
<ele>1087.27</ele>
<time>2026-08-02T03:50:13.179Z</time>
</trkpt>
<trkpt lat="46.4358880" lon="13.5628984">
<ele>1092.01</ele>
<time>2026-08-02T03:50:32.706Z</time>
</trkpt>
<trkpt lat="46.4357059" lon="13.5629339">
<ele>1089.09</ele>
<time>2026-08-02T03:50:49.803Z</time>
</trkpt>
<trkpt lat="46.4355160" lon="13.5629183">
<ele>1088.12</ele>
<time>2026-08-02T03:51:01.745Z</time>
</trkpt>
<trkpt lat="46.4353433" lon="13.5628125">
<ele>1092.15</ele>
<time>2026-08-02T03:51:13.847Z</time>
</trkpt>
<trkpt lat="46.4351830" lon="13.5626607">
<ele>1098.74</ele>
<time>2026-08-02T03:51:28.222Z</time>
</trkpt>
<trkpt lat="46.4350535" lon="13.5624726">
<ele>1100.22</ele>
<time>2026-08-02T03:51:46.023Z</time>
</trkpt>
<trkpt lat="46.4349134" lon="13.5623009">
<ele>1100.71</ele>
<time>2026-08-02T03:52:05.067Z</time>
</trkpt>
<trkpt lat="46.4348381" lon="13.5620541">
<ele>1098.04</ele>
<time>2026-08-02T03:52:21.907Z</time>
</trkpt>
<trkpt lat="46.4347848" lon="13.5617908">
<ele>1094.63</ele>
<time>2026-08-02T03:52:38.043Z</time>
</trkpt>
<trkpt lat="46.4347659" lon="13.5615210">
<ele>1093.09</ele>
<time>2026-08-02T03:52:52.786Z</time>
</trkpt>
<trkpt lat="46.4346655" lon="13.5613014">
<ele>1097.06</ele>
<time>2026-08-02T03:53:04.163Z</time>
</trkpt>
<trkpt lat="46.4346076" lon="13.5610535">
<ele>1114.34</ele>
<time>2026-08-02T03:53:26.229Z</time>
</trkpt>
<trkpt lat="46.4344263" lon="13.5610634">
<ele>1117.94</ele>
<time>2026-08-02T03:54:00.167Z</time>
</trkpt>
<trkpt lat="46.4342511" lon="13.5611317">
<ele>1117.50</ele>
<time>2026-08-02T03:54:26.905Z</time>
</trkpt>
<trkpt lat="46.4340718" lon="13.5610721">
<ele>1120.62</ele>
<time>2026-08-02T03:54:46.245Z</time>
</trkpt>
<trkpt lat="46.4339100" lon="13.5609545">
<ele>1122.27</ele>
<time>2026-08-02T03:55:04.146Z</time>
</trkpt>
<trkpt lat="46.4338209" lon="13.5607162">
<ele>1121.92</ele>
<time>2026-08-02T03:55:23.225Z</time>
</trkpt>
<trkpt lat="46.4336800" lon="13.5605325">
<ele>1121.57</ele>
<time>2026-08-02T03:55:37.887Z</time>
</trkpt>
<trkpt lat="46.4335048" lon="13.5604542">
<ele>1125.90</ele>
<time>2026-08-02T03:55:48.826Z</time>
</trkpt>
<trkpt lat="46.4333289" lon="13.5603783">
<ele>1128.63</ele>
<time>2026-08-02T03:56:05.606Z</time>
</trkpt>
<trkpt lat="46.4331571" lon="13.5602970">
<ele>1134.63</ele>
<time>2026-08-02T03:56:21.923Z</time>
</trkpt>
<trkpt lat="46.4329735" lon="13.5602845">
<ele>1139.80</ele>
<time>2026-08-02T03:56:39.175Z</time>
</trkpt>
<trkpt lat="46.4327887" lon="13.5603039">
<ele>1145.26</ele>
<time>2026-08-02T03:56:56.447Z</time>
</trkpt>
<trkpt lat="46.4326121" lon="13.5603546">
<ele>1151.72</ele>
<time>2026-08-02T03:57:14.187Z</time>
</trkpt>
<trkpt lat="46.4324310" lon="13.5604087">
<ele>1154.95</ele>
<time>2026-08-02T03:57:31.183Z</time>
</trkpt>
<trkpt lat="46.4322533" lon="13.5604510">
<ele>1162.99</ele>
<time>2026-08-02T03:58:00.044Z</time>
</trkpt>
<trkpt lat="46.4321261" lon="13.5606379">
<ele>1168.42</ele>
<time>2026-08-02T03:58:16.249Z</time>
</trkpt>
<trkpt lat="46.4319658" lon="13.5607678">
<ele>1172.57</ele>
<time>2026-08-02T03:58:39.904Z</time>
</trkpt>
<trkpt lat="46.4318061" lon="13.5608978">
<ele>1178.66</ele>
<time>2026-08-02T03:59:00.903Z</time>
</trkpt>
<trkpt lat="46.4316313" lon="13.5609842">
<ele>1184.98</ele>
<time>2026-08-02T03:59:27.269Z</time>
</trkpt>
<trkpt lat="46.4314516" lon="13.5609997">
<ele>1191.68</ele>
<time>2026-08-02T03:59:50.627Z</time>
</trkpt>
<trkpt lat="46.4312700" lon="13.5609908">
<ele>1198.27</ele>
<time>2026-08-02T04:00:18.271Z</time>
</trkpt>
<trkpt lat="46.4311585" lon="13.5612016">
<ele>1205.55</ele>
<time>2026-08-02T04:00:40.266Z</time>
</trkpt>
<trkpt lat="46.4309879" lon="13.5612876">
<ele>1211.28</ele>
<time>2026-08-02T04:01:04.524Z</time>
</trkpt>
<trkpt lat="46.4308675" lon="13.5614882">
<ele>1218.47</ele>
<time>2026-08-02T04:01:28.883Z</time>
</trkpt>
<trkpt lat="46.4307924" lon="13.5612549">
<ele>1224.80</ele>
<time>2026-08-02T04:02:21.803Z</time>
</trkpt>
<trkpt lat="46.4306649" lon="13.5610601">
<ele>1220.56</ele>
<time>2026-08-02T04:02:42.944Z</time>
</trkpt>
<trkpt lat="46.4305015" lon="13.5609429">
<ele>1220.88</ele>
<time>2026-08-02T04:03:02.253Z</time>
</trkpt>
<trkpt lat="46.4303379" lon="13.5608220">
<ele>1222.93</ele>
<time>2026-08-02T04:03:22.966Z</time>
</trkpt>
<trkpt lat="46.4302569" lon="13.5605857">
<ele>1225.77</ele>
<time>2026-08-02T04:03:41.943Z</time>
</trkpt>
<trkpt lat="46.4302018" lon="13.5602884">
<ele>1241.41</ele>
<time>2026-08-02T04:04:15.184Z</time>
</trkpt>
<trkpt lat="46.4300304" lon="13.5601969">
<ele>1254.25</ele>
<time>2026-08-02T04:04:40.026Z</time>
</trkpt>
<trkpt lat="46.4298640" lon="13.5600858">
<ele>1259.10</ele>
<time>2026-08-02T04:05:08.198Z</time>
</trkpt>
<trkpt lat="46.4296837" lon="13.5600323">
<ele>1261.48</ele>
<time>2026-08-02T04:05:27.512Z</time>
</trkpt>
<trkpt lat="46.4295008" lon="13.5600618">
<ele>1263.56</ele>
<time>2026-08-02T04:05:48.983Z</time>
</trkpt>
<trkpt lat="46.4293575" lon="13.5598818">
<ele>1260.96</ele>
<time>2026-08-02T04:06:05.944Z</time>
</trkpt>
<trkpt lat="46.4291960" lon="13.5597532">
<ele>1264.45</ele>
<time>2026-08-02T04:06:25.127Z</time>
</trkpt>
<trkpt lat="46.4290140" lon="13.5597022">
<ele>1268.27</ele>
<time>2026-08-02T04:06:41.005Z</time>
</trkpt>
<trkpt lat="46.4288658" lon="13.5595394">
<ele>1274.38</ele>
<time>2026-08-02T04:06:57.105Z</time>
</trkpt>
<trkpt lat="46.4287546" lon="13.5593238">
<ele>1274.06</ele>
<time>2026-08-02T04:07:13.884Z</time>
</trkpt>
<trkpt lat="46.4287248" lon="13.5590588">
<ele>1274.94</ele>
<time>2026-08-02T04:07:26.187Z</time>
</trkpt>
<trkpt lat="46.4286972" lon="13.5587895">
<ele>1275.53</ele>
<time>2026-08-02T04:07:41.427Z</time>
</trkpt>
<trkpt lat="46.4285291" lon="13.5586233">
<ele>1296.79</ele>
<time>2026-08-02T04:07:54.066Z</time>
</trkpt>
<trkpt lat="46.4283573" lon="13.5585302">
<ele>1300.75</ele>
<time>2026-08-02T04:08:10.045Z</time>
</trkpt>
<trkpt lat="46.4281850" lon="13.5584357">
<ele>1305.37</ele>
<time>2026-08-02T04:08:26.824Z</time>
</trkpt>
<trkpt lat="46.4280483" lon="13.5582646">
<ele>1304.24</ele>
<time>2026-08-02T04:08:41.903Z</time>
</trkpt>
<trkpt lat="46.4279028" lon="13.5581006">
<ele>1302.44</ele>
<time>2026-08-02T04:08:55.986Z</time>
</trkpt>
<trkpt lat="46.4277684" lon="13.5579228">
<ele>1308.60</ele>
<time>2026-08-02T04:09:42.425Z</time>
</trkpt>
<trkpt lat="46.4275944" lon="13.5578405">
<ele>1319.77</ele>
<time>2026-08-02T04:10:15.867Z</time>
</trkpt>
<trkpt lat="46.4274031" lon="13.5579026">
<ele>1332.70</ele>
<time>2026-08-02T04:10:46.464Z</time>
</trkpt>
<trkpt lat="46.4272254" lon="13.5578530">
<ele>1333.88</ele>
<time>2026-08-02T04:11:04.723Z</time>
</trkpt>
<trkpt lat="46.4271380" lon="13.5581298">
<ele>1374.31</ele>
<time>2026-08-02T04:11:35.201Z</time>
</trkpt>
<trkpt lat="46.4269715" lon="13.5580277">
<ele>1344.73</ele>
<time>2026-08-02T04:12:02.803Z</time>
</trkpt>
<trkpt lat="46.4269601" lon="13.5577631">
<ele>1340.34</ele>
<time>2026-08-02T04:12:35.744Z</time>
</trkpt>
<trkpt lat="46.4270426" lon="13.5575194">
<ele>1338.36</ele>
<time>2026-08-02T04:12:48.586Z</time>
</trkpt>
<trkpt lat="46.4270679" lon="13.5572465">
<ele>1344.47</ele>
<time>2026-08-02T04:13:03.867Z</time>
</trkpt>
<trkpt lat="46.4271482" lon="13.5570072">
<ele>1350.52</ele>
<time>2026-08-02T04:13:13.907Z</time>
</trkpt>
<trkpt lat="46.4272724" lon="13.5568171">
<ele>1350.08</ele>
<time>2026-08-02T04:13:28.725Z</time>
</trkpt>
<trkpt lat="46.4273431" lon="13.5565675">
<ele>1359.84</ele>
<time>2026-08-02T04:13:44.177Z</time>
</trkpt>
<trkpt lat="46.4273770" lon="13.5563024">
<ele>1371.20</ele>
<time>2026-08-02T04:14:01.646Z</time>
</trkpt>
<trkpt lat="46.4274839" lon="13.5560868">
<ele>1371.08</ele>
<time>2026-08-02T04:14:19.925Z</time>
</trkpt>
<trkpt lat="46.4275633" lon="13.5558320">
<ele>1372.06</ele>
<time>2026-08-02T04:14:36.785Z</time>
</trkpt>
<trkpt lat="46.4276649" lon="13.5556124">
<ele>1374.76</ele>
<time>2026-08-02T04:14:53.565Z</time>
</trkpt>
<trkpt lat="46.4277444" lon="13.5553720">
<ele>1379.50</ele>
<time>2026-08-02T04:15:12.004Z</time>
</trkpt>
<trkpt lat="46.4278209" lon="13.5551261">
<ele>1381.19</ele>
<time>2026-08-02T04:15:26.405Z</time>
</trkpt>
<trkpt lat="46.4278988" lon="13.5548852">
<ele>1384.17</ele>
<time>2026-08-02T04:15:41.068Z</time>
</trkpt>
<trkpt lat="46.4280013" lon="13.5546566">
<ele>1387.39</ele>
<time>2026-08-02T04:15:57.886Z</time>
</trkpt>
<trkpt lat="46.4280346" lon="13.5543976">
<ele>1392.66</ele>
<time>2026-08-02T04:16:17.844Z</time>
</trkpt>
<trkpt lat="46.4281087" lon="13.5541592">
<ele>1397.90</ele>
<time>2026-08-02T04:16:34.065Z</time>
</trkpt>
<trkpt lat="46.4281839" lon="13.5539194">
<ele>1398.43</ele>
<time>2026-08-02T04:16:59.707Z</time>
</trkpt>
<trkpt lat="46.4281597" lon="13.5536485">
<ele>1401.60</ele>
<time>2026-08-02T04:17:14.142Z</time>
</trkpt>
<trkpt lat="46.4280994" lon="13.5533964">
<ele>1419.35</ele>
<time>2026-08-02T04:17:36.027Z</time>
</trkpt>
<trkpt lat="46.4281210" lon="13.5531326">
<ele>1415.73</ele>
<time>2026-08-02T04:17:52.364Z</time>
</trkpt>
<trkpt lat="46.4281931" lon="13.5528844">
<ele>1416.07</ele>
<time>2026-08-02T04:18:06.825Z</time>
</trkpt>
<trkpt lat="46.4282685" lon="13.5526404">
<ele>1417.93</ele>
<time>2026-08-02T04:18:23.765Z</time>
</trkpt>
<trkpt lat="46.4283128" lon="13.5523854">
<ele>1418.67</ele>
<time>2026-08-02T04:18:42.245Z</time>
</trkpt>
<trkpt lat="46.4283755" lon="13.5521405">
<ele>1432.15</ele>
<time>2026-08-02T04:19:00.784Z</time>
</trkpt>
<trkpt lat="46.4283823" lon="13.5518588">
<ele>1449.48</ele>
<time>2026-08-02T04:19:26.904Z</time>
</trkpt>
<trkpt lat="46.4283681" lon="13.5515949">
<ele>1449.47</ele>
<time>2026-08-02T04:19:46.223Z</time>
</trkpt>
<trkpt lat="46.4283781" lon="13.5513309">
<ele>1455.66</ele>
<time>2026-08-02T04:20:09.260Z</time>
</trkpt>
<trkpt lat="46.4283007" lon="13.5510879">
<ele>1456.30</ele>
<time>2026-08-02T04:20:25.349Z</time>
</trkpt>
<trkpt lat="46.4284018" lon="13.5508611">
<ele>1456.00</ele>
<time>2026-08-02T04:20:44.945Z</time>
</trkpt>
<trkpt lat="46.4284701" lon="13.5506177">
<ele>1455.31</ele>
<time>2026-08-02T04:21:06.251Z</time>
</trkpt>
<trkpt lat="46.4284771" lon="13.5503519">
<ele>1459.43</ele>
<time>2026-08-02T04:21:30.193Z</time>
</trkpt>
<trkpt lat="46.4285088" lon="13.5500896">
<ele>1465.71</ele>
<time>2026-08-02T04:21:54.587Z</time>
</trkpt>
<trkpt lat="46.4285928" lon="13.5498523">
<ele>1468.05</ele>
<time>2026-08-02T04:22:15.259Z</time>
</trkpt>
<trkpt lat="46.4285253" lon="13.5495960">
<ele>1479.31</ele>
<time>2026-08-02T04:22:35.825Z</time>
</trkpt>
<trkpt lat="46.4284147" lon="13.5493778">
<ele>1478.94</ele>
<time>2026-08-02T04:22:57.207Z</time>
</trkpt>
<trkpt lat="46.4282645" lon="13.5492047">
<ele>1494.96</ele>
<time>2026-08-02T04:23:16.168Z</time>
</trkpt>
<trkpt lat="46.4281360" lon="13.5490206">
<ele>1502.89</ele>
<time>2026-08-02T04:23:29.205Z</time>
</trkpt>
<trkpt lat="46.4280792" lon="13.5486771">
<ele>1496.61</ele>
<time>2026-08-02T04:23:50.129Z</time>
</trkpt>
<trkpt lat="46.4280863" lon="13.5484070">
<ele>1507.37</ele>
<time>2026-08-02T04:24:10.786Z</time>
</trkpt>
<trkpt lat="46.4280301" lon="13.5481500">
<ele>1511.10</ele>
<time>2026-08-02T04:24:30.725Z</time>
</trkpt>
<trkpt lat="46.4280240" lon="13.5478848">
<ele>1522.60</ele>
<time>2026-08-02T04:24:54.129Z</time>
</trkpt>
<trkpt lat="46.4282103" lon="13.5478601">
<ele>1543.37</ele>
<time>2026-08-02T04:25:22.745Z</time>
</trkpt>
<trkpt lat="46.4283873" lon="13.5479227">
<ele>1534.32</ele>
<time>2026-08-02T04:25:37.709Z</time>
</trkpt>
<trkpt lat="46.4285234" lon="13.5480991">
<ele>1531.43</ele>
<time>2026-08-02T04:25:56.248Z</time>
</trkpt>
<trkpt lat="46.4286848" lon="13.5482233">
<ele>1530.69</ele>
<time>2026-08-02T04:26:16.226Z</time>
</trkpt>
<trkpt lat="46.4288560" lon="13.5483196">
<ele>1548.31</ele>
<time>2026-08-02T04:26:35.199Z</time>
</trkpt>
<trkpt lat="46.4290401" lon="13.5483758">
<ele>1545.98</ele>
<time>2026-08-02T04:26:55.217Z</time>
</trkpt>
<trkpt lat="46.4291912" lon="13.5485182">
<ele>1547.98</ele>
<time>2026-08-02T04:27:14.229Z</time>
</trkpt>
<trkpt lat="46.4292936" lon="13.5482984">
<ele>1550.09</ele>
<time>2026-08-02T04:27:41.248Z</time>
</trkpt>
<trkpt lat="46.4292640" lon="13.5480355">
<ele>1554.40</ele>
<time>2026-08-02T04:28:01.729Z</time>
</trkpt>
<trkpt lat="46.4292200" lon="13.5477772">
<ele>1562.64</ele>
<time>2026-08-02T04:28:25.248Z</time>
</trkpt>
<trkpt lat="46.4292363" lon="13.5475157">
<ele>1569.60</ele>
<time>2026-08-02T04:28:50.889Z</time>
</trkpt>
<trkpt lat="46.4292394" lon="13.5472504">
<ele>1575.47</ele>
<time>2026-08-02T04:29:12.245Z</time>
</trkpt>
<trkpt lat="46.4292288" lon="13.5469863">
<ele>1581.41</ele>
<time>2026-08-02T04:29:37.649Z</time>
</trkpt>
<trkpt lat="46.4291783" lon="13.5465521">
<ele>1605.63</ele>
<time>2026-08-02T04:30:31.508Z</time>
</trkpt>
<trkpt lat="46.4292322" lon="13.5462353">
<ele>1607.30</ele>
<time>2026-08-02T04:30:56.269Z</time>
</trkpt>
<trkpt lat="46.4292887" lon="13.5459869">
<ele>1606.02</ele>
<time>2026-08-02T04:31:12.706Z</time>
</trkpt>
<trkpt lat="46.4292784" lon="13.5457196">
<ele>1611.96</ele>
<time>2026-08-02T04:31:30.129Z</time>
</trkpt>
<trkpt lat="46.4292309" lon="13.5454621">
<ele>1618.99</ele>
<time>2026-08-02T04:31:52.169Z</time>
</trkpt>
<trkpt lat="46.4292282" lon="13.5451964">
<ele>1626.79</ele>
<time>2026-08-02T04:32:14.666Z</time>
</trkpt>
<trkpt lat="46.4292244" lon="13.5449301">
<ele>1633.37</ele>
<time>2026-08-02T04:32:38.628Z</time>
</trkpt>
<trkpt lat="46.4292523" lon="13.5446648">
<ele>1639.21</ele>
<time>2026-08-02T04:33:06.145Z</time>
</trkpt>
<trkpt lat="46.4292982" lon="13.5444054">
<ele>1643.59</ele>
<time>2026-08-02T04:33:29.648Z</time>
</trkpt>
<trkpt lat="46.4292598" lon="13.5441439">
<ele>1648.15</ele>
<time>2026-08-02T04:33:48.886Z</time>
</trkpt>
<trkpt lat="46.4291845" lon="13.5438983">
<ele>1652.32</ele>
<time>2026-08-02T04:34:07.279Z</time>
</trkpt>
<trkpt lat="46.4292177" lon="13.5436392">
<ele>1658.58</ele>
<time>2026-08-02T04:34:27.865Z</time>
</trkpt>
<trkpt lat="46.4292748" lon="13.5433856">
<ele>1661.00</ele>
<time>2026-08-02T04:34:45.745Z</time>
</trkpt>
<trkpt lat="46.4292190" lon="13.5427511">
<ele>1671.19</ele>
<time>2026-08-02T04:35:40.445Z</time>
</trkpt>
<trkpt lat="46.4291022" lon="13.5425483">
<ele>1664.69</ele>
<time>2026-08-02T04:35:50.469Z</time>
</trkpt>
<trkpt lat="46.4290665" lon="13.5422904">
<ele>1663.44</ele>
<time>2026-08-02T04:36:04.105Z</time>
</trkpt>
<trkpt lat="46.4289069" lon="13.5416808">
<ele>1669.64</ele>
<time>2026-08-02T04:37:50.235Z</time>
</trkpt>
<trkpt lat="46.4288803" lon="13.5414194">
<ele>1674.48</ele>
<time>2026-08-02T04:38:30.126Z</time>
</trkpt>
<trkpt lat="46.4289257" lon="13.5411611">
<ele>1684.04</ele>
<time>2026-08-02T04:39:18.647Z</time>
</trkpt>
<trkpt lat="46.4289688" lon="13.5409033">
<ele>1690.08</ele>
<time>2026-08-02T04:39:45.249Z</time>
</trkpt>
<trkpt lat="46.4289146" lon="13.5406540">
<ele>1695.10</ele>
<time>2026-08-02T04:40:19.767Z</time>
</trkpt>
<trkpt lat="46.4289435" lon="13.5403926">
<ele>1707.13</ele>
<time>2026-08-02T04:40:59.647Z</time>
</trkpt>
<trkpt lat="46.4289453" lon="13.5401242">
<ele>1720.16</ele>
<time>2026-08-02T04:41:49.189Z</time>
</trkpt>
<trkpt lat="46.4289364" lon="13.5398593">
<ele>1732.92</ele>
<time>2026-08-02T04:43:03.125Z</time>
</trkpt>
<trkpt lat="46.4287567" lon="13.5397217">
<ele>1747.05</ele>
<time>2026-08-02T04:45:02.170Z</time>
</trkpt>
<trkpt lat="46.4285150" lon="13.5396133">
<ele>1740.41</ele>
<time>2026-08-02T04:45:53.170Z</time>
</trkpt>
<trkpt lat="46.4284020" lon="13.5393359">
<ele>1743.02</ele>
<time>2026-08-02T04:50:00.646Z</time>
</trkpt>
<trkpt lat="46.4283857" lon="13.5390748">
<ele>1765.50</ele>
<time>2026-08-02T04:51:05.245Z</time>
</trkpt>
<trkpt lat="46.4285322" lon="13.5388094">
<ele>1784.10</ele>
<time>2026-08-02T04:52:11.987Z</time>
</trkpt>
<trkpt lat="46.4286099" lon="13.5385572">
<ele>1798.78</ele>
<time>2026-08-02T04:53:19.965Z</time>
</trkpt>
<trkpt lat="46.4285745" lon="13.5382953">
<ele>1819.59</ele>
<time>2026-08-02T04:54:25.027Z</time>
</trkpt>
<trkpt lat="46.4284821" lon="13.5380637">
<ele>1827.38</ele>
<time>2026-08-02T04:55:30.219Z</time>
</trkpt>
<trkpt lat="46.4285207" lon="13.5378083">
<ele>1831.00</ele>
<time>2026-08-02T04:56:09.085Z</time>
</trkpt>
<trkpt lat="46.4286068" lon="13.5375491">
<ele>1847.28</ele>
<time>2026-08-02T04:57:07.245Z</time>
</trkpt>
<trkpt lat="46.4286664" lon="13.5370201">
<ele>1893.99</ele>
<time>2026-08-02T04:59:13.549Z</time>
</trkpt>
<trkpt lat="46.4287750" lon="13.5367500">
<ele>1932.47</ele>
<time>2026-08-02T05:02:34.171Z</time>
</trkpt>
<trkpt lat="46.4287783" lon="13.5367117">
<ele>1943.78</ele>
<time>2026-08-02T05:05:08.172Z</time>
</trkpt>
<trkpt lat="46.4289333" lon="13.5365767">
<ele>1928.46</ele>
<time>2026-08-02T05:05:51.172Z</time>
</trkpt>
<trkpt lat="46.4291350" lon="13.5365733">
<ele>1956.92</ele>
<time>2026-08-02T05:11:57.173Z</time>
</trkpt>
<trkpt lat="46.4292800" lon="13.5363983">
<ele>1970.70</ele>
<time>2026-08-02T05:14:56.173Z</time>
</trkpt>
<trkpt lat="46.4294564" lon="13.5363243">
<ele>1975.98</ele>
<time>2026-08-02T05:16:21.532Z</time>
</trkpt>
<trkpt lat="46.4295911" lon="13.5360298">
<ele>1983.67</ele>
<time>2026-08-02T05:17:56.174Z</time>
</trkpt>
<trkpt lat="46.4296933" lon="13.5357367">
<ele>1993.05</ele>
<time>2026-08-02T05:19:36.174Z</time>
</trkpt>
<trkpt lat="46.4298783" lon="13.5351567">
<ele>2019.35</ele>
<time>2026-08-02T05:24:30.175Z</time>
</trkpt>
<trkpt lat="46.4299367" lon="13.5349083">
<ele>2041.79</ele>
<time>2026-08-02T05:27:25.175Z</time>
</trkpt>
<trkpt lat="46.4300667" lon="13.5346583">
<ele>2051.03</ele>
<time>2026-08-02T05:28:44.175Z</time>
</trkpt>
<trkpt lat="46.4301583" lon="13.5344295">
<ele>2058.71</ele>
<time>2026-08-02T05:29:46.195Z</time>
</trkpt>
<trkpt lat="46.4302731" lon="13.5342241">
<ele>2055.26</ele>
<time>2026-08-02T05:30:29.813Z</time>
</trkpt>
<trkpt lat="46.4302713" lon="13.5339458">
<ele>2038.93</ele>
<time>2026-08-02T05:33:09.716Z</time>
</trkpt>
<trkpt lat="46.4302635" lon="13.5342204">
<ele>2047.04</ele>
<time>2026-08-02T05:33:20.244Z</time>
</trkpt>
<trkpt lat="46.4302532" lon="13.5343798">
<ele>2066.92</ele>
<time>2026-08-02T05:34:17.210Z</time>
</trkpt>
<trkpt lat="46.4300633" lon="13.5345667">
<ele>2073.39</ele>
<time>2026-08-02T05:38:17.176Z</time>
</trkpt>
<trkpt lat="46.4300400" lon="13.5348300">
<ele>2048.37</ele>
<time>2026-08-02T05:40:09.176Z</time>
</trkpt>
<trkpt lat="46.4298967" lon="13.5351050">
<ele>2031.82</ele>
<time>2026-08-02T05:47:21.177Z</time>
</trkpt>
<trkpt lat="46.4297683" lon="13.5354333">
<ele>2009.58</ele>
<time>2026-08-02T05:51:44.177Z</time>
</trkpt>
<trkpt lat="46.4297183" lon="13.5356850">
<ele>1996.54</ele>
<time>2026-08-02T05:54:08.178Z</time>
</trkpt>
<trkpt lat="46.4295917" lon="13.5360267">
<ele>1985.27</ele>
<time>2026-08-02T05:56:20.178Z</time>
</trkpt>
<trkpt lat="46.4294848" lon="13.5362369">
<ele>1975.52</ele>
<time>2026-08-02T05:57:09.178Z</time>
</trkpt>
<trkpt lat="46.4293389" lon="13.5363900">
<ele>1970.70</ele>
<time>2026-08-02T05:57:58.217Z</time>
</trkpt>
<trkpt lat="46.4291617" lon="13.5365433">
<ele>1965.73</ele>
<time>2026-08-02T06:02:16.179Z</time>
</trkpt>
<trkpt lat="46.4289867" lon="13.5366500">
<ele>1954.58</ele>
<time>2026-08-02T06:09:17.180Z</time>
</trkpt>
<trkpt lat="46.4288033" lon="13.5367183">
<ele>1915.85</ele>
<time>2026-08-02T06:28:41.183Z</time>
</trkpt>
<trkpt lat="46.4286350" lon="13.5368933">
<ele>1926.51</ele>
<time>2026-08-02T06:32:52.184Z</time>
</trkpt>
<trkpt lat="46.4285600" lon="13.5369167">
<ele>1913.46</ele>
<time>2026-08-02T06:44:57.183Z</time>
</trkpt>
<trkpt lat="46.4285133" lon="13.5368717">
<ele>1910.73</ele>
<time>2026-08-02T06:45:48.183Z</time>
</trkpt>
<trkpt lat="46.4283750" lon="13.5366667">
<ele>1915.76</ele>
<time>2026-08-02T06:49:05.183Z</time>
</trkpt>
<trkpt lat="46.4283486" lon="13.5364027">
<ele>1905.50</ele>
<time>2026-08-02T06:50:47.919Z</time>
</trkpt>
<trkpt lat="46.4283303" lon="13.5361338">
<ele>1891.77</ele>
<time>2026-08-02T06:52:15.248Z</time>
</trkpt>
<trkpt lat="46.4281437" lon="13.5360359">
<ele>1921.69</ele>
<time>2026-08-02T06:52:30.199Z</time>
</trkpt>
<trkpt lat="46.4280612" lon="13.5359883">
<ele>1930.89</ele>
<time>2026-08-02T06:53:05.080Z</time>
</trkpt>
<trkpt lat="46.4279650" lon="13.5361350">
<ele>1869.84</ele>
<time>2026-08-02T06:55:17.183Z</time>
</trkpt>
<trkpt lat="46.4278017" lon="13.5360117">
<ele>1888.70</ele>
<time>2026-08-02T06:55:20.183Z</time>
</trkpt>
<trkpt lat="46.4276781" lon="13.5362040">
<ele>1861.87</ele>
<time>2026-08-02T06:56:06.838Z</time>
</trkpt>
<trkpt lat="46.4275014" lon="13.5361359">
<ele>1907.12</ele>
<time>2026-08-02T06:56:44.039Z</time>
</trkpt>
<trkpt lat="46.4273960" lon="13.5363552">
<ele>1838.53</ele>
<time>2026-08-02T06:57:44.521Z</time>
</trkpt>
<trkpt lat="46.4272131" lon="13.5363476">
<ele>1826.83</ele>
<time>2026-08-02T06:58:16.439Z</time>
</trkpt>
<trkpt lat="46.4270392" lon="13.5364167">
<ele>1810.86</ele>
<time>2026-08-02T06:59:19.760Z</time>
</trkpt>
<trkpt lat="46.4268883" lon="13.5365601">
<ele>1795.52</ele>
<time>2026-08-02T07:00:18.098Z</time>
</trkpt>
<trkpt lat="46.4267125" lon="13.5365028">
<ele>1785.89</ele>
<time>2026-08-02T07:01:03.271Z</time>
</trkpt>
<trkpt lat="46.4265985" lon="13.5363006">
<ele>1769.65</ele>
<time>2026-08-02T07:02:02.281Z</time>
</trkpt>
<trkpt lat="46.4264960" lon="13.5360085">
<ele>1765.61</ele>
<time>2026-08-02T07:02:33.099Z</time>
</trkpt>
<trkpt lat="46.4263419" lon="13.5358731">
<ele>1739.90</ele>
<time>2026-08-02T07:03:40.537Z</time>
</trkpt>
<trkpt lat="46.4262188" lon="13.5356804">
<ele>1730.58</ele>
<time>2026-08-02T07:04:13.017Z</time>
</trkpt>
<trkpt lat="46.4260352" lon="13.5356927">
<ele>1722.18</ele>
<time>2026-08-02T07:04:46.041Z</time>
</trkpt>
<trkpt lat="46.4257928" lon="13.5356989">
<ele>1729.64</ele>
<time>2026-08-02T07:05:29.598Z</time>
</trkpt>
<trkpt lat="46.4256044" lon="13.5357370">
<ele>1715.84</ele>
<time>2026-08-02T07:06:08.497Z</time>
</trkpt>
<trkpt lat="46.4254633" lon="13.5355700">
<ele>1666.85</ele>
<time>2026-08-02T07:08:26.184Z</time>
</trkpt>
<trkpt lat="46.4254950" lon="13.5353117">
<ele>1672.84</ele>
<time>2026-08-02T07:09:02.184Z</time>
</trkpt>
<trkpt lat="46.4253245" lon="13.5354140">
<ele>1640.77</ele>
<time>2026-08-02T07:11:33.295Z</time>
</trkpt>
<trkpt lat="46.4250693" lon="13.5353785">
<ele>1689.91</ele>
<time>2026-08-02T07:12:06.259Z</time>
</trkpt>
<trkpt lat="46.4250663" lon="13.5352809">
<ele>1646.37</ele>
<time>2026-08-02T07:12:33.269Z</time>
</trkpt>
<trkpt lat="46.4248996" lon="13.5351767">
<ele>1614.65</ele>
<time>2026-08-02T07:13:39.267Z</time>
</trkpt>
<trkpt lat="46.4247884" lon="13.5349686">
<ele>1607.49</ele>
<time>2026-08-02T07:14:17.219Z</time>
</trkpt>
<trkpt lat="46.4246303" lon="13.5351272">
<ele>1623.29</ele>
<time>2026-08-02T07:14:32.617Z</time>
</trkpt>
<trkpt lat="46.4244533" lon="13.5351762">
<ele>1583.47</ele>
<time>2026-08-02T07:15:39.219Z</time>
</trkpt>
<trkpt lat="46.4242799" lon="13.5352812">
<ele>1576.18</ele>
<time>2026-08-02T07:16:04.270Z</time>
</trkpt>
<trkpt lat="46.4241055" lon="13.5352132">
<ele>1568.17</ele>
<time>2026-08-02T07:16:39.940Z</time>
</trkpt>
<trkpt lat="46.4239268" lon="13.5352523">
<ele>1552.52</ele>
<time>2026-08-02T07:17:22.798Z</time>
</trkpt>
<trkpt lat="46.4237720" lon="13.5351168">
<ele>1536.56</ele>
<time>2026-08-02T07:18:15.258Z</time>
</trkpt>
<trkpt lat="46.4237313" lon="13.5348582">
<ele>1517.97</ele>
<time>2026-08-02T07:19:05.278Z</time>
</trkpt>
<trkpt lat="46.4238036" lon="13.5346106">
<ele>1508.53</ele>
<time>2026-08-02T07:19:43.020Z</time>
</trkpt>
<trkpt lat="46.4238572" lon="13.5343347">
<ele>1495.49</ele>
<time>2026-08-02T07:20:35.157Z</time>
</trkpt>
<trkpt lat="46.4237447" lon="13.5341200">
<ele>1483.39</ele>
<time>2026-08-02T07:21:20.157Z</time>
</trkpt>
<trkpt lat="46.4236767" lon="13.5338738">
<ele>1457.93</ele>
<time>2026-08-02T07:22:11.997Z</time>
</trkpt>
<trkpt lat="46.4238190" lon="13.5337044">
<ele>1455.43</ele>
<time>2026-08-02T07:22:38.380Z</time>
</trkpt>
<trkpt lat="46.4238620" lon="13.5334491">
<ele>1441.22</ele>
<time>2026-08-02T07:23:33.977Z</time>
</trkpt>
<trkpt lat="46.4237600" lon="13.5332236">
<ele>1435.13</ele>
<time>2026-08-02T07:24:29.080Z</time>
</trkpt>
<trkpt lat="46.4238100" lon="13.5331071">
<ele>1437.53</ele>
<time>2026-08-02T07:25:34.216Z</time>
</trkpt>
<trkpt lat="46.4236986" lon="13.5329002">
<ele>1411.69</ele>
<time>2026-08-02T07:32:25.288Z</time>
</trkpt>
<trkpt lat="46.4236669" lon="13.5326429">
<ele>1407.55</ele>
<time>2026-08-02T07:33:02.211Z</time>
</trkpt>
<trkpt lat="46.4237118" lon="13.5323817">
<ele>1411.15</ele>
<time>2026-08-02T07:33:28.269Z</time>
</trkpt>
<trkpt lat="46.4236259" lon="13.5321509">
<ele>1418.66</ele>
<time>2026-08-02T07:34:06.837Z</time>
</trkpt>
<trkpt lat="46.4235424" lon="13.5319197">
<ele>1433.40</ele>
<time>2026-08-02T07:34:27.079Z</time>
</trkpt>
<trkpt lat="46.4235616" lon="13.5316467">
<ele>1446.54</ele>
<time>2026-08-02T07:35:15.216Z</time>
</trkpt>
<trkpt lat="46.4234379" lon="13.5314510">
<ele>1456.33</ele>
<time>2026-08-02T07:36:02.919Z</time>
</trkpt>
<trkpt lat="46.4233154" lon="13.5312549">
<ele>1457.67</ele>
<time>2026-08-02T07:36:26.899Z</time>
</trkpt>
<trkpt lat="46.4233945" lon="13.5310526">
<ele>1491.48</ele>
<time>2026-08-02T07:37:23.936Z</time>
</trkpt>
<trkpt lat="46.4235196" lon="13.5308534">
<ele>1471.41</ele>
<time>2026-08-02T07:37:58.240Z</time>
</trkpt>
<trkpt lat="46.4236998" lon="13.5308061">
<ele>1480.31</ele>
<time>2026-08-02T07:38:36.840Z</time>
</trkpt>
<trkpt lat="46.4238931" lon="13.5307468">
<ele>1474.28</ele>
<time>2026-08-02T07:39:13.337Z</time>
</trkpt>
<trkpt lat="46.4240723" lon="13.5306867">
<ele>1468.19</ele>
<time>2026-08-02T07:39:34.697Z</time>
</trkpt>
<trkpt lat="46.4242525" lon="13.5306918">
<ele>1467.66</ele>
<time>2026-08-02T07:39:55.740Z</time>
</trkpt>
<trkpt lat="46.4244041" lon="13.5305393">
<ele>1466.99</ele>
<time>2026-08-02T07:40:19.217Z</time>
</trkpt>
<trkpt lat="46.4245140" lon="13.5303316">
<ele>1478.42</ele>
<time>2026-08-02T07:40:51.210Z</time>
</trkpt>
<trkpt lat="46.4246788" lon="13.5302086">
<ele>1481.24</ele>
<time>2026-08-02T07:41:24.737Z</time>
</trkpt>
<trkpt lat="46.4248609" lon="13.5302082">
<ele>1493.97</ele>
<time>2026-08-02T07:41:51.272Z</time>
</trkpt>
<trkpt lat="46.4250237" lon="13.5303311">
<ele>1492.59</ele>
<time>2026-08-02T07:42:13.999Z</time>
</trkpt>
<trkpt lat="46.4251637" lon="13.5301605">
<ele>1501.99</ele>
<time>2026-08-02T07:42:45.021Z</time>
</trkpt>
<trkpt lat="46.4253185" lon="13.5300240">
<ele>1505.32</ele>
<time>2026-08-02T07:43:11.254Z</time>
</trkpt>
<trkpt lat="46.4254810" lon="13.5299045">
<ele>1516.86</ele>
<time>2026-08-02T07:43:39.601Z</time>
</trkpt>
<trkpt lat="46.4256393" lon="13.5297798">
<ele>1519.80</ele>
<time>2026-08-02T07:44:07.293Z</time>
</trkpt>
<trkpt lat="46.4258010" lon="13.5296634">
<ele>1532.23</ele>
<time>2026-08-02T07:44:36.757Z</time>
</trkpt>
<trkpt lat="46.4259788" lon="13.5297147">
<ele>1538.51</ele>
<time>2026-08-02T07:45:05.244Z</time>
</trkpt>
<trkpt lat="46.4261064" lon="13.5295214">
<ele>1544.16</ele>
<time>2026-08-02T07:45:36.277Z</time>
</trkpt>
<trkpt lat="46.4262002" lon="13.5292889">
<ele>1551.85</ele>
<time>2026-08-02T07:46:02.289Z</time>
</trkpt>
<trkpt lat="46.4263686" lon="13.5293995">
<ele>1559.72</ele>
<time>2026-08-02T07:46:38.357Z</time>
</trkpt>
<trkpt lat="46.4265049" lon="13.5295816">
<ele>1565.23</ele>
<time>2026-08-02T07:47:00.859Z</time>
</trkpt>
<trkpt lat="46.4264588" lon="13.5298392">
<ele>1578.74</ele>
<time>2026-08-02T07:47:23.516Z</time>
</trkpt>
<trkpt lat="46.4265988" lon="13.5300049">
<ele>1580.41</ele>
<time>2026-08-02T07:47:44.918Z</time>
</trkpt>
<trkpt lat="46.4267070" lon="13.5302142">
<ele>1582.43</ele>
<time>2026-08-02T07:48:10.740Z</time>
</trkpt>
<trkpt lat="46.4268371" lon="13.5303958">
<ele>1592.30</ele>
<time>2026-08-02T07:49:04.194Z</time>
</trkpt>
<trkpt lat="46.4269550" lon="13.5306533">
<ele>1609.98</ele>
<time>2026-08-02T07:50:59.184Z</time>
</trkpt>
<trkpt lat="46.4269965" lon="13.5309080">
<ele>1619.25</ele>
<time>2026-08-02T07:51:41.597Z</time>
</trkpt>
<trkpt lat="46.4270133" lon="13.5311797">
<ele>1626.56</ele>
<time>2026-08-02T07:52:13.097Z</time>
</trkpt>
<trkpt lat="46.4269158" lon="13.5314013">
<ele>1642.61</ele>
<time>2026-08-02T07:53:09.278Z</time>
</trkpt>
<trkpt lat="46.4269871" lon="13.5316463">
<ele>1645.99</ele>
<time>2026-08-02T07:53:44.939Z</time>
</trkpt>
<trkpt lat="46.4271695" lon="13.5316827">
<ele>1662.40</ele>
<time>2026-08-02T07:54:47.999Z</time>
</trkpt>
<trkpt lat="46.4272754" lon="13.5319098">
<ele>1677.51</ele>
<time>2026-08-02T07:55:45.242Z</time>
</trkpt>
<trkpt lat="46.4272156" lon="13.5321589">
<ele>1685.37</ele>
<time>2026-08-02T07:56:28.978Z</time>
</trkpt>
<trkpt lat="46.4273981" lon="13.5321515">
<ele>1707.70</ele>
<time>2026-08-02T07:59:22.139Z</time>
</trkpt>
<trkpt lat="46.4276213" lon="13.5320950">
<ele>1715.58</ele>
<time>2026-08-02T08:00:03.214Z</time>
</trkpt>
<trkpt lat="46.4277832" lon="13.5319786">
<ele>1729.71</ele>
<time>2026-08-02T08:00:50.157Z</time>
</trkpt>
<trkpt lat="46.4279629" lon="13.5319157">
<ele>1729.26</ele>
<time>2026-08-02T08:01:20.257Z</time>
</trkpt>
<trkpt lat="46.4280056" lon="13.5316565">
<ele>1747.26</ele>
<time>2026-08-02T08:02:36.780Z</time>
</trkpt>
<trkpt lat="46.4283747" lon="13.5317915">
<ele>1749.82</ele>
<time>2026-08-02T08:03:07.417Z</time>
</trkpt>
<trkpt lat="46.4284810" lon="13.5317347">
<ele>1751.69</ele>
<time>2026-08-02T08:04:41.938Z</time>
</trkpt>
<trkpt lat="46.4286383" lon="13.5318750">
<ele>1768.18</ele>
<time>2026-08-02T08:05:49.185Z</time>
</trkpt>
<trkpt lat="46.4288086" lon="13.5317460">
<ele>1778.78</ele>
<time>2026-08-02T08:06:48.601Z</time>
</trkpt>
<trkpt lat="46.4289946" lon="13.5317467">
<ele>1790.12</ele>
<time>2026-08-02T08:07:14.660Z</time>
</trkpt>
<trkpt lat="46.4291562" lon="13.5316288">
<ele>1802.47</ele>
<time>2026-08-02T08:08:11.231Z</time>
</trkpt>
<trkpt lat="46.4293276" lon="13.5315497">
<ele>1814.30</ele>
<time>2026-08-02T08:09:05.539Z</time>
</trkpt>
<trkpt lat="46.4294731" lon="13.5313747">
<ele>1820.16</ele>
<time>2026-08-02T08:09:51.243Z</time>
</trkpt>
<trkpt lat="46.4296383" lon="13.5312600">
<ele>1831.72</ele>
<time>2026-08-02T08:10:36.185Z</time>
</trkpt>
<trkpt lat="46.4297514" lon="13.5310394">
<ele>1854.32</ele>
<time>2026-08-02T08:11:31.253Z</time>
</trkpt>
<trkpt lat="46.4298269" lon="13.5308015">
<ele>1876.00</ele>
<time>2026-08-02T08:12:39.257Z</time>
</trkpt>
<trkpt lat="46.4297883" lon="13.5305452">
<ele>1887.20</ele>
<time>2026-08-02T08:13:32.220Z</time>
</trkpt>
<trkpt lat="46.4298920" lon="13.5303251">
<ele>1902.16</ele>
<time>2026-08-02T08:14:36.698Z</time>
</trkpt>
<trkpt lat="46.4298549" lon="13.5300640">
<ele>1913.88</ele>
<time>2026-08-02T08:15:23.161Z</time>
</trkpt>
<trkpt lat="46.4297026" lon="13.5299217">
<ele>1924.39</ele>
<time>2026-08-02T08:16:20.178Z</time>
</trkpt>
<trkpt lat="46.4295981" lon="13.5297088">
<ele>1931.64</ele>
<time>2026-08-02T08:16:53.213Z</time>
</trkpt>
<trkpt lat="46.4296699" lon="13.5294677">
<ele>1946.60</ele>
<time>2026-08-02T08:17:49.878Z</time>
</trkpt>
<trkpt lat="46.4296694" lon="13.5292066">
<ele>1959.57</ele>
<time>2026-08-02T08:18:38.881Z</time>
</trkpt>
<trkpt lat="46.4297064" lon="13.5290918">
<ele>2027.71</ele>
<time>2026-08-02T08:19:49.717Z</time>
</trkpt>
<trkpt lat="46.4298772" lon="13.5290072">
<ele>1990.44</ele>
<time>2026-08-02T08:19:55.921Z</time>
</trkpt>
<trkpt lat="46.4300473" lon="13.5289192">
<ele>1985.79</ele>
<time>2026-08-02T08:20:28.501Z</time>
</trkpt>
<trkpt lat="46.4300676" lon="13.5286499">
<ele>1990.90</ele>
<time>2026-08-02T08:20:56.220Z</time>
</trkpt>
<trkpt lat="46.4300809" lon="13.5283856">
<ele>1998.98</ele>
<time>2026-08-02T08:21:29.538Z</time>
</trkpt>
<trkpt lat="46.4300479" lon="13.5281274">
<ele>2005.96</ele>
<time>2026-08-02T08:21:53.720Z</time>
</trkpt>
<trkpt lat="46.4299380" lon="13.5279194">
<ele>2014.66</ele>
<time>2026-08-02T08:22:24.241Z</time>
</trkpt>
<trkpt lat="46.4298653" lon="13.5276783">
<ele>2022.61</ele>
<time>2026-08-02T08:23:00.259Z</time>
</trkpt>
<trkpt lat="46.4300176" lon="13.5274925">
<ele>2036.46</ele>
<time>2026-08-02T08:23:58.621Z</time>
</trkpt>
<trkpt lat="46.4300713" lon="13.5272420">
<ele>2047.54</ele>
<time>2026-08-02T08:24:44.309Z</time>
</trkpt>
<trkpt lat="46.4303145" lon="13.5272456">
<ele>2065.62</ele>
<time>2026-08-02T08:25:56.236Z</time>
</trkpt>
<trkpt lat="46.4304876" lon="13.5273249">
<ele>2080.71</ele>
<time>2026-08-02T08:26:53.901Z</time>
</trkpt>
<trkpt lat="46.4305906" lon="13.5271094">
<ele>2092.70</ele>
<time>2026-08-02T08:29:38.229Z</time>
</trkpt>
<trkpt lat="46.4306895" lon="13.5269165">
<ele>2096.40</ele>
<time>2026-08-02T08:31:29.226Z</time>
</trkpt>
<trkpt lat="46.4305896" lon="13.5271138">
<ele>2092.89</ele>
<time>2026-08-02T08:36:23.259Z</time>
</trkpt>
<trkpt lat="46.4305724" lon="13.5271605">
<ele>2103.33</ele>
<time>2026-08-02T08:37:55.880Z</time>
</trkpt>
<trkpt lat="46.4305950" lon="13.5269800">
<ele>2096.17</ele>
<time>2026-08-02T08:45:07.189Z</time>
</trkpt>
<trkpt lat="46.4305807" lon="13.5272422">
<ele>2100.37</ele>
<time>2026-08-02T08:49:06.660Z</time>
</trkpt>
<trkpt lat="46.4304711" lon="13.5272717">
<ele>2093.39</ele>
<time>2026-08-02T08:49:56.219Z</time>
</trkpt>
<trkpt lat="46.4302898" lon="13.5272452">
<ele>2077.35</ele>
<time>2026-08-02T08:51:04.298Z</time>
</trkpt>
<trkpt lat="46.4301103" lon="13.5272117">
<ele>2067.07</ele>
<time>2026-08-02T08:51:41.981Z</time>
</trkpt>
<trkpt lat="46.4299572" lon="13.5273604">
<ele>2054.86</ele>
<time>2026-08-02T08:52:20.058Z</time>
</trkpt>
<trkpt lat="46.4299497" lon="13.5276275">
<ele>2045.85</ele>
<time>2026-08-02T08:52:44.859Z</time>
</trkpt>
<trkpt lat="46.4299431" lon="13.5279026">
<ele>2038.18</ele>
<time>2026-08-02T08:53:21.517Z</time>
</trkpt>
<trkpt lat="46.4300072" lon="13.5281560">
<ele>2018.98</ele>
<time>2026-08-02T08:53:46.880Z</time>
</trkpt>
<trkpt lat="46.4300649" lon="13.5284055">
<ele>2013.00</ele>
<time>2026-08-02T08:54:06.977Z</time>
</trkpt>
<trkpt lat="46.4300205" lon="13.5286627">
<ele>2004.44</ele>
<time>2026-08-02T08:54:30.957Z</time>
</trkpt>
<trkpt lat="46.4300085" lon="13.5289245">
<ele>1995.11</ele>
<time>2026-08-02T08:54:55.224Z</time>
</trkpt>
<trkpt lat="46.4298448" lon="13.5290444">
<ele>1992.38</ele>
<time>2026-08-02T08:55:30.780Z</time>
</trkpt>
<trkpt lat="46.4296779" lon="13.5291456">
<ele>1978.87</ele>
<time>2026-08-02T08:56:12.221Z</time>
</trkpt>
<trkpt lat="46.4296407" lon="13.5294028">
<ele>1968.87</ele>
<time>2026-08-02T08:56:54.717Z</time>
</trkpt>
<trkpt lat="46.4295966" lon="13.5296564">
<ele>1955.42</ele>
<time>2026-08-02T08:57:42.018Z</time>
</trkpt>
<trkpt lat="46.4296312" lon="13.5299211">
<ele>1937.63</ele>
<time>2026-08-02T08:58:29.958Z</time>
</trkpt>
<trkpt lat="46.4297747" lon="13.5300848">
<ele>1936.12</ele>
<time>2026-08-02T08:59:17.440Z</time>
</trkpt>
<trkpt lat="46.4298276" lon="13.5303355">
<ele>1919.67</ele>
<time>2026-08-02T08:59:59.272Z</time>
</trkpt>
<trkpt lat="46.4298525" lon="13.5305943">
<ele>1909.86</ele>
<time>2026-08-02T09:00:51.060Z</time>
</trkpt>
<trkpt lat="46.4297837" lon="13.5308363">
<ele>1896.26</ele>
<time>2026-08-02T09:02:00.157Z</time>
</trkpt>
<trkpt lat="46.4296683" lon="13.5311078">
<ele>1871.17</ele>
<time>2026-08-02T09:03:47.737Z</time>
</trkpt>
<trkpt lat="46.4295210" lon="13.5312643">
<ele>1859.94</ele>
<time>2026-08-02T09:04:48.161Z</time>
</trkpt>
<trkpt lat="46.4293533" lon="13.5314733">
<ele>1842.62</ele>
<time>2026-08-02T09:06:20.189Z</time>
</trkpt>
<trkpt lat="46.4292130" lon="13.5316424">
<ele>1823.94</ele>
<time>2026-08-02T09:07:13.397Z</time>
</trkpt>
<trkpt lat="46.4290267" lon="13.5316817">
<ele>1810.50</ele>
<time>2026-08-02T09:08:46.190Z</time>
</trkpt>
<trkpt lat="46.4288499" lon="13.5317393">
<ele>1794.32</ele>
<time>2026-08-02T09:09:20.821Z</time>
</trkpt>
<trkpt lat="46.4286786" lon="13.5318441">
<ele>1779.26</ele>
<time>2026-08-02T09:10:14.038Z</time>
</trkpt>
<trkpt lat="46.4285167" lon="13.5317267">
<ele>1770.19</ele>
<time>2026-08-02T09:11:21.189Z</time>
</trkpt>
<trkpt lat="46.4283500" lon="13.5318333">
<ele>1759.64</ele>
<time>2026-08-02T09:12:08.189Z</time>
</trkpt>
<trkpt lat="46.4282120" lon="13.5316634">
<ele>1753.63</ele>
<time>2026-08-02T09:13:12.419Z</time>
</trkpt>
<trkpt lat="46.4280419" lon="13.5315661">
<ele>1751.95</ele>
<time>2026-08-02T09:13:31.877Z</time>
</trkpt>
<trkpt lat="46.4280086" lon="13.5318257">
<ele>1749.23</ele>
<time>2026-08-02T09:14:01.778Z</time>
</trkpt>
<trkpt lat="46.4278487" lon="13.5319586">
<ele>1731.04</ele>
<time>2026-08-02T09:14:41.997Z</time>
</trkpt>
<trkpt lat="46.4276857" lon="13.5320821">
<ele>1723.87</ele>
<time>2026-08-02T09:15:04.800Z</time>
</trkpt>
<trkpt lat="46.4275039" lon="13.5321051">
<ele>1718.50</ele>
<time>2026-08-02T09:15:31.840Z</time>
</trkpt>
<trkpt lat="46.4273385" lon="13.5322134">
<ele>1707.51</ele>
<time>2026-08-02T09:16:05.056Z</time>
</trkpt>
<trkpt lat="46.4272197" lon="13.5320163">
<ele>1689.53</ele>
<time>2026-08-02T09:18:53.461Z</time>
</trkpt>
<trkpt lat="46.4271133" lon="13.5318033">
<ele>1679.32</ele>
<time>2026-08-02T09:21:02.189Z</time>
</trkpt>
<trkpt lat="46.4269669" lon="13.5316380">
<ele>1657.73</ele>
<time>2026-08-02T09:22:40.189Z</time>
</trkpt>
<trkpt lat="46.4269564" lon="13.5313737">
<ele>1640.43</ele>
<time>2026-08-02T09:23:32.959Z</time>
</trkpt>
<trkpt lat="46.4269799" lon="13.5311137">
<ele>1638.22</ele>
<time>2026-08-02T09:24:00.159Z</time>
</trkpt>
<trkpt lat="46.4269456" lon="13.5308523">
<ele>1626.74</ele>
<time>2026-08-02T09:24:30.598Z</time>
</trkpt>
<trkpt lat="46.4268444" lon="13.5306307">
<ele>1608.44</ele>
<time>2026-08-02T09:25:17.397Z</time>
</trkpt>
<trkpt lat="46.4267693" lon="13.5303924">
<ele>1593.30</ele>
<time>2026-08-02T09:26:49.601Z</time>
</trkpt>
<trkpt lat="46.4266861" lon="13.5301573">
<ele>1585.03</ele>
<time>2026-08-02T09:27:08.838Z</time>
</trkpt>
<trkpt lat="46.4265447" lon="13.5299711">
<ele>1576.41</ele>
<time>2026-08-02T09:27:41.159Z</time>
</trkpt>
<trkpt lat="46.4265116" lon="13.5297100">
<ele>1565.48</ele>
<time>2026-08-02T09:28:08.439Z</time>
</trkpt>
<trkpt lat="46.4264888" lon="13.5294311">
<ele>1567.23</ele>
<time>2026-08-02T09:29:56.119Z</time>
</trkpt>
<trkpt lat="46.4264067" lon="13.5291200">
<ele>1570.12</ele>
<time>2026-08-02T09:32:29.190Z</time>
</trkpt>
<trkpt lat="46.4265750" lon="13.5289800">
<ele>1583.41</ele>
<time>2026-08-02T09:35:26.190Z</time>
</trkpt>
<trkpt lat="46.4267767" lon="13.5289150">
<ele>1595.75</ele>
<time>2026-08-02T09:36:43.190Z</time>
</trkpt>
<trkpt lat="46.4267733" lon="13.5285667">
<ele>1596.18</ele>
<time>2026-08-02T09:40:05.190Z</time>
</trkpt>
<trkpt lat="46.4269282" lon="13.5284181">
<ele>1596.34</ele>
<time>2026-08-02T09:40:47.961Z</time>
</trkpt>
<trkpt lat="46.4270933" lon="13.5283123">
<ele>1614.76</ele>
<time>2026-08-02T09:41:26.678Z</time>
</trkpt>
<trkpt lat="46.4272668" lon="13.5281943">
<ele>1622.38</ele>
<time>2026-08-02T09:42:12.136Z</time>
</trkpt>
<trkpt lat="46.4274441" lon="13.5282497">
<ele>1629.15</ele>
<time>2026-08-02T09:42:39.041Z</time>
</trkpt>
<trkpt lat="46.4275748" lon="13.5280685">
<ele>1640.46</ele>
<time>2026-08-02T09:43:14.241Z</time>
</trkpt>
<trkpt lat="46.4277248" lon="13.5279239">
<ele>1647.24</ele>
<time>2026-08-02T09:43:50.261Z</time>
</trkpt>
<trkpt lat="46.4276834" lon="13.5276679">
<ele>1657.83</ele>
<time>2026-08-02T09:44:17.101Z</time>
</trkpt>
<trkpt lat="46.4277641" lon="13.5274296">
<ele>1658.42</ele>
<time>2026-08-02T09:44:42.979Z</time>
</trkpt>
<trkpt lat="46.4279464" lon="13.5273578">
<ele>1663.80</ele>
<time>2026-08-02T09:45:16.877Z</time>
</trkpt>
<trkpt lat="46.4281279" lon="13.5273156">
<ele>1678.39</ele>
<time>2026-08-02T09:45:55.881Z</time>
</trkpt>
<trkpt lat="46.4282638" lon="13.5271420">
<ele>1689.56</ele>
<time>2026-08-02T09:46:44.680Z</time>
</trkpt>
<trkpt lat="46.4283894" lon="13.5269499">
<ele>1703.99</ele>
<time>2026-08-02T09:47:27.099Z</time>
</trkpt>
<trkpt lat="46.4284774" lon="13.5266915">
<ele>1720.33</ele>
<time>2026-08-02T09:48:35.960Z</time>
</trkpt>
<trkpt lat="46.4286277" lon="13.5265284">
<ele>1730.47</ele>
<time>2026-08-02T09:49:20.837Z</time>
</trkpt>
<trkpt lat="46.4286456" lon="13.5262641">
<ele>1746.38</ele>
<time>2026-08-02T09:50:02.821Z</time>
</trkpt>
<trkpt lat="46.4288241" lon="13.5262268">
<ele>1754.09</ele>
<time>2026-08-02T09:50:45.740Z</time>
</trkpt>
<trkpt lat="46.4290331" lon="13.5261184">
<ele>1758.54</ele>
<time>2026-08-02T09:51:47.838Z</time>
</trkpt>
<trkpt lat="46.4292096" lon="13.5260620">
<ele>1771.42</ele>
<time>2026-08-02T09:52:31.738Z</time>
</trkpt>
<trkpt lat="46.4293909" lon="13.5260886">
<ele>1797.42</ele>
<time>2026-08-02T09:53:17.856Z</time>
</trkpt>
<trkpt lat="46.4294285" lon="13.5258310">
<ele>1810.17</ele>
<time>2026-08-02T09:54:22.681Z</time>
</trkpt>
<trkpt lat="46.4295905" lon="13.5257173">
<ele>1822.50</ele>
<time>2026-08-02T09:55:21.638Z</time>
</trkpt>
<trkpt lat="46.4297643" lon="13.5256128">
<ele>1822.80</ele>
<time>2026-08-02T09:56:17.577Z</time>
</trkpt>
<trkpt lat="46.4299474" lon="13.5255953">
<ele>1862.85</ele>
<time>2026-08-02T09:57:35.260Z</time>
</trkpt>
<trkpt lat="46.4301210" lon="13.5257045">
<ele>1863.46</ele>
<time>2026-08-02T09:58:01.221Z</time>
</trkpt>
<trkpt lat="46.4303025" lon="13.5256456">
<ele>1863.31</ele>
<time>2026-08-02T09:58:42.273Z</time>
</trkpt>
<trkpt lat="46.4304596" lon="13.5255161">
<ele>1867.07</ele>
<time>2026-08-02T10:00:20.275Z</time>
</trkpt>
<trkpt lat="46.4306300" lon="13.5253533">
<ele>1883.05</ele>
<time>2026-08-02T10:02:14.190Z</time>
</trkpt>
<trkpt lat="46.4308767" lon="13.5251817">
<ele>1891.71</ele>
<time>2026-08-02T10:12:18.190Z</time>
</trkpt>
<trkpt lat="46.4310333" lon="13.5250517">
<ele>1871.20</ele>
<time>2026-08-02T10:13:44.190Z</time>
</trkpt>
<trkpt lat="46.4313883" lon="13.5248017">
<ele>1897.96</ele>
<time>2026-08-02T10:17:13.190Z</time>
</trkpt>
<trkpt lat="46.4314383" lon="13.5247817">
<ele>1903.57</ele>
<time>2026-08-02T10:17:50.190Z</time>
</trkpt>
<trkpt lat="46.4316129" lon="13.5248521">
<ele>1893.51</ele>
<time>2026-08-02T10:18:13.794Z</time>
</trkpt>
<trkpt lat="46.4317926" lon="13.5248026">
<ele>1892.18</ele>
<time>2026-08-02T10:19:04.032Z</time>
</trkpt>
<trkpt lat="46.4319479" lon="13.5246697">
<ele>1888.58</ele>
<time>2026-08-02T10:39:09.991Z</time>
</trkpt>
<trkpt lat="46.4321248" lon="13.5246124">
<ele>1876.31</ele>
<time>2026-08-02T10:40:01.231Z</time>
</trkpt>
<trkpt lat="46.4322862" lon="13.5244949">
<ele>1866.76</ele>
<time>2026-08-02T10:40:59.294Z</time>
</trkpt>
<trkpt lat="46.4324669" lon="13.5245235">
<ele>1847.61</ele>
<time>2026-08-02T10:41:53.172Z</time>
</trkpt>
<trkpt lat="46.4326478" lon="13.5245692">
<ele>1836.60</ele>
<time>2026-08-02T10:42:43.773Z</time>
</trkpt>
<trkpt lat="46.4328139" lon="13.5246783">
<ele>1821.61</ele>
<time>2026-08-02T10:43:46.219Z</time>
</trkpt>
<trkpt lat="46.4329898" lon="13.5247339">
<ele>1811.42</ele>
<time>2026-08-02T10:44:40.592Z</time>
</trkpt>
<trkpt lat="46.4329133" lon="13.5250267">
<ele>1794.57</ele>
<time>2026-08-02T10:45:32.189Z</time>
</trkpt>
<trkpt lat="46.4328381" lon="13.5252654">
<ele>1794.66</ele>
<time>2026-08-02T10:46:31.752Z</time>
</trkpt>
<trkpt lat="46.4330111" lon="13.5253386">
<ele>1780.43</ele>
<time>2026-08-02T10:48:12.611Z</time>
</trkpt>
<trkpt lat="46.4329578" lon="13.5255885">
<ele>1763.81</ele>
<time>2026-08-02T10:49:36.013Z</time>
</trkpt>
<trkpt lat="46.4328202" lon="13.5257690">
<ele>1757.22</ele>
<time>2026-08-02T10:49:56.835Z</time>
</trkpt>
<trkpt lat="46.4328369" lon="13.5260295">
<ele>1741.48</ele>
<time>2026-08-02T10:51:32.191Z</time>
</trkpt>
<trkpt lat="46.4329767" lon="13.5263200">
<ele>1723.62</ele>
<time>2026-08-02T10:54:34.189Z</time>
</trkpt>
<trkpt lat="46.4331518" lon="13.5262462">
<ele>1706.27</ele>
<time>2026-08-02T10:56:29.272Z</time>
</trkpt>
<trkpt lat="46.4331324" lon="13.5265099">
<ele>1687.07</ele>
<time>2026-08-02T10:57:46.912Z</time>
</trkpt>
<trkpt lat="46.4330370" lon="13.5267378">
<ele>1678.17</ele>
<time>2026-08-02T10:58:09.932Z</time>
</trkpt>
<trkpt lat="46.4330722" lon="13.5269940">
<ele>1670.22</ele>
<time>2026-08-02T10:59:06.247Z</time>
</trkpt>
<trkpt lat="46.4332142" lon="13.5271614">
<ele>1686.19</ele>
<time>2026-08-02T10:59:44.190Z</time>
</trkpt>
<trkpt lat="46.4330300" lon="13.5273150">
<ele>1645.30</ele>
<time>2026-08-02T11:01:25.794Z</time>
</trkpt>
<trkpt lat="46.4329569" lon="13.5275572">
<ele>1641.33</ele>
<time>2026-08-02T11:01:54.282Z</time>
</trkpt>
<trkpt lat="46.4328555" lon="13.5277781">
<ele>1635.79</ele>
<time>2026-08-02T11:02:42.795Z</time>
</trkpt>
<trkpt lat="46.4328200" lon="13.5281003">
<ele>1625.15</ele>
<time>2026-08-02T11:03:54.055Z</time>
</trkpt>
<trkpt lat="46.4326675" lon="13.5282456">
<ele>1615.72</ele>
<time>2026-08-02T11:04:36.511Z</time>
</trkpt>
<trkpt lat="46.4325383" lon="13.5287217">
<ele>1593.87</ele>
<time>2026-08-02T11:08:33.190Z</time>
</trkpt>
<trkpt lat="46.4325083" lon="13.5289800">
<ele>1569.80</ele>
<time>2026-08-02T11:11:28.191Z</time>
</trkpt>
<trkpt lat="46.4324167" lon="13.5292050">
<ele>1568.45</ele>
<time>2026-08-02T11:12:20.191Z</time>
</trkpt>
<trkpt lat="46.4326450" lon="13.5293767">
<ele>1587.94</ele>
<time>2026-08-02T11:12:56.191Z</time>
</trkpt>
<trkpt lat="46.4329525" lon="13.5293163">
<ele>1585.45</ele>
<time>2026-08-02T11:15:03.894Z</time>
</trkpt>
<trkpt lat="46.4331342" lon="13.5293252">
<ele>1557.76</ele>
<time>2026-08-02T11:15:53.714Z</time>
</trkpt>
<trkpt lat="46.4333638" lon="13.5289355">
<ele>1606.06</ele>
<time>2026-08-02T11:16:47.191Z</time>
</trkpt>
<trkpt lat="46.4335212" lon="13.5288042">
<ele>1520.26</ele>
<time>2026-08-02T11:19:55.223Z</time>
</trkpt>
<trkpt lat="46.4336150" lon="13.5285350">
<ele>1516.98</ele>
<time>2026-08-02T11:20:43.191Z</time>
</trkpt>
<trkpt lat="46.4338083" lon="13.5285000">
<ele>1505.10</ele>
<time>2026-08-02T11:22:16.191Z</time>
</trkpt>
<trkpt lat="46.4339083" lon="13.5282800">
<ele>1499.41</ele>
<time>2026-08-02T11:23:21.192Z</time>
</trkpt>
<trkpt lat="46.4340636" lon="13.5284223">
<ele>1481.23</ele>
<time>2026-08-02T11:23:56.172Z</time>
</trkpt>
<trkpt lat="46.4341184" lon="13.5281668">
<ele>1473.44</ele>
<time>2026-08-02T11:24:16.811Z</time>
</trkpt>
<trkpt lat="46.4342622" lon="13.5283243">
<ele>1460.47</ele>
<time>2026-08-02T11:24:50.534Z</time>
</trkpt>
<trkpt lat="46.4343464" lon="13.5285554">
<ele>1451.12</ele>
<time>2026-08-02T11:25:19.911Z</time>
</trkpt>
<trkpt lat="46.4344286" lon="13.5283183">
<ele>1442.52</ele>
<time>2026-08-02T11:25:42.875Z</time>
</trkpt>
<trkpt lat="46.4345921" lon="13.5282048">
<ele>1429.85</ele>
<time>2026-08-02T11:26:27.031Z</time>
</trkpt>
<trkpt lat="46.4347350" lon="13.5280387">
<ele>1424.35</ele>
<time>2026-08-02T11:26:55.291Z</time>
</trkpt>
<trkpt lat="46.4348429" lon="13.5278246">
<ele>1413.80</ele>
<time>2026-08-02T11:27:18.295Z</time>
</trkpt>
<trkpt lat="46.4349430" lon="13.5275995">
<ele>1409.09</ele>
<time>2026-08-02T11:27:41.153Z</time>
</trkpt>
<trkpt lat="46.4350117" lon="13.5273583">
<ele>1388.50</ele>
<time>2026-08-02T11:30:40.192Z</time>
</trkpt>
<trkpt lat="46.4349417" lon="13.5271083">
<ele>1388.80</ele>
<time>2026-08-02T11:31:17.192Z</time>
</trkpt>
<trkpt lat="46.4351050" lon="13.5269750">
<ele>1431.18</ele>
<time>2026-08-02T11:31:44.192Z</time>
</trkpt>
<trkpt lat="46.4350537" lon="13.5267203">
<ele>1394.99</ele>
<time>2026-08-02T11:32:24.267Z</time>
</trkpt>
<trkpt lat="46.4350359" lon="13.5263276">
<ele>1403.66</ele>
<time>2026-08-02T11:33:53.225Z</time>
</trkpt>
<trkpt lat="46.4349326" lon="13.5261064">
<ele>1392.10</ele>
<time>2026-08-02T11:34:37.295Z</time>
</trkpt>
<trkpt lat="46.4347713" lon="13.5259770">
<ele>1384.89</ele>
<time>2026-08-02T11:35:20.213Z</time>
</trkpt>
<trkpt lat="46.4347057" lon="13.5257298">
<ele>1396.50</ele>
<time>2026-08-02T11:35:56.094Z</time>
</trkpt>
<trkpt lat="46.4346553" lon="13.5254778">
<ele>1401.24</ele>
<time>2026-08-02T11:36:22.032Z</time>
</trkpt>
<trkpt lat="46.4347185" lon="13.5252265">
<ele>1401.60</ele>
<time>2026-08-02T11:36:50.174Z</time>
</trkpt>
<trkpt lat="46.4347607" lon="13.5249703">
<ele>1404.39</ele>
<time>2026-08-02T11:37:07.575Z</time>
</trkpt>
<trkpt lat="46.4347958" lon="13.5247071">
<ele>1410.16</ele>
<time>2026-08-02T11:37:43.232Z</time>
</trkpt>
<trkpt lat="46.4349641" lon="13.5246101">
<ele>1419.61</ele>
<time>2026-08-02T11:38:09.553Z</time>
</trkpt>
<trkpt lat="46.4349272" lon="13.5243420">
<ele>1420.93</ele>
<time>2026-08-02T11:38:49.134Z</time>
</trkpt>
<trkpt lat="46.4349027" lon="13.5240737">
<ele>1429.09</ele>
<time>2026-08-02T11:39:23.191Z</time>
</trkpt>
<trkpt lat="46.4350179" lon="13.5238688">
<ele>1440.21</ele>
<time>2026-08-02T11:39:53.295Z</time>
</trkpt>
<trkpt lat="46.4351245" lon="13.5236504">
<ele>1443.48</ele>
<time>2026-08-02T11:40:19.751Z</time>
</trkpt>
<trkpt lat="46.4352144" lon="13.5233444">
<ele>1446.04</ele>
<time>2026-08-02T11:40:58.834Z</time>
</trkpt>
<trkpt lat="46.4353539" lon="13.5231029">
<ele>1451.31</ele>
<time>2026-08-02T11:41:42.192Z</time>
</trkpt>
<trkpt lat="46.4353169" lon="13.5228116">
<ele>1469.99</ele>
<time>2026-08-02T11:43:17.268Z</time>
</trkpt>
<trkpt lat="46.4354104" lon="13.5225867">
<ele>1476.66</ele>
<time>2026-08-02T11:43:56.307Z</time>
</trkpt>
<trkpt lat="46.4354540" lon="13.5223292">
<ele>1486.08</ele>
<time>2026-08-02T11:44:56.871Z</time>
</trkpt>
<trkpt lat="46.4356344" lon="13.5223321">
<ele>1499.91</ele>
<time>2026-08-02T11:45:29.715Z</time>
</trkpt>
<trkpt lat="46.4355242" lon="13.5221068">
<ele>1511.58</ele>
<time>2026-08-02T11:46:11.093Z</time>
</trkpt>
<trkpt lat="46.4353828" lon="13.5219303">
<ele>1501.67</ele>
<time>2026-08-02T11:46:43.953Z</time>
</trkpt>
<trkpt lat="46.4352036" lon="13.5218530">
<ele>1510.10</ele>
<time>2026-08-02T11:47:22.915Z</time>
</trkpt>
<trkpt lat="46.4350231" lon="13.5218627">
<ele>1510.88</ele>
<time>2026-08-02T11:47:42.791Z</time>
</trkpt>
<trkpt lat="46.4348440" lon="13.5218044">
<ele>1518.34</ele>
<time>2026-08-02T11:48:02.672Z</time>
</trkpt>
<trkpt lat="46.4350316" lon="13.5219243">
<ele>1536.91</ele>
<time>2026-08-02T11:50:24.934Z</time>
</trkpt>
<trkpt lat="46.4352120" lon="13.5218973">
<ele>1523.54</ele>
<time>2026-08-02T11:50:44.273Z</time>
</trkpt>
<trkpt lat="46.4353943" lon="13.5219000">
<ele>1517.51</ele>
<time>2026-08-02T11:51:07.711Z</time>
</trkpt>
<trkpt lat="46.4353777" lon="13.5216350">
<ele>1503.59</ele>
<time>2026-08-02T11:51:46.091Z</time>
</trkpt>
<trkpt lat="46.4355382" lon="13.5215065">
<ele>1501.78</ele>
<time>2026-08-02T11:52:25.492Z</time>
</trkpt>
<trkpt lat="46.4357218" lon="13.5214813">
<ele>1491.86</ele>
<time>2026-08-02T11:52:48.257Z</time>
</trkpt>
<trkpt lat="46.4358808" lon="13.5216117">
<ele>1483.87</ele>
<time>2026-08-02T11:53:21.455Z</time>
</trkpt>
<trkpt lat="46.4359421" lon="13.5218604">
<ele>1478.42</ele>
<time>2026-08-02T11:53:51.911Z</time>
</trkpt>
<trkpt lat="46.4358756" lon="13.5216138">
<ele>1474.97</ele>
<time>2026-08-02T11:54:56.994Z</time>
</trkpt>
<trkpt lat="46.4357238" lon="13.5214718">
<ele>1482.11</ele>
<time>2026-08-02T11:55:25.112Z</time>
</trkpt>
<trkpt lat="46.4358282" lon="13.5212507">
<ele>1486.20</ele>
<time>2026-08-02T11:56:01.273Z</time>
</trkpt>
<trkpt lat="46.4360055" lon="13.5212019">
<ele>1485.20</ele>
<time>2026-08-02T11:56:22.195Z</time>
</trkpt>
<trkpt lat="46.4361716" lon="13.5210990">
<ele>1483.29</ele>
<time>2026-08-02T11:56:48.154Z</time>
</trkpt>
<trkpt lat="46.4363520" lon="13.5210913">
<ele>1486.12</ele>
<time>2026-08-02T11:57:02.874Z</time>
</trkpt>
<trkpt lat="46.4365353" lon="13.5210382">
<ele>1481.57</ele>
<time>2026-08-02T11:57:27.051Z</time>
</trkpt>
<trkpt lat="46.4367133" lon="13.5210913">
<ele>1475.21</ele>
<time>2026-08-02T11:57:48.774Z</time>
</trkpt>
<trkpt lat="46.4368918" lon="13.5211485">
<ele>1478.88</ele>
<time>2026-08-02T11:58:03.282Z</time>
</trkpt>
<trkpt lat="46.4370576" lon="13.5210318">
<ele>1467.86</ele>
<time>2026-08-02T11:58:23.551Z</time>
</trkpt>
<trkpt lat="46.4372379" lon="13.5210115">
<ele>1461.73</ele>
<time>2026-08-02T11:58:48.075Z</time>
</trkpt>
<trkpt lat="46.4373958" lon="13.5208715">
<ele>1454.03</ele>
<time>2026-08-02T11:59:10.054Z</time>
</trkpt>
<trkpt lat="46.4375769" lon="13.5208919">
<ele>1449.01</ele>
<time>2026-08-02T11:59:22.565Z</time>
</trkpt>
<trkpt lat="46.4377398" lon="13.5210136">
<ele>1440.57</ele>
<time>2026-08-02T11:59:40.133Z</time>
</trkpt>
<trkpt lat="46.4379222" lon="13.5210725">
<ele>1437.02</ele>
<time>2026-08-02T11:59:57.091Z</time>
</trkpt>
<trkpt lat="46.4380508" lon="13.5212654">
<ele>1438.27</ele>
<time>2026-08-02T12:00:22.314Z</time>
</trkpt>
<trkpt lat="46.4381233" lon="13.5215183">
<ele>1427.54</ele>
<time>2026-08-02T12:01:07.193Z</time>
</trkpt>
<trkpt lat="46.4381233" lon="13.5218267">
<ele>1452.16</ele>
<time>2026-08-02T12:01:10.193Z</time>
</trkpt>
<trkpt lat="46.4383017" lon="13.5219900">
<ele>1485.42</ele>
<time>2026-08-02T12:01:17.193Z</time>
</trkpt>
<trkpt lat="46.4384189" lon="13.5220862">
<ele>1416.44</ele>
<time>2026-08-02T12:02:00.235Z</time>
</trkpt>
<trkpt lat="46.4385632" lon="13.5222486">
<ele>1412.78</ele>
<time>2026-08-02T12:02:16.243Z</time>
</trkpt>
<trkpt lat="46.4387227" lon="13.5223929">
<ele>1411.53</ele>
<time>2026-08-02T12:02:37.075Z</time>
</trkpt>
<trkpt lat="46.4387661" lon="13.5226512">
<ele>1401.64</ele>
<time>2026-08-02T12:03:15.812Z</time>
</trkpt>
<trkpt lat="46.4387552" lon="13.5229149">
<ele>1388.21</ele>
<time>2026-08-02T12:03:56.833Z</time>
</trkpt>
<trkpt lat="46.4387333" lon="13.5231789">
<ele>1381.64</ele>
<time>2026-08-02T12:04:29.854Z</time>
</trkpt>
<trkpt lat="46.4386851" lon="13.5234332">
<ele>1373.33</ele>
<time>2026-08-02T12:04:52.209Z</time>
</trkpt>
<trkpt lat="46.4386655" lon="13.5236993">
<ele>1365.44</ele>
<time>2026-08-02T12:05:17.249Z</time>
</trkpt>
<trkpt lat="46.4386299" lon="13.5239638">
<ele>1359.07</ele>
<time>2026-08-02T12:05:33.815Z</time>
</trkpt>
<trkpt lat="46.4386465" lon="13.5242274">
<ele>1353.68</ele>
<time>2026-08-02T12:05:51.453Z</time>
</trkpt>
<trkpt lat="46.4386679" lon="13.5244953">
<ele>1354.54</ele>
<time>2026-08-02T12:06:11.173Z</time>
</trkpt>
<trkpt lat="46.4386732" lon="13.5247597">
<ele>1346.64</ele>
<time>2026-08-02T12:06:26.271Z</time>
</trkpt>
<trkpt lat="46.4386466" lon="13.5252560">
<ele>1339.83</ele>
<time>2026-08-02T12:07:01.191Z</time>
</trkpt>
<trkpt lat="46.4386618" lon="13.5255245">
<ele>1333.94</ele>
<time>2026-08-02T12:07:12.294Z</time>
</trkpt>
<trkpt lat="46.4386885" lon="13.5257985">
<ele>1330.97</ele>
<time>2026-08-02T12:07:26.491Z</time>
</trkpt>
<trkpt lat="46.4387337" lon="13.5260545">
<ele>1335.01</ele>
<time>2026-08-02T12:07:36.155Z</time>
</trkpt>
<trkpt lat="46.4386812" lon="13.5263113">
<ele>1337.31</ele>
<time>2026-08-02T12:07:47.032Z</time>
</trkpt>
<trkpt lat="46.4386075" lon="13.5265506">
<ele>1334.96</ele>
<time>2026-08-02T12:07:58.935Z</time>
</trkpt>
<trkpt lat="46.4385893" lon="13.5268137">
<ele>1325.15</ele>
<time>2026-08-02T12:08:12.453Z</time>
</trkpt>
<trkpt lat="46.4386226" lon="13.5270713">
<ele>1317.19</ele>
<time>2026-08-02T12:08:43.312Z</time>
</trkpt>
<trkpt lat="46.4387833" lon="13.5271892">
<ele>1314.54</ele>
<time>2026-08-02T12:08:57.972Z</time>
</trkpt>
<trkpt lat="46.4389708" lon="13.5271853">
<ele>1310.82</ele>
<time>2026-08-02T12:09:08.265Z</time>
</trkpt>
<trkpt lat="46.4391111" lon="13.5273689">
<ele>1310.49</ele>
<time>2026-08-02T12:09:17.975Z</time>
</trkpt>
<trkpt lat="46.4391726" lon="13.5276238">
<ele>1308.93</ele>
<time>2026-08-02T12:09:30.411Z</time>
</trkpt>
<trkpt lat="46.4391784" lon="13.5278931">
<ele>1305.05</ele>
<time>2026-08-02T12:09:41.172Z</time>
</trkpt>
<trkpt lat="46.4390267" lon="13.5280363">
<ele>1291.14</ele>
<time>2026-08-02T12:10:05.314Z</time>
</trkpt>
<trkpt lat="46.4388457" lon="13.5279889">
<ele>1284.32</ele>
<time>2026-08-02T12:10:18.293Z</time>
</trkpt>
<trkpt lat="46.4386578" lon="13.5279969">
<ele>1280.64</ele>
<time>2026-08-02T12:10:32.455Z</time>
</trkpt>
<trkpt lat="46.4386057" lon="13.5282575">
<ele>1284.03</ele>
<time>2026-08-02T12:10:45.052Z</time>
</trkpt>
<trkpt lat="46.4386057" lon="13.5285245">
<ele>1281.75</ele>
<time>2026-08-02T12:10:55.053Z</time>
</trkpt>
<trkpt lat="46.4386143" lon="13.5287892">
<ele>1275.95</ele>
<time>2026-08-02T12:11:12.414Z</time>
</trkpt>
<trkpt lat="46.4387050" lon="13.5290427">
<ele>1269.22</ele>
<time>2026-08-02T12:11:25.932Z</time>
</trkpt>
<trkpt lat="46.4387970" lon="13.5292735">
<ele>1263.85</ele>
<time>2026-08-02T12:11:38.282Z</time>
</trkpt>
<trkpt lat="46.4389206" lon="13.5294750">
<ele>1258.63</ele>
<time>2026-08-02T12:11:50.955Z</time>
</trkpt>
<trkpt lat="46.4390865" lon="13.5296092">
<ele>1250.55</ele>
<time>2026-08-02T12:12:06.831Z</time>
</trkpt>
<trkpt lat="46.4392649" lon="13.5296955">
<ele>1247.02</ele>
<time>2026-08-02T12:12:18.875Z</time>
</trkpt>
<trkpt lat="46.4394003" lon="13.5298926">
<ele>1247.00</ele>
<time>2026-08-02T12:12:30.032Z</time>
</trkpt>
<trkpt lat="46.4394340" lon="13.5301607">
<ele>1251.02</ele>
<time>2026-08-02T12:12:41.613Z</time>
</trkpt>
<trkpt lat="46.4394461" lon="13.5304304">
<ele>1249.36</ele>
<time>2026-08-02T12:12:55.613Z</time>
</trkpt>
<trkpt lat="46.4392731" lon="13.5305311">
<ele>1234.80</ele>
<time>2026-08-02T12:13:22.794Z</time>
</trkpt>
<trkpt lat="46.4390955" lon="13.5304712">
<ele>1228.57</ele>
<time>2026-08-02T12:13:34.435Z</time>
</trkpt>
<trkpt lat="46.4389146" lon="13.5305481">
<ele>1222.73</ele>
<time>2026-08-02T12:13:49.291Z</time>
</trkpt>
<trkpt lat="46.4388095" lon="13.5307711">
<ele>1216.84</ele>
<time>2026-08-02T12:14:01.953Z</time>
</trkpt>
<trkpt lat="46.4389050" lon="13.5309952">
<ele>1212.83</ele>
<time>2026-08-02T12:14:16.245Z</time>
</trkpt>
<trkpt lat="46.4389921" lon="13.5312257">
<ele>1209.96</ele>
<time>2026-08-02T12:14:28.771Z</time>
</trkpt>
<trkpt lat="46.4391408" lon="13.5313819">
<ele>1213.54</ele>
<time>2026-08-02T12:14:41.071Z</time>
</trkpt>
<trkpt lat="46.4392910" lon="13.5315338">
<ele>1214.70</ele>
<time>2026-08-02T12:14:55.052Z</time>
</trkpt>
<trkpt lat="46.4393900" lon="13.5317611">
<ele>1211.46</ele>
<time>2026-08-02T12:15:07.715Z</time>
</trkpt>
<trkpt lat="46.4395405" lon="13.5319046">
<ele>1201.89</ele>
<time>2026-08-02T12:15:25.812Z</time>
</trkpt>
<trkpt lat="46.4396606" lon="13.5321003">
<ele>1197.04</ele>
<time>2026-08-02T12:15:34.152Z</time>
</trkpt>
<trkpt lat="46.4395563" lon="13.5323146">
<ele>1194.19</ele>
<time>2026-08-02T12:15:47.131Z</time>
</trkpt>
<trkpt lat="46.4393855" lon="13.5324142">
<ele>1186.77</ele>
<time>2026-08-02T12:16:01.695Z</time>
</trkpt>
<trkpt lat="46.4392194" lon="13.5325246">
<ele>1199.57</ele>
<time>2026-08-02T12:16:17.395Z</time>
</trkpt>
<trkpt lat="46.4393907" lon="13.5327400">
<ele>1180.54</ele>
<time>2026-08-02T12:16:58.892Z</time>
</trkpt>
<trkpt lat="46.4395148" lon="13.5329318">
<ele>1178.59</ele>
<time>2026-08-02T12:17:11.233Z</time>
</trkpt>
<trkpt lat="46.4396855" lon="13.5330586">
<ele>1175.63</ele>
<time>2026-08-02T12:17:22.296Z</time>
</trkpt>
<trkpt lat="46.4397753" lon="13.5332865">
<ele>1167.30</ele>
<time>2026-08-02T12:17:39.351Z</time>
</trkpt>
<trkpt lat="46.4396164" lon="13.5334308">
<ele>1158.11</ele>
<time>2026-08-02T12:17:55.298Z</time>
</trkpt>
<trkpt lat="46.4394740" lon="13.5336051">
<ele>1157.73</ele>
<time>2026-08-02T12:18:08.132Z</time>
</trkpt>
<trkpt lat="46.4392931" lon="13.5336641">
<ele>1151.08</ele>
<time>2026-08-02T12:18:21.312Z</time>
</trkpt>
<trkpt lat="46.4393798" lon="13.5338935">
<ele>1151.63</ele>
<time>2026-08-02T12:18:35.414Z</time>
</trkpt>
<trkpt lat="46.4395659" lon="13.5339417">
<ele>1149.10</ele>
<time>2026-08-02T12:18:49.912Z</time>
</trkpt>
<trkpt lat="46.4395465" lon="13.5342031">
<ele>1143.32</ele>
<time>2026-08-02T12:19:11.872Z</time>
</trkpt>
<trkpt lat="46.4393868" lon="13.5343340">
<ele>1138.89</ele>
<time>2026-08-02T12:19:24.071Z</time>
</trkpt>
<trkpt lat="46.4395428" lon="13.5344661">
<ele>1135.86</ele>
<time>2026-08-02T12:19:38.253Z</time>
</trkpt>
<trkpt lat="46.4397198" lon="13.5343918">
<ele>1133.39</ele>
<time>2026-08-02T12:19:51.111Z</time>
</trkpt>
<trkpt lat="46.4398571" lon="13.5345634">
<ele>1132.62</ele>
<time>2026-08-02T12:20:02.154Z</time>
</trkpt>
<trkpt lat="46.4399874" lon="13.5347659">
<ele>1126.55</ele>
<time>2026-08-02T12:20:16.914Z</time>
</trkpt>
<trkpt lat="46.4401506" lon="13.5348914">
<ele>1119.32</ele>
<time>2026-08-02T12:20:29.240Z</time>
</trkpt>
<trkpt lat="46.4403320" lon="13.5349428">
<ele>1118.04</ele>
<time>2026-08-02T12:20:39.834Z</time>
</trkpt>
<trkpt lat="46.4405074" lon="13.5350191">
<ele>1118.00</ele>
<time>2026-08-02T12:20:50.293Z</time>
</trkpt>
<trkpt lat="46.4406579" lon="13.5351679">
<ele>1118.59</ele>
<time>2026-08-02T12:21:00.174Z</time>
</trkpt>
<trkpt lat="46.4408212" lon="13.5352885">
<ele>1114.84</ele>
<time>2026-08-02T12:21:14.335Z</time>
</trkpt>
<trkpt lat="46.4409902" lon="13.5353809">
<ele>1111.03</ele>
<time>2026-08-02T12:21:24.875Z</time>
</trkpt>
<trkpt lat="46.4411168" lon="13.5355677">
<ele>1107.83</ele>
<time>2026-08-02T12:21:36.651Z</time>
</trkpt>
<trkpt lat="46.4411764" lon="13.5358243">
<ele>1108.66</ele>
<time>2026-08-02T12:21:46.954Z</time>
</trkpt>
<trkpt lat="46.4412796" lon="13.5360475">
<ele>1108.85</ele>
<time>2026-08-02T12:22:00.633Z</time>
</trkpt>
<trkpt lat="46.4413637" lon="13.5362814">
<ele>1110.85</ele>
<time>2026-08-02T12:22:13.653Z</time>
</trkpt>
<trkpt lat="46.4415220" lon="13.5364344">
<ele>1100.50</ele>
<time>2026-08-02T12:22:29.415Z</time>
</trkpt>
<trkpt lat="46.4416224" lon="13.5366512">
<ele>1103.84</ele>
<time>2026-08-02T12:22:37.871Z</time>
</trkpt>
<trkpt lat="46.4417126" lon="13.5368783">
<ele>1102.32</ele>
<time>2026-08-02T12:22:51.973Z</time>
</trkpt>
<trkpt lat="46.4418500" lon="13.5370491">
<ele>1101.31</ele>
<time>2026-08-02T12:23:02.034Z</time>
</trkpt>
<trkpt lat="46.4419870" lon="13.5372208">
<ele>1094.90</ele>
<time>2026-08-02T12:23:18.153Z</time>
</trkpt>
<trkpt lat="46.4421323" lon="13.5373797">
<ele>1090.01</ele>
<time>2026-08-02T12:23:29.854Z</time>
</trkpt>
<trkpt lat="46.4422860" lon="13.5375267">
<ele>1090.55</ele>
<time>2026-08-02T12:23:40.952Z</time>
</trkpt>
<trkpt lat="46.4424556" lon="13.5376338">
<ele>1086.76</ele>
<time>2026-08-02T12:23:53.871Z</time>
</trkpt>
<trkpt lat="46.4426334" lon="13.5377141">
<ele>1085.31</ele>
<time>2026-08-02T12:24:05.954Z</time>
</trkpt>
<trkpt lat="46.4428126" lon="13.5376573">
<ele>1079.84</ele>
<time>2026-08-02T12:24:22.772Z</time>
</trkpt>
<trkpt lat="46.4429935" lon="13.5376297">
<ele>1076.23</ele>
<time>2026-08-02T12:24:36.451Z</time>
</trkpt>
<trkpt lat="46.4431795" lon="13.5376504">
<ele>1074.86</ele>
<time>2026-08-02T12:24:46.175Z</time>
</trkpt>
<trkpt lat="46.4433572" lon="13.5377044">
<ele>1078.33</ele>
<time>2026-08-02T12:24:58.154Z</time>
</trkpt>
<trkpt lat="46.4435341" lon="13.5376422">
<ele>1070.76</ele>
<time>2026-08-02T12:25:11.174Z</time>
</trkpt>
<trkpt lat="46.4437195" lon="13.5376707">
<ele>1069.59</ele>
<time>2026-08-02T12:25:24.093Z</time>
</trkpt>
<trkpt lat="46.4438655" lon="13.5378322">
<ele>1066.26</ele>
<time>2026-08-02T12:25:38.834Z</time>
</trkpt>
<trkpt lat="46.4440563" lon="13.5378060">
<ele>1072.04</ele>
<time>2026-08-02T12:25:48.895Z</time>
</trkpt>
<trkpt lat="46.4442317" lon="13.5377230">
<ele>1067.44</ele>
<time>2026-08-02T12:26:01.715Z</time>
</trkpt>
<trkpt lat="46.4444060" lon="13.5376578">
<ele>1067.77</ele>
<time>2026-08-02T12:26:13.411Z</time>
</trkpt>
<trkpt lat="46.4445461" lon="13.5378314">
<ele>1069.13</ele>
<time>2026-08-02T12:26:28.870Z</time>
</trkpt>
<trkpt lat="46.4446958" lon="13.5379844">
<ele>1063.20</ele>
<time>2026-08-02T12:26:44.672Z</time>
</trkpt>
<trkpt lat="46.4448335" lon="13.5381692">
<ele>1064.03</ele>
<time>2026-08-02T12:27:08.634Z</time>
</trkpt>
<trkpt lat="46.4447881" lon="13.5384269">
<ele>1065.12</ele>
<time>2026-08-02T12:27:20.311Z</time>
</trkpt>
<trkpt lat="46.4448331" lon="13.5386835">
<ele>1059.44</ele>
<time>2026-08-02T12:27:43.790Z</time>
</trkpt>
<trkpt lat="46.4447525" lon="13.5389197">
<ele>1060.85</ele>
<time>2026-08-02T12:27:58.235Z</time>
</trkpt>
<trkpt lat="46.4447808" lon="13.5391872">
<ele>1064.83</ele>
<time>2026-08-02T12:28:13.595Z</time>
</trkpt>
<trkpt lat="46.4448638" lon="13.5394236">
<ele>1064.58</ele>
<time>2026-08-02T12:28:26.153Z</time>
</trkpt>
<trkpt lat="46.4447727" lon="13.5396505">
<ele>1067.31</ele>
<time>2026-08-02T12:28:46.297Z</time>
</trkpt>
<trkpt lat="46.4447550" lon="13.5399111">
<ele>1066.41</ele>
<time>2026-08-02T12:29:40.815Z</time>
</trkpt>
<trkpt lat="46.4446149" lon="13.5401004">
<ele>1062.31</ele>
<time>2026-08-02T12:30:01.754Z</time>
</trkpt>
<trkpt lat="46.4444610" lon="13.5402532">
<ele>1072.92</ele>
<time>2026-08-02T12:30:12.032Z</time>
</trkpt>
<trkpt lat="46.4443606" lon="13.5404762">
<ele>1072.17</ele>
<time>2026-08-02T12:30:34.632Z</time>
</trkpt>
<trkpt lat="46.4441752" lon="13.5405253">
<ele>1072.77</ele>
<time>2026-08-02T12:30:54.072Z</time>
</trkpt>
<trkpt lat="46.4440436" lon="13.5407116">
<ele>1080.18</ele>
<time>2026-08-02T12:31:15.216Z</time>
</trkpt>
<trkpt lat="46.4438628" lon="13.5408693">
<ele>1089.19</ele>
<time>2026-08-02T12:31:49.272Z</time>
</trkpt>
<trkpt lat="46.4437098" lon="13.5410096">
<ele>1092.27</ele>
<time>2026-08-02T12:32:11.173Z</time>
</trkpt>
<trkpt lat="46.4435445" lon="13.5411387">
<ele>1095.03</ele>
<time>2026-08-02T12:32:43.233Z</time>
</trkpt>
<trkpt lat="46.4436064" lon="13.5413879">
<ele>1099.20</ele>
<time>2026-08-02T12:33:08.318Z</time>
</trkpt>
<trkpt lat="46.4434480" lon="13.5415148">
<ele>1104.10</ele>
<time>2026-08-02T12:33:31.094Z</time>
</trkpt>
<trkpt lat="46.4436113" lon="13.5416253">
<ele>1107.02</ele>
<time>2026-08-02T12:33:56.113Z</time>
</trkpt>
<trkpt lat="46.4437926" lon="13.5416707">
<ele>1108.10</ele>
<time>2026-08-02T12:34:16.292Z</time>
</trkpt>
<trkpt lat="46.4439449" lon="13.5418225">
<ele>1106.47</ele>
<time>2026-08-02T12:34:33.734Z</time>
</trkpt>
<trkpt lat="46.4438585" lon="13.5420543">
<ele>1117.68</ele>
<time>2026-08-02T12:35:26.267Z</time>
</trkpt>
<trkpt lat="46.4437689" lon="13.5423394">
<ele>1127.65</ele>
<time>2026-08-02T12:36:28.012Z</time>
</trkpt>
<trkpt lat="46.4436936" lon="13.5425809">
<ele>1137.53</ele>
<time>2026-08-02T12:37:20.654Z</time>
</trkpt>
<trkpt lat="46.4438314" lon="13.5427526">
<ele>1138.93</ele>
<time>2026-08-02T12:37:39.852Z</time>
</trkpt>
<trkpt lat="46.4437997" lon="13.5430099">
<ele>1154.66</ele>
<time>2026-08-02T12:38:37.294Z</time>
</trkpt>
<trkpt lat="46.4436201" lon="13.5430265">
<ele>1174.77</ele>
<time>2026-08-02T12:39:22.652Z</time>
</trkpt>
<trkpt lat="46.4437409" lon="13.5432231">
<ele>1181.70</ele>
<time>2026-08-02T12:40:03.267Z</time>
</trkpt>
<trkpt lat="46.4435624" lon="13.5432905">
<ele>1189.13</ele>
<time>2026-08-02T12:40:31.595Z</time>
</trkpt>
<trkpt lat="46.4435650" lon="13.5435564">
<ele>1199.56</ele>
<time>2026-08-02T12:41:05.111Z</time>
</trkpt>
<trkpt lat="46.4437463" lon="13.5435924">
<ele>1205.36</ele>
<time>2026-08-02T12:41:28.831Z</time>
</trkpt>
<trkpt lat="46.4435852" lon="13.5437113">
<ele>1208.56</ele>
<time>2026-08-02T12:42:02.135Z</time>
</trkpt>
<trkpt lat="46.4435690" lon="13.5439723">
<ele>1213.30</ele>
<time>2026-08-02T12:42:54.592Z</time>
</trkpt>
<trkpt lat="46.4435160" lon="13.5442226">
<ele>1215.68</ele>
<time>2026-08-02T12:43:12.074Z</time>
</trkpt>
<trkpt lat="46.4436924" lon="13.5442814">
<ele>1240.30</ele>
<time>2026-08-02T12:44:10.553Z</time>
</trkpt>
<trkpt lat="46.4437184" lon="13.5445443">
<ele>1236.99</ele>
<time>2026-08-02T12:44:57.295Z</time>
</trkpt>
<trkpt lat="46.4437537" lon="13.5448117">
<ele>1246.39</ele>
<time>2026-08-02T12:45:39.992Z</time>
</trkpt>
<trkpt lat="46.4438383" lon="13.5450478">
<ele>1250.00</ele>
<time>2026-08-02T12:46:07.933Z</time>
</trkpt>
<trkpt lat="46.4438922" lon="13.5452974">
<ele>1259.11</ele>
<time>2026-08-02T12:46:33.258Z</time>
</trkpt>
<trkpt lat="46.4438688" lon="13.5455594">
<ele>1269.50</ele>
<time>2026-08-02T12:47:11.634Z</time>
</trkpt>
<trkpt lat="46.4437686" lon="13.5457839">
<ele>1287.80</ele>
<time>2026-08-02T12:47:41.276Z</time>
</trkpt>
<trkpt lat="46.4437011" lon="13.5460365">
<ele>1284.18</ele>
<time>2026-08-02T12:48:16.755Z</time>
</trkpt>
<trkpt lat="46.4436749" lon="13.5462951">
<ele>1287.20</ele>
<time>2026-08-02T12:48:43.092Z</time>
</trkpt>
<trkpt lat="46.4436991" lon="13.5465573">
<ele>1291.90</ele>
<time>2026-08-02T12:49:06.672Z</time>
</trkpt>
<trkpt lat="46.4436581" lon="13.5468177">
<ele>1298.18</ele>
<time>2026-08-02T12:49:42.230Z</time>
</trkpt>
<trkpt lat="46.4435496" lon="13.5470393">
<ele>1301.41</ele>
<time>2026-08-02T12:50:07.833Z</time>
</trkpt>
<trkpt lat="46.4435497" lon="13.5473031">
<ele>1306.58</ele>
<time>2026-08-02T12:50:32.328Z</time>
</trkpt>
<trkpt lat="46.4434524" lon="13.5475334">
<ele>1310.42</ele>
<time>2026-08-02T12:50:56.693Z</time>
</trkpt>
<trkpt lat="46.4433796" lon="13.5477770">
<ele>1332.15</ele>
<time>2026-08-02T12:51:14.251Z</time>
</trkpt>
<trkpt lat="46.4433433" lon="13.5480372">
<ele>1331.40</ele>
<time>2026-08-02T12:51:37.228Z</time>
</trkpt>
<trkpt lat="46.4431632" lon="13.5480986">
<ele>1332.90</ele>
<time>2026-08-02T12:51:56.733Z</time>
</trkpt>
<trkpt lat="46.4429909" lon="13.5481775">
<ele>1332.60</ele>
<time>2026-08-02T12:52:16.011Z</time>
</trkpt>
<trkpt lat="46.4431009" lon="13.5483895">
<ele>1339.20</ele>
<time>2026-08-02T12:52:57.093Z</time>
</trkpt>
<trkpt lat="46.4429930" lon="13.5486077">
<ele>1347.87</ele>
<time>2026-08-02T12:53:20.074Z</time>
</trkpt>
<trkpt lat="46.4430295" lon="13.5488686">
<ele>1354.59</ele>
<time>2026-08-02T12:53:41.013Z</time>
</trkpt>
<trkpt lat="46.4430563" lon="13.5491270">
<ele>1360.75</ele>
<time>2026-08-02T12:54:11.273Z</time>
</trkpt>
<trkpt lat="46.4430869" lon="13.5493885">
<ele>1364.56</ele>
<time>2026-08-02T12:54:38.173Z</time>
</trkpt>
<trkpt lat="46.4430651" lon="13.5496502">
<ele>1365.44</ele>
<time>2026-08-02T12:55:05.304Z</time>
</trkpt>
<trkpt lat="46.4431983" lon="13.5498352">
<ele>1362.25</ele>
<time>2026-08-02T12:55:26.333Z</time>
</trkpt>
<trkpt lat="46.4432234" lon="13.5501052">
<ele>1365.27</ele>
<time>2026-08-02T12:55:38.675Z</time>
</trkpt>
<trkpt lat="46.4432234" lon="13.5503705">
<ele>1365.57</ele>
<time>2026-08-02T12:55:59.214Z</time>
</trkpt>
<trkpt lat="46.4433207" lon="13.5505978">
<ele>1360.71</ele>
<time>2026-08-02T12:56:12.315Z</time>
</trkpt>
<trkpt lat="46.4433951" lon="13.5508355">
<ele>1349.34</ele>
<time>2026-08-02T12:56:38.853Z</time>
</trkpt>
<trkpt lat="46.4434472" lon="13.5511000">
<ele>1349.20</ele>
<time>2026-08-02T12:56:52.095Z</time>
</trkpt>
<trkpt lat="46.4433798" lon="13.5513437">
<ele>1344.40</ele>
<time>2026-08-02T12:57:03.831Z</time>
</trkpt>
<trkpt lat="46.4434337" lon="13.5515948">
<ele>1339.43</ele>
<time>2026-08-02T12:57:20.031Z</time>
</trkpt>
<trkpt lat="46.4433221" lon="13.5518098">
<ele>1334.94</ele>
<time>2026-08-02T12:57:38.972Z</time>
</trkpt>
<trkpt lat="46.4431969" lon="13.5520064">
<ele>1325.50</ele>
<time>2026-08-02T12:57:57.535Z</time>
</trkpt>
<trkpt lat="46.4431317" lon="13.5522505">
<ele>1321.13</ele>
<time>2026-08-02T12:58:12.054Z</time>
</trkpt>
<trkpt lat="46.4430423" lon="13.5524806">
<ele>1316.54</ele>
<time>2026-08-02T12:58:25.894Z</time>
</trkpt>
<trkpt lat="46.4430423" lon="13.5527487">
<ele>1310.64</ele>
<time>2026-08-02T12:58:41.132Z</time>
</trkpt>
<trkpt lat="46.4429661" lon="13.5529861">
<ele>1301.99</ele>
<time>2026-08-02T12:59:05.012Z</time>
</trkpt>
<trkpt lat="46.4428135" lon="13.5531270">
<ele>1287.22</ele>
<time>2026-08-02T12:59:37.274Z</time>
</trkpt>
<trkpt lat="46.4428871" lon="13.5533708">
<ele>1278.83</ele>
<time>2026-08-02T12:59:55.279Z</time>
</trkpt>
<trkpt lat="46.4429631" lon="13.5536100">
<ele>1273.71</ele>
<time>2026-08-02T13:00:06.135Z</time>
</trkpt>
<trkpt lat="46.4429356" lon="13.5538801">
<ele>1269.27</ele>
<time>2026-08-02T13:00:17.515Z</time>
</trkpt>
<trkpt lat="46.4428805" lon="13.5541375">
<ele>1267.78</ele>
<time>2026-08-02T13:00:30.293Z</time>
</trkpt>
<trkpt lat="46.4428876" lon="13.5544009">
<ele>1267.15</ele>
<time>2026-08-02T13:00:54.772Z</time>
</trkpt>
<trkpt lat="46.4429548" lon="13.5546531">
<ele>1265.99</ele>
<time>2026-08-02T13:01:12.993Z</time>
</trkpt>
<trkpt lat="46.4428988" lon="13.5549044">
<ele>1261.53</ele>
<time>2026-08-02T13:01:32.114Z</time>
</trkpt>
<trkpt lat="46.4428558" lon="13.5551638">
<ele>1255.14</ele>
<time>2026-08-02T13:01:48.514Z</time>
</trkpt>
<trkpt lat="46.4428521" lon="13.5554363">
<ele>1250.04</ele>
<time>2026-08-02T13:02:00.553Z</time>
</trkpt>
<trkpt lat="46.4429112" lon="13.5556830">
<ele>1241.65</ele>
<time>2026-08-02T13:02:12.314Z</time>
</trkpt>
<trkpt lat="46.4427891" lon="13.5558748">
<ele>1232.78</ele>
<time>2026-08-02T13:02:23.774Z</time>
</trkpt>
<trkpt lat="46.4426341" lon="13.5560454">
<ele>1214.43</ele>
<time>2026-08-02T13:02:55.955Z</time>
</trkpt>
<trkpt lat="46.4424712" lon="13.5561599">
<ele>1206.25</ele>
<time>2026-08-02T13:03:21.732Z</time>
</trkpt>
<trkpt lat="46.4423238" lon="13.5563149">
<ele>1204.11</ele>
<time>2026-08-02T13:03:33.111Z</time>
</trkpt>
<trkpt lat="46.4422515" lon="13.5565573">
<ele>1201.85</ele>
<time>2026-08-02T13:03:43.735Z</time>
</trkpt>
<trkpt lat="46.4420914" lon="13.5567035">
<ele>1196.77</ele>
<time>2026-08-02T13:04:00.271Z</time>
</trkpt>
<trkpt lat="46.4419287" lon="13.5568258">
<ele>1187.71</ele>
<time>2026-08-02T13:04:28.714Z</time>
</trkpt>
<trkpt lat="46.4418054" lon="13.5570269">
<ele>1183.72</ele>
<time>2026-08-02T13:04:42.327Z</time>
</trkpt>
<trkpt lat="46.4419709" lon="13.5571373">
<ele>1170.95</ele>
<time>2026-08-02T13:05:19.815Z</time>
</trkpt>
<trkpt lat="46.4421564" lon="13.5571431">
<ele>1168.96</ele>
<time>2026-08-02T13:05:38.775Z</time>
</trkpt>
<trkpt lat="46.4423200" lon="13.5572713">
<ele>1164.09</ele>
<time>2026-08-02T13:05:51.814Z</time>
</trkpt>
<trkpt lat="46.4424879" lon="13.5573841">
<ele>1159.28</ele>
<time>2026-08-02T13:06:08.174Z</time>
</trkpt>
<trkpt lat="46.4424214" lon="13.5576419">
<ele>1152.56</ele>
<time>2026-08-02T13:06:20.992Z</time>
</trkpt>
<trkpt lat="46.4422667" lon="13.5577866">
<ele>1146.21</ele>
<time>2026-08-02T13:06:31.853Z</time>
</trkpt>
<trkpt lat="46.4421221" lon="13.5579422">
<ele>1143.07</ele>
<time>2026-08-02T13:06:46.014Z</time>
</trkpt>
<trkpt lat="46.4419904" lon="13.5581443">
<ele>1118.27</ele>
<time>2026-08-02T13:07:19.875Z</time>
</trkpt>
<trkpt lat="46.4419591" lon="13.5584072">
<ele>1107.50</ele>
<time>2026-08-02T13:07:32.261Z</time>
</trkpt>
<trkpt lat="46.4420907" lon="13.5585891">
<ele>1100.31</ele>
<time>2026-08-02T13:07:52.695Z</time>
</trkpt>
<trkpt lat="46.4421365" lon="13.5588481">
<ele>1094.26</ele>
<time>2026-08-02T13:08:03.551Z</time>
</trkpt>
<trkpt lat="46.4420922" lon="13.5591048">
<ele>1089.90</ele>
<time>2026-08-02T13:08:12.953Z</time>
</trkpt>
<trkpt lat="46.4421017" lon="13.5593755">
<ele>1079.81</ele>
<time>2026-08-02T13:08:23.815Z</time>
</trkpt>
<trkpt lat="46.4421831" lon="13.5596227">
<ele>1071.60</ele>
<time>2026-08-02T13:08:37.794Z</time>
</trkpt>
<trkpt lat="46.4422914" lon="13.5598511">
<ele>1061.65</ele>
<time>2026-08-02T13:08:51.714Z</time>
</trkpt>
<trkpt lat="46.4423536" lon="13.5601042">
<ele>1063.11</ele>
<time>2026-08-02T13:09:03.033Z</time>
</trkpt>
<trkpt lat="46.4422689" lon="13.5603396">
<ele>1059.55</ele>
<time>2026-08-02T13:09:22.154Z</time>
</trkpt>
<trkpt lat="46.4421167" lon="13.5604853">
<ele>1064.39</ele>
<time>2026-08-02T13:09:30.454Z</time>
</trkpt>
<trkpt lat="46.4420454" lon="13.5607349">
<ele>1074.89</ele>
<time>2026-08-02T13:09:44.591Z</time>
</trkpt>
<trkpt lat="46.4420692" lon="13.5610001">
<ele>1069.30</ele>
<time>2026-08-02T13:09:56.514Z</time>
</trkpt>
<trkpt lat="46.4420683" lon="13.5612743">
<ele>1056.51</ele>
<time>2026-08-02T13:10:14.655Z</time>
</trkpt>
<trkpt lat="46.4420839" lon="13.5615482">
<ele>1051.51</ele>
<time>2026-08-02T13:10:29.335Z</time>
</trkpt>
<trkpt lat="46.4420258" lon="13.5618109">
<ele>1048.65</ele>
<time>2026-08-02T13:10:34.954Z</time>
</trkpt>
<trkpt lat="46.4420191" lon="13.5620816">
<ele>1042.74</ele>
<time>2026-08-02T13:10:48.612Z</time>
</trkpt>
<trkpt lat="46.4419493" lon="13.5623378">
<ele>1036.13</ele>
<time>2026-08-02T13:10:58.855Z</time>
</trkpt>
<trkpt lat="46.4418367" lon="13.5625435">
<ele>1025.32</ele>
<time>2026-08-02T13:11:09.752Z</time>
</trkpt>
<trkpt lat="46.4417783" lon="13.5627925">
<ele>1014.91</ele>
<time>2026-08-02T13:11:18.339Z</time>
</trkpt>
<trkpt lat="46.4417380" lon="13.5630607">
<ele>1005.75</ele>
<time>2026-08-02T13:11:29.713Z</time>
</trkpt>
<trkpt lat="46.4417396" lon="13.5633319">
<ele>994.41</ele>
<time>2026-08-02T13:11:40.771Z</time>
</trkpt>
<trkpt lat="46.4416334" lon="13.5635500">
<ele>988.87</ele>
<time>2026-08-02T13:11:48.221Z</time>
</trkpt>
<trkpt lat="46.4415130" lon="13.5637591">
<ele>987.53</ele>
<time>2026-08-02T13:11:55.813Z</time>
</trkpt>
<trkpt lat="46.4414083" lon="13.5639905">
<ele>988.37</ele>
<time>2026-08-02T13:12:02.307Z</time>
</trkpt>
<trkpt lat="46.4413123" lon="13.5642163">
<ele>997.43</ele>
<time>2026-08-02T13:12:07.932Z</time>
</trkpt>
<trkpt lat="46.4413104" lon="13.5644994">
<ele>1004.18</ele>
<time>2026-08-02T13:12:14.814Z</time>
</trkpt>
<trkpt lat="46.4412988" lon="13.5647677">
<ele>1003.63</ele>
<time>2026-08-02T13:12:24.241Z</time>
</trkpt>
<trkpt lat="46.4411614" lon="13.5645962">
<ele>987.64</ele>
<time>2026-08-02T13:12:47.281Z</time>
</trkpt>
<trkpt lat="46.4413072" lon="13.5636234">
<ele>947.34</ele>
<time>2026-08-02T13:13:37.815Z</time>
</trkpt>
<trkpt lat="46.4411889" lon="13.5629940">
<ele>921.93</ele>
<time>2026-08-02T13:14:12.632Z</time>
</trkpt>
<trkpt lat="46.4409917" lon="13.5631371">
<ele>901.39</ele>
<time>2026-08-02T13:14:28.634Z</time>
</trkpt>
<trkpt lat="46.4407070" lon="13.5635791">
<ele>920.72</ele>
<time>2026-08-02T13:14:49.326Z</time>
</trkpt>
<trkpt lat="46.4405426" lon="13.5637012">
<ele>949.48</ele>
<time>2026-08-02T13:15:04.575Z</time>
</trkpt>
<trkpt lat="46.4403697" lon="13.5638053">
<ele>978.55</ele>
<time>2026-08-02T13:15:15.251Z</time>
</trkpt>
<trkpt lat="46.4402321" lon="13.5639781">
<ele>981.53</ele>
<time>2026-08-02T13:15:21.751Z</time>
</trkpt>
<trkpt lat="46.4401336" lon="13.5642077">
<ele>984.09</ele>
<time>2026-08-02T13:15:27.813Z</time>
</trkpt>
<trkpt lat="46.4401604" lon="13.5644771">
<ele>981.35</ele>
<time>2026-08-02T13:15:36.230Z</time>
</trkpt>
<trkpt lat="46.4401251" lon="13.5647530">
<ele>980.88</ele>
<time>2026-08-02T13:15:44.280Z</time>
</trkpt>
<trkpt lat="46.4400235" lon="13.5649854">
<ele>978.57</ele>
<time>2026-08-02T13:15:53.014Z</time>
</trkpt>
<trkpt lat="46.4400693" lon="13.5652384">
<ele>977.39</ele>
<time>2026-08-02T13:16:00.751Z</time>
</trkpt>
<trkpt lat="46.4401258" lon="13.5654955">
<ele>974.31</ele>
<time>2026-08-02T13:16:08.952Z</time>
</trkpt>
<trkpt lat="46.4401996" lon="13.5657338">
<ele>969.81</ele>
<time>2026-08-02T13:16:20.301Z</time>
</trkpt>
<trkpt lat="46.4402122" lon="13.5660150">
<ele>969.76</ele>
<time>2026-08-02T13:16:34.287Z</time>
</trkpt>
<trkpt lat="46.4401858" lon="13.5662740">
<ele>970.07</ele>
<time>2026-08-02T13:16:41.330Z</time>
</trkpt>
<trkpt lat="46.4401684" lon="13.5665359">
<ele>969.67</ele>
<time>2026-08-02T13:16:48.711Z</time>
</trkpt>
<trkpt lat="46.4401493" lon="13.5667975">
<ele>969.73</ele>
<time>2026-08-02T13:16:56.810Z</time>
</trkpt>
<trkpt lat="46.4401245" lon="13.5670573">
<ele>966.93</ele>
<time>2026-08-02T13:17:04.754Z</time>
</trkpt>
<trkpt lat="46.4401054" lon="13.5673332">
<ele>966.85</ele>
<time>2026-08-02T13:17:12.753Z</time>
</trkpt>
<trkpt lat="46.4401301" lon="13.5676053">
<ele>965.89</ele>
<time>2026-08-02T13:17:21.074Z</time>
</trkpt>
<trkpt lat="46.4402069" lon="13.5678425">
<ele>966.99</ele>
<time>2026-08-02T13:17:31.534Z</time>
</trkpt>
<trkpt lat="46.4403679" lon="13.5679954">
<ele>978.90</ele>
<time>2026-08-02T13:17:39.815Z</time>
</trkpt>
<trkpt lat="46.4404417" lon="13.5682335">
<ele>976.84</ele>
<time>2026-08-02T13:17:45.254Z</time>
</trkpt>
<trkpt lat="46.4404997" lon="13.5684876">
<ele>962.39</ele>
<time>2026-08-02T13:17:52.051Z</time>
</trkpt>
<trkpt lat="46.4406046" lon="13.5687358">
<ele>953.69</ele>
<time>2026-08-02T13:18:02.339Z</time>
</trkpt>
<trkpt lat="46.4407207" lon="13.5689401">
<ele>953.48</ele>
<time>2026-08-02T13:18:11.853Z</time>
</trkpt>
<trkpt lat="46.4407939" lon="13.5691892">
<ele>949.60</ele>
<time>2026-08-02T13:18:20.054Z</time>
</trkpt>
<trkpt lat="46.4408883" lon="13.5694171">
<ele>944.58</ele>
<time>2026-08-02T13:18:27.872Z</time>
</trkpt>
<trkpt lat="46.4409866" lon="13.5696499">
<ele>945.81</ele>
<time>2026-08-02T13:18:33.914Z</time>
</trkpt>
<trkpt lat="46.4409715" lon="13.5699104">
<ele>950.70</ele>
<time>2026-08-02T13:18:45.315Z</time>
</trkpt>
<trkpt lat="46.4409012" lon="13.5701568">
<ele>959.85</ele>
<time>2026-08-02T13:18:54.854Z</time>
</trkpt>
<trkpt lat="46.4408478" lon="13.5704128">
<ele>950.99</ele>
<time>2026-08-02T13:19:07.230Z</time>
</trkpt>
<trkpt lat="46.4407355" lon="13.5706274">
<ele>950.28</ele>
<time>2026-08-02T13:19:13.691Z</time>
</trkpt>
<trkpt lat="46.4406448" lon="13.5708546">
<ele>947.40</ele>
<time>2026-08-02T13:19:24.271Z</time>
</trkpt>
<trkpt lat="46.4404984" lon="13.5710537">
<ele>943.69</ele>
<time>2026-08-02T13:19:32.094Z</time>
</trkpt>
<trkpt lat="46.4404428" lon="13.5713119">
<ele>989.35</ele>
<time>2026-08-02T13:19:45.286Z</time>
</trkpt>
<trkpt lat="46.4405484" lon="13.5715274">
<ele>956.25</ele>
<time>2026-08-02T13:20:17.572Z</time>
</trkpt>
<trkpt lat="46.4407320" lon="13.5714918">
<ele>955.73</ele>
<time>2026-08-02T13:20:27.172Z</time>
</trkpt>
<trkpt lat="46.4409107" lon="13.5714402">
<ele>956.24</ele>
<time>2026-08-02T13:20:42.934Z</time>
</trkpt>
<trkpt lat="46.4410914" lon="13.5714267">
<ele>952.54</ele>
<time>2026-08-02T13:21:05.433Z</time>
</trkpt>
<trkpt lat="46.4414316" lon="13.5714733">
<ele>963.49</ele>
<time>2026-08-02T13:21:27.234Z</time>
</trkpt>
<trkpt lat="46.4416066" lon="13.5715574">
<ele>962.98</ele>
<time>2026-08-02T13:21:40.914Z</time>
</trkpt>
<trkpt lat="46.4417969" lon="13.5715347">
<ele>957.48</ele>
<time>2026-08-02T13:21:54.212Z</time>
</trkpt>
</trkseg>
</trk>
</gpx>
