<?xml version="1.0" encoding="UTF-8" standalone="no" ?>
<gpx xmlns="http://www.topografix.com/GPX/1/1" creator="OruxMaps v.10.5.0 GP" version="1.1" xmlns:gpxtpx="http://www.garmin.com/xmlschemas/TrackPointExtension/v2" xmlns:xsi="http://www.w3.org/2001/XMLSchema-instance" xmlns:om="http://www.oruxmaps.com/oruxmapsextensions/1/0" xsi:schemaLocation="http://www.topografix.com/GPX/1/1 http://www.topografix.com/GPX/1/1/gpx.xsd">
<!-- owner: ba6e6e5031d655 -->
<metadata>
<name><![CDATA[2026-08-01 05:24:33 Hochobir]]></name>
<link href="https://www.oruxmaps.com">
<text>OruxMaps GP</text>
</link>
<time>2026-08-01T03:24:33.128Z</time><bounds maxlat="46.5390067" maxlon="14.5090616" minlat="46.5011672" minlon="14.4818385"/>
</metadata>
<wpt lat="46.5390067" lon="14.5087367">
<ele>522.77</ele>
<time>2026-08-01T03:24:33.410Z</time>
<name><![CDATA[]]></name>
<sym>Waypoint</sym>
<type>Starting Point</type>
<extensions>
<om:oruxmapsextensions>
<om:ext type="ICON" subtype="0">38</om:ext>
</om:oruxmapsextensions>
</extensions>
</wpt>
<wpt lat="46.5389637" lon="14.5087311">
<ele>523.68</ele>
<time>2026-08-01T07:59:27.208Z</time>
<name><![CDATA[]]></name>
<desc><![CDATA[<p><br /><h3>Name: Segment: 1</h3><br />Type: Hiking<br/>Start time: 05:24 1 Aug 2026<br/>Finish time: 09:59 1 Aug 2026<br/>Distance: 16,4km (04:34)<br/>Moving time: 04:04<br/>Average speed: 3,59 km/h<br/>Avg. Speed Mov: 4,03 km/h<br/>Max. speed: 37,85 km/h<br/>Minimum altitude: 571 m<br/>Maximum altitude: 2284 m<br/>Ascent speed: 793,8 m/h<br/>Descent speed: 1002,9 m/h<br/>Elevation gain: 1818 m<br/>Elevation loss: 1814 m<br/>Ascent time: 02:17<br/>Descent time: 01:48<br/></p>]]></desc>
<sym>Waypoint</sym>
<type>Finishing Point</type>
<extensions>
<om:oruxmapsextensions>
<om:ext type="ICON" subtype="0">15</om:ext>
</om:oruxmapsextensions>
</extensions>
</wpt>
<trk>
<name><![CDATA[2026-08-01 05:24:33 Hochobir]]></name>
<desc><![CDATA[<p>Type: Hiking<br/>Start time: 05:24 1 Aug 2026<br/>Finish time: 09:59 1 Aug 2026<br/>Distance: 14,5 km (04:34)<br/>Moving time: 04:02<br/>Average speed: 3,18 km/h<br/>Avg. Speed Mov: 3,60 km/h<br/>Max. speed: 10,26 km/h<br/>Minimum altitude: 528 m<br/>Maximum altitude: 2091 m<br/>Ascent speed: 629,0 m/h<br/>Descent speed: 887,1 m/h<br/>Elevation gain: 1657 m<br/>Elevation loss: 1657 m<br/>Ascent time: 02:38<br/>Descent time: 01:52<br/></p><hr align="center" width="480" style="height: 2px; width: 517px"/>]]></desc>
<type>Hiking</type>
<extensions>
<om:oruxmapsextensions>
<om:ext type="TYPE" subtype="0">5</om:ext>
<om:ext type="DIFFICULTY">0</om:ext>
</om:oruxmapsextensions>
</extensions>
<trkseg>
<trkpt lat="46.5390067" lon="14.5087367">
<ele>522.77</ele>
<time>2026-08-01T03:24:33.147Z</time>
</trkpt>
<trkpt lat="46.5389817" lon="14.5087017">
<ele>523.57</ele>
<time>2026-08-01T03:24:43.147Z</time>
</trkpt>
<trkpt lat="46.5388295" lon="14.5090616">
<ele>522.94</ele>
<time>2026-08-01T03:28:54.742Z</time>
</trkpt>
<trkpt lat="46.5386947" lon="14.5088876">
<ele>527.18</ele>
<time>2026-08-01T03:29:17.025Z</time>
</trkpt>
<trkpt lat="46.5387530" lon="14.5086343">
<ele>529.01</ele>
<time>2026-08-01T03:29:30.644Z</time>
</trkpt>
<trkpt lat="46.5385714" lon="14.5085917">
<ele>533.46</ele>
<time>2026-08-01T03:29:57.544Z</time>
</trkpt>
<trkpt lat="46.5384346" lon="14.5087714">
<ele>533.66</ele>
<time>2026-08-01T03:30:13.960Z</time>
</trkpt>
<trkpt lat="46.5382549" lon="14.5088377">
<ele>537.71</ele>
<time>2026-08-01T03:30:27.101Z</time>
</trkpt>
<trkpt lat="46.5380783" lon="14.5089056">
<ele>543.68</ele>
<time>2026-08-01T03:30:39.784Z</time>
</trkpt>
<trkpt lat="46.5379087" lon="14.5090019">
<ele>548.79</ele>
<time>2026-08-01T03:30:52.085Z</time>
</trkpt>
<trkpt lat="46.5377338" lon="14.5089401">
<ele>556.94</ele>
<time>2026-08-01T03:31:10.744Z</time>
</trkpt>
<trkpt lat="46.5375602" lon="14.5090126">
<ele>562.55</ele>
<time>2026-08-01T03:31:30.194Z</time>
</trkpt>
<trkpt lat="46.5373784" lon="14.5089415">
<ele>567.91</ele>
<time>2026-08-01T03:31:53.084Z</time>
</trkpt>
<trkpt lat="46.5372847" lon="14.5087164">
<ele>573.95</ele>
<time>2026-08-01T03:32:17.841Z</time>
</trkpt>
<trkpt lat="46.5373988" lon="14.5084921">
<ele>576.73</ele>
<time>2026-08-01T03:32:33.181Z</time>
</trkpt>
<trkpt lat="46.5372442" lon="14.5083282">
<ele>583.02</ele>
<time>2026-08-01T03:32:57.264Z</time>
</trkpt>
<trkpt lat="46.5370552" lon="14.5082778">
<ele>587.83</ele>
<time>2026-08-01T03:33:12.261Z</time>
</trkpt>
<trkpt lat="46.5368661" lon="14.5083255">
<ele>590.37</ele>
<time>2026-08-01T03:33:25.845Z</time>
</trkpt>
<trkpt lat="46.5366840" lon="14.5083552">
<ele>593.07</ele>
<time>2026-08-01T03:33:38.784Z</time>
</trkpt>
<trkpt lat="46.5364968" lon="14.5083292">
<ele>599.43</ele>
<time>2026-08-01T03:33:49.922Z</time>
</trkpt>
<trkpt lat="46.5363091" lon="14.5083373">
<ele>605.01</ele>
<time>2026-08-01T03:34:05.961Z</time>
</trkpt>
<trkpt lat="46.5362544" lon="14.5080867">
<ele>616.16</ele>
<time>2026-08-01T03:34:35.085Z</time>
</trkpt>
<trkpt lat="46.5360826" lon="14.5082103">
<ele>617.32</ele>
<time>2026-08-01T03:34:50.102Z</time>
</trkpt>
<trkpt lat="46.5359024" lon="14.5082382">
<ele>622.16</ele>
<time>2026-08-01T03:35:06.180Z</time>
</trkpt>
<trkpt lat="46.5357271" lon="14.5083114">
<ele>626.78</ele>
<time>2026-08-01T03:35:19.683Z</time>
</trkpt>
<trkpt lat="46.5355561" lon="14.5083991">
<ele>631.58</ele>
<time>2026-08-01T03:35:34.192Z</time>
</trkpt>
<trkpt lat="46.5353914" lon="14.5085140">
<ele>634.41</ele>
<time>2026-08-01T03:35:48.424Z</time>
</trkpt>
<trkpt lat="46.5352065" lon="14.5085356">
<ele>643.11</ele>
<time>2026-08-01T03:36:34.204Z</time>
</trkpt>
<trkpt lat="46.5350260" lon="14.5085351">
<ele>652.72</ele>
<time>2026-08-01T03:37:21.202Z</time>
</trkpt>
<trkpt lat="46.5348720" lon="14.5086746">
<ele>653.16</ele>
<time>2026-08-01T03:37:40.405Z</time>
</trkpt>
<trkpt lat="46.5347025" lon="14.5087675">
<ele>657.14</ele>
<time>2026-08-01T03:38:00.186Z</time>
</trkpt>
<trkpt lat="46.5348212" lon="14.5085423">
<ele>662.67</ele>
<time>2026-08-01T03:38:19.881Z</time>
</trkpt>
<trkpt lat="46.5348684" lon="14.5082812">
<ele>673.94</ele>
<time>2026-08-01T03:38:39.064Z</time>
</trkpt>
<trkpt lat="46.5349631" lon="14.5080580">
<ele>680.88</ele>
<time>2026-08-01T03:38:54.584Z</time>
</trkpt>
<trkpt lat="46.5350119" lon="14.5078053">
<ele>691.57</ele>
<time>2026-08-01T03:39:34.664Z</time>
</trkpt>
<trkpt lat="46.5348367" lon="14.5078663">
<ele>696.17</ele>
<time>2026-08-01T03:40:45.702Z</time>
</trkpt>
<trkpt lat="46.5346570" lon="14.5078906">
<ele>702.78</ele>
<time>2026-08-01T03:41:05.147Z</time>
</trkpt>
<trkpt lat="46.5345304" lon="14.5076977">
<ele>717.33</ele>
<time>2026-08-01T03:41:33.785Z</time>
</trkpt>
<trkpt lat="46.5343503" lon="14.5077369">
<ele>723.06</ele>
<time>2026-08-01T03:41:58.251Z</time>
</trkpt>
<trkpt lat="46.5344789" lon="14.5075445">
<ele>726.57</ele>
<time>2026-08-01T03:42:14.249Z</time>
</trkpt>
<trkpt lat="46.5346100" lon="14.5073613">
<ele>728.77</ele>
<time>2026-08-01T03:42:32.104Z</time>
</trkpt>
<trkpt lat="46.5347088" lon="14.5071350">
<ele>733.55</ele>
<time>2026-08-01T03:42:49.265Z</time>
</trkpt>
<trkpt lat="46.5347955" lon="14.5069033">
<ele>739.01</ele>
<time>2026-08-01T03:43:03.165Z</time>
</trkpt>
<trkpt lat="46.5346144" lon="14.5069400">
<ele>744.77</ele>
<time>2026-08-01T03:43:20.245Z</time>
</trkpt>
<trkpt lat="46.5344421" lon="14.5070433">
<ele>747.63</ele>
<time>2026-08-01T03:43:36.822Z</time>
</trkpt>
<trkpt lat="46.5342563" lon="14.5071073">
<ele>752.53</ele>
<time>2026-08-01T03:43:53.022Z</time>
</trkpt>
<trkpt lat="46.5340678" lon="14.5071070">
<ele>757.28</ele>
<time>2026-08-01T03:44:05.182Z</time>
</trkpt>
<trkpt lat="46.5338909" lon="14.5070462">
<ele>761.74</ele>
<time>2026-08-01T03:44:15.943Z</time>
</trkpt>
<trkpt lat="46.5337041" lon="14.5069688">
<ele>766.95</ele>
<time>2026-08-01T03:44:27.901Z</time>
</trkpt>
<trkpt lat="46.5335251" lon="14.5069237">
<ele>770.83</ele>
<time>2026-08-01T03:44:40.222Z</time>
</trkpt>
<trkpt lat="46.5333508" lon="14.5068509">
<ele>775.72</ele>
<time>2026-08-01T03:44:55.843Z</time>
</trkpt>
<trkpt lat="46.5331748" lon="14.5067719">
<ele>776.94</ele>
<time>2026-08-01T03:45:11.183Z</time>
</trkpt>
<trkpt lat="46.5329665" lon="14.5067285">
<ele>776.06</ele>
<time>2026-08-01T03:45:41.963Z</time>
</trkpt>
<trkpt lat="46.5328318" lon="14.5065313">
<ele>780.88</ele>
<time>2026-08-01T03:45:56.921Z</time>
</trkpt>
<trkpt lat="46.5326624" lon="14.5064282">
<ele>781.52</ele>
<time>2026-08-01T03:46:10.144Z</time>
</trkpt>
<trkpt lat="46.5324901" lon="14.5063243">
<ele>781.88</ele>
<time>2026-08-01T03:46:23.542Z</time>
</trkpt>
<trkpt lat="46.5324121" lon="14.5060633">
<ele>787.75</ele>
<time>2026-08-01T03:46:45.147Z</time>
</trkpt>
<trkpt lat="46.5322730" lon="14.5058854">
<ele>791.04</ele>
<time>2026-08-01T03:47:04.961Z</time>
</trkpt>
<trkpt lat="46.5324092" lon="14.5057146">
<ele>798.23</ele>
<time>2026-08-01T03:47:34.237Z</time>
</trkpt>
<trkpt lat="46.5323488" lon="14.5054677">
<ele>806.49</ele>
<time>2026-08-01T03:47:54.260Z</time>
</trkpt>
<trkpt lat="46.5321746" lon="14.5053856">
<ele>808.12</ele>
<time>2026-08-01T03:48:06.234Z</time>
</trkpt>
<trkpt lat="46.5319900" lon="14.5053695">
<ele>807.34</ele>
<time>2026-08-01T03:48:19.480Z</time>
</trkpt>
<trkpt lat="46.5318082" lon="14.5052924">
<ele>809.05</ele>
<time>2026-08-01T03:48:30.181Z</time>
</trkpt>
<trkpt lat="46.5316232" lon="14.5053068">
<ele>807.60</ele>
<time>2026-08-01T03:48:41.984Z</time>
</trkpt>
<trkpt lat="46.5314422" lon="14.5053043">
<ele>808.17</ele>
<time>2026-08-01T03:48:54.229Z</time>
</trkpt>
<trkpt lat="46.5312630" lon="14.5052750">
<ele>809.92</ele>
<time>2026-08-01T03:49:03.421Z</time>
</trkpt>
<trkpt lat="46.5310785" lon="14.5052550">
<ele>811.34</ele>
<time>2026-08-01T03:49:13.845Z</time>
</trkpt>
<trkpt lat="46.5309126" lon="14.5051363">
<ele>817.32</ele>
<time>2026-08-01T03:49:26.302Z</time>
</trkpt>
<trkpt lat="46.5307543" lon="14.5050105">
<ele>822.47</ele>
<time>2026-08-01T03:49:38.321Z</time>
</trkpt>
<trkpt lat="46.5305674" lon="14.5049849">
<ele>821.29</ele>
<time>2026-08-01T03:49:50.883Z</time>
</trkpt>
<trkpt lat="46.5303743" lon="14.5049672">
<ele>819.64</ele>
<time>2026-08-01T03:50:01.242Z</time>
</trkpt>
<trkpt lat="46.5301932" lon="14.5049438">
<ele>818.39</ele>
<time>2026-08-01T03:50:14.001Z</time>
</trkpt>
<trkpt lat="46.5300129" lon="14.5048905">
<ele>818.57</ele>
<time>2026-08-01T03:50:26.724Z</time>
</trkpt>
<trkpt lat="46.5298346" lon="14.5048318">
<ele>818.38</ele>
<time>2026-08-01T03:50:39.563Z</time>
</trkpt>
<trkpt lat="46.5296626" lon="14.5047467">
<ele>819.64</ele>
<time>2026-08-01T03:50:52.764Z</time>
</trkpt>
<trkpt lat="46.5295063" lon="14.5046032">
<ele>824.20</ele>
<time>2026-08-01T03:51:07.149Z</time>
</trkpt>
<trkpt lat="46.5293323" lon="14.5044843">
<ele>827.35</ele>
<time>2026-08-01T03:51:20.203Z</time>
</trkpt>
<trkpt lat="46.5291516" lon="14.5044366">
<ele>827.11</ele>
<time>2026-08-01T03:51:32.202Z</time>
</trkpt>
<trkpt lat="46.5289731" lon="14.5043897">
<ele>830.00</ele>
<time>2026-08-01T03:51:45.243Z</time>
</trkpt>
<trkpt lat="46.5287786" lon="14.5043570">
<ele>832.26</ele>
<time>2026-08-01T03:51:57.060Z</time>
</trkpt>
<trkpt lat="46.5285902" lon="14.5043192">
<ele>834.82</ele>
<time>2026-08-01T03:52:10.121Z</time>
</trkpt>
<trkpt lat="46.5284102" lon="14.5042724">
<ele>837.92</ele>
<time>2026-08-01T03:52:22.145Z</time>
</trkpt>
<trkpt lat="46.5282254" lon="14.5042073">
<ele>843.18</ele>
<time>2026-08-01T03:52:33.902Z</time>
</trkpt>
<trkpt lat="46.5280383" lon="14.5042322">
<ele>844.28</ele>
<time>2026-08-01T03:52:47.023Z</time>
</trkpt>
<trkpt lat="46.5278666" lon="14.5043242">
<ele>841.47</ele>
<time>2026-08-01T03:53:00.245Z</time>
</trkpt>
<trkpt lat="46.5276845" lon="14.5043301">
<ele>843.54</ele>
<time>2026-08-01T03:53:14.105Z</time>
</trkpt>
<trkpt lat="46.5275020" lon="14.5042576">
<ele>849.95</ele>
<time>2026-08-01T03:53:26.884Z</time>
</trkpt>
<trkpt lat="46.5273198" lon="14.5041935">
<ele>854.82</ele>
<time>2026-08-01T03:53:38.284Z</time>
</trkpt>
<trkpt lat="46.5271462" lon="14.5041225">
<ele>860.30</ele>
<time>2026-08-01T03:53:51.259Z</time>
</trkpt>
<trkpt lat="46.5269775" lon="14.5039893">
<ele>870.13</ele>
<time>2026-08-01T03:54:03.942Z</time>
</trkpt>
<trkpt lat="46.5267907" lon="14.5039763">
<ele>872.66</ele>
<time>2026-08-01T03:54:15.624Z</time>
</trkpt>
<trkpt lat="46.5266126" lon="14.5039262">
<ele>877.04</ele>
<time>2026-08-01T03:54:26.742Z</time>
</trkpt>
<trkpt lat="46.5264332" lon="14.5038620">
<ele>880.89</ele>
<time>2026-08-01T03:54:40.205Z</time>
</trkpt>
<trkpt lat="46.5262604" lon="14.5037799">
<ele>885.82</ele>
<time>2026-08-01T03:54:52.863Z</time>
</trkpt>
<trkpt lat="46.5260838" lon="14.5037184">
<ele>889.30</ele>
<time>2026-08-01T03:55:05.983Z</time>
</trkpt>
<trkpt lat="46.5259068" lon="14.5037750">
<ele>885.12</ele>
<time>2026-08-01T03:55:17.761Z</time>
</trkpt>
<trkpt lat="46.5257365" lon="14.5038925">
<ele>876.48</ele>
<time>2026-08-01T03:55:32.482Z</time>
</trkpt>
<trkpt lat="46.5255569" lon="14.5039652">
<ele>870.72</ele>
<time>2026-08-01T03:55:45.723Z</time>
</trkpt>
<trkpt lat="46.5253913" lon="14.5040676">
<ele>864.38</ele>
<time>2026-08-01T03:55:57.234Z</time>
</trkpt>
<trkpt lat="46.5252094" lon="14.5040730">
<ele>863.36</ele>
<time>2026-08-01T03:56:10.385Z</time>
</trkpt>
<trkpt lat="46.5250277" lon="14.5040481">
<ele>863.55</ele>
<time>2026-08-01T03:56:25.206Z</time>
</trkpt>
<trkpt lat="46.5248418" lon="14.5040902">
<ele>864.47</ele>
<time>2026-08-01T03:56:42.885Z</time>
</trkpt>
<trkpt lat="46.5246600" lon="14.5040692">
<ele>868.24</ele>
<time>2026-08-01T03:56:56.142Z</time>
</trkpt>
<trkpt lat="46.5245005" lon="14.5039440">
<ele>875.35</ele>
<time>2026-08-01T03:57:15.214Z</time>
</trkpt>
<trkpt lat="46.5243161" lon="14.5039402">
<ele>878.47</ele>
<time>2026-08-01T03:57:34.482Z</time>
</trkpt>
<trkpt lat="46.5241474" lon="14.5038321">
<ele>884.86</ele>
<time>2026-08-01T03:57:57.881Z</time>
</trkpt>
<trkpt lat="46.5239647" lon="14.5037867">
<ele>888.43</ele>
<time>2026-08-01T03:58:14.705Z</time>
</trkpt>
<trkpt lat="46.5237906" lon="14.5038717">
<ele>887.46</ele>
<time>2026-08-01T03:58:39.603Z</time>
</trkpt>
<trkpt lat="46.5236104" lon="14.5038951">
<ele>888.69</ele>
<time>2026-08-01T03:59:17.164Z</time>
</trkpt>
<trkpt lat="46.5234584" lon="14.5037303">
<ele>895.79</ele>
<time>2026-08-01T03:59:32.805Z</time>
</trkpt>
<trkpt lat="46.5234117" lon="14.5034701">
<ele>904.79</ele>
<time>2026-08-01T03:59:50.061Z</time>
</trkpt>
<trkpt lat="46.5233054" lon="14.5032511">
<ele>914.78</ele>
<time>2026-08-01T04:00:11.603Z</time>
</trkpt>
<trkpt lat="46.5231375" lon="14.5031554">
<ele>922.33</ele>
<time>2026-08-01T04:00:28.824Z</time>
</trkpt>
<trkpt lat="46.5229616" lon="14.5030891">
<ele>928.77</ele>
<time>2026-08-01T04:00:41.885Z</time>
</trkpt>
<trkpt lat="46.5227793" lon="14.5030392">
<ele>934.68</ele>
<time>2026-08-01T04:01:09.585Z</time>
</trkpt>
<trkpt lat="46.5226006" lon="14.5031113">
<ele>932.71</ele>
<time>2026-08-01T04:01:22.202Z</time>
</trkpt>
<trkpt lat="46.5224238" lon="14.5031635">
<ele>931.42</ele>
<time>2026-08-01T04:01:38.231Z</time>
</trkpt>
<trkpt lat="46.5222518" lon="14.5032462">
<ele>927.75</ele>
<time>2026-08-01T04:01:54.501Z</time>
</trkpt>
<trkpt lat="46.5220715" lon="14.5033158">
<ele>925.28</ele>
<time>2026-08-01T04:02:11.023Z</time>
</trkpt>
<trkpt lat="46.5219080" lon="14.5032050">
<ele>934.23</ele>
<time>2026-08-01T04:02:43.231Z</time>
</trkpt>
<trkpt lat="46.5217415" lon="14.5030792">
<ele>943.82</ele>
<time>2026-08-01T04:02:59.802Z</time>
</trkpt>
<trkpt lat="46.5215552" lon="14.5030975">
<ele>946.24</ele>
<time>2026-08-01T04:03:09.824Z</time>
</trkpt>
<trkpt lat="46.5214855" lon="14.5033394">
<ele>933.96</ele>
<time>2026-08-01T04:03:25.022Z</time>
</trkpt>
<trkpt lat="46.5213601" lon="14.5035272">
<ele>935.82</ele>
<time>2026-08-01T04:03:49.065Z</time>
</trkpt>
<trkpt lat="46.5211755" lon="14.5035118">
<ele>940.53</ele>
<time>2026-08-01T04:04:08.505Z</time>
</trkpt>
<trkpt lat="46.5210023" lon="14.5034046">
<ele>946.33</ele>
<time>2026-08-01T04:04:27.144Z</time>
</trkpt>
<trkpt lat="46.5208248" lon="14.5033402">
<ele>951.94</ele>
<time>2026-08-01T04:04:44.541Z</time>
</trkpt>
<trkpt lat="46.5206905" lon="14.5031424">
<ele>962.58</ele>
<time>2026-08-01T04:05:04.021Z</time>
</trkpt>
<trkpt lat="46.5205183" lon="14.5030443">
<ele>967.97</ele>
<time>2026-08-01T04:05:18.364Z</time>
</trkpt>
<trkpt lat="46.5203694" lon="14.5028776">
<ele>976.11</ele>
<time>2026-08-01T04:05:34.161Z</time>
</trkpt>
<trkpt lat="46.5202350" lon="14.5026767">
<ele>985.17</ele>
<time>2026-08-01T04:05:52.705Z</time>
</trkpt>
<trkpt lat="46.5201141" lon="14.5024806">
<ele>993.77</ele>
<time>2026-08-01T04:06:10.504Z</time>
</trkpt>
<trkpt lat="46.5199488" lon="14.5023601">
<ele>1000.65</ele>
<time>2026-08-01T04:06:26.603Z</time>
</trkpt>
<trkpt lat="46.5197666" lon="14.5023495">
<ele>1000.45</ele>
<time>2026-08-01T04:06:43.643Z</time>
</trkpt>
<trkpt lat="46.5195839" lon="14.5022887">
<ele>1003.44</ele>
<time>2026-08-01T04:07:01.216Z</time>
</trkpt>
<trkpt lat="46.5194167" lon="14.5021760">
<ele>1009.81</ele>
<time>2026-08-01T04:07:15.584Z</time>
</trkpt>
<trkpt lat="46.5192431" lon="14.5020811">
<ele>1015.01</ele>
<time>2026-08-01T04:07:38.722Z</time>
</trkpt>
<trkpt lat="46.5190620" lon="14.5021165">
<ele>1013.70</ele>
<time>2026-08-01T04:07:58.845Z</time>
</trkpt>
<trkpt lat="46.5191021" lon="14.5023744">
<ele>997.03</ele>
<time>2026-08-01T04:08:12.701Z</time>
</trkpt>
<trkpt lat="46.5192421" lon="14.5025396">
<ele>987.95</ele>
<time>2026-08-01T04:08:36.201Z</time>
</trkpt>
<trkpt lat="46.5190593" lon="14.5025762">
<ele>989.51</ele>
<time>2026-08-01T04:08:52.200Z</time>
</trkpt>
<trkpt lat="46.5188777" lon="14.5025223">
<ele>993.14</ele>
<time>2026-08-01T04:09:06.583Z</time>
</trkpt>
<trkpt lat="46.5187020" lon="14.5024247">
<ele>1000.65</ele>
<time>2026-08-01T04:09:55.203Z</time>
</trkpt>
<trkpt lat="46.5185181" lon="14.5024042">
<ele>1004.87</ele>
<time>2026-08-01T04:10:15.583Z</time>
</trkpt>
<trkpt lat="46.5183930" lon="14.5026200">
<ele>1002.53</ele>
<time>2026-08-01T04:11:06.239Z</time>
</trkpt>
<trkpt lat="46.5182107" lon="14.5025817">
<ele>1008.12</ele>
<time>2026-08-01T04:11:35.761Z</time>
</trkpt>
<trkpt lat="46.5180380" lon="14.5024937">
<ele>1013.88</ele>
<time>2026-08-01T04:12:07.103Z</time>
</trkpt>
<trkpt lat="46.5178558" lon="14.5025091">
<ele>1020.34</ele>
<time>2026-08-01T04:12:42.229Z</time>
</trkpt>
<trkpt lat="46.5176680" lon="14.5025344">
<ele>1027.65</ele>
<time>2026-08-01T04:13:30.963Z</time>
</trkpt>
<trkpt lat="46.5175060" lon="14.5024151">
<ele>1034.23</ele>
<time>2026-08-01T04:13:52.122Z</time>
</trkpt>
<trkpt lat="46.5173449" lon="14.5022853">
<ele>1045.50</ele>
<time>2026-08-01T04:14:08.162Z</time>
</trkpt>
<trkpt lat="46.5171961" lon="14.5021346">
<ele>1054.72</ele>
<time>2026-08-01T04:14:21.724Z</time>
</trkpt>
<trkpt lat="46.5171633" lon="14.5018734">
<ele>1057.24</ele>
<time>2026-08-01T04:14:36.721Z</time>
</trkpt>
<trkpt lat="46.5170771" lon="14.5016358">
<ele>1061.60</ele>
<time>2026-08-01T04:14:57.257Z</time>
</trkpt>
<trkpt lat="46.5170755" lon="14.5013689">
<ele>1069.39</ele>
<time>2026-08-01T04:15:11.162Z</time>
</trkpt>
<trkpt lat="46.5169968" lon="14.5011225">
<ele>1076.93</ele>
<time>2026-08-01T04:15:29.721Z</time>
</trkpt>
<trkpt lat="46.5168490" lon="14.5009608">
<ele>1080.51</ele>
<time>2026-08-01T04:15:46.881Z</time>
</trkpt>
<trkpt lat="46.5166714" lon="14.5010181">
<ele>1079.45</ele>
<time>2026-08-01T04:16:44.820Z</time>
</trkpt>
<trkpt lat="46.5165081" lon="14.5008808">
<ele>1087.67</ele>
<time>2026-08-01T04:17:11.177Z</time>
</trkpt>
<trkpt lat="46.5163261" lon="14.5008179">
<ele>1096.14</ele>
<time>2026-08-01T04:17:34.922Z</time>
</trkpt>
<trkpt lat="46.5164550" lon="14.5010072">
<ele>1089.74</ele>
<time>2026-08-01T04:17:59.025Z</time>
</trkpt>
<trkpt lat="46.5164360" lon="14.5012683">
<ele>1090.20</ele>
<time>2026-08-01T04:18:12.251Z</time>
</trkpt>
<trkpt lat="46.5163993" lon="14.5015292">
<ele>1092.06</ele>
<time>2026-08-01T04:18:29.884Z</time>
</trkpt>
<trkpt lat="46.5162775" lon="14.5013341">
<ele>1099.22</ele>
<time>2026-08-01T04:18:45.254Z</time>
</trkpt>
<trkpt lat="46.5162436" lon="14.5010730">
<ele>1100.18</ele>
<time>2026-08-01T04:19:01.251Z</time>
</trkpt>
<trkpt lat="46.5161063" lon="14.5008920">
<ele>1105.66</ele>
<time>2026-08-01T04:19:17.249Z</time>
</trkpt>
<trkpt lat="46.5159426" lon="14.5007831">
<ele>1112.87</ele>
<time>2026-08-01T04:19:32.241Z</time>
</trkpt>
<trkpt lat="46.5158044" lon="14.5006003">
<ele>1120.69</ele>
<time>2026-08-01T04:19:49.165Z</time>
</trkpt>
<trkpt lat="46.5158086" lon="14.5003267">
<ele>1122.24</ele>
<time>2026-08-01T04:20:06.742Z</time>
</trkpt>
<trkpt lat="46.5157239" lon="14.5000935">
<ele>1128.84</ele>
<time>2026-08-01T04:20:41.163Z</time>
</trkpt>
<trkpt lat="46.5156056" lon="14.4998919">
<ele>1141.22</ele>
<time>2026-08-01T04:21:12.922Z</time>
</trkpt>
<trkpt lat="46.5155024" lon="14.4996698">
<ele>1155.74</ele>
<time>2026-08-01T04:21:43.243Z</time>
</trkpt>
<trkpt lat="46.5154302" lon="14.4994286">
<ele>1167.57</ele>
<time>2026-08-01T04:22:12.321Z</time>
</trkpt>
<trkpt lat="46.5153221" lon="14.4992160">
<ele>1176.98</ele>
<time>2026-08-01T04:22:37.561Z</time>
</trkpt>
<trkpt lat="46.5151898" lon="14.4990373">
<ele>1186.12</ele>
<time>2026-08-01T04:23:02.227Z</time>
</trkpt>
<trkpt lat="46.5150128" lon="14.4989899">
<ele>1189.75</ele>
<time>2026-08-01T04:23:26.173Z</time>
</trkpt>
<trkpt lat="46.5148448" lon="14.4988934">
<ele>1198.80</ele>
<time>2026-08-01T04:23:57.264Z</time>
</trkpt>
<trkpt lat="46.5146733" lon="14.4988133">
<ele>1207.17</ele>
<time>2026-08-01T04:24:33.923Z</time>
</trkpt>
<trkpt lat="46.5145114" lon="14.4986977">
<ele>1216.27</ele>
<time>2026-08-01T04:25:03.268Z</time>
</trkpt>
<trkpt lat="46.5143285" lon="14.4986563">
<ele>1222.78</ele>
<time>2026-08-01T04:25:24.920Z</time>
</trkpt>
<trkpt lat="46.5141494" lon="14.4986113">
<ele>1229.17</ele>
<time>2026-08-01T04:25:52.167Z</time>
</trkpt>
<trkpt lat="46.5139734" lon="14.4986959">
<ele>1231.80</ele>
<time>2026-08-01T04:26:22.065Z</time>
</trkpt>
<trkpt lat="46.5137917" lon="14.4986899">
<ele>1237.59</ele>
<time>2026-08-01T04:26:44.925Z</time>
</trkpt>
<trkpt lat="46.5136246" lon="14.4987948">
<ele>1240.12</ele>
<time>2026-08-01T04:26:56.259Z</time>
</trkpt>
<trkpt lat="46.5134346" lon="14.4988107">
<ele>1245.94</ele>
<time>2026-08-01T04:27:17.062Z</time>
</trkpt>
<trkpt lat="46.5132136" lon="14.4988883">
<ele>1249.55</ele>
<time>2026-08-01T04:27:33.960Z</time>
</trkpt>
<trkpt lat="46.5130527" lon="14.4990231">
<ele>1249.79</ele>
<time>2026-08-01T04:27:56.605Z</time>
</trkpt>
<trkpt lat="46.5128540" lon="14.4989296">
<ele>1254.57</ele>
<time>2026-08-01T04:28:38.984Z</time>
</trkpt>
<trkpt lat="46.5128791" lon="14.4986708">
<ele>1257.92</ele>
<time>2026-08-01T04:28:56.144Z</time>
</trkpt>
<trkpt lat="46.5129757" lon="14.4984457">
<ele>1260.23</ele>
<time>2026-08-01T04:29:17.942Z</time>
</trkpt>
<trkpt lat="46.5130908" lon="14.4982425">
<ele>1264.29</ele>
<time>2026-08-01T04:29:36.239Z</time>
</trkpt>
<trkpt lat="46.5132477" lon="14.4981090">
<ele>1268.30</ele>
<time>2026-08-01T04:29:48.841Z</time>
</trkpt>
<trkpt lat="46.5133315" lon="14.4978732">
<ele>1277.22</ele>
<time>2026-08-01T04:30:11.720Z</time>
</trkpt>
<trkpt lat="46.5132679" lon="14.4976274">
<ele>1286.77</ele>
<time>2026-08-01T04:30:36.144Z</time>
</trkpt>
<trkpt lat="46.5131453" lon="14.4974268">
<ele>1294.95</ele>
<time>2026-08-01T04:30:54.823Z</time>
</trkpt>
<trkpt lat="46.5130227" lon="14.4972239">
<ele>1304.35</ele>
<time>2026-08-01T04:31:13.230Z</time>
</trkpt>
<trkpt lat="46.5129112" lon="14.4970151">
<ele>1313.20</ele>
<time>2026-08-01T04:31:30.143Z</time>
</trkpt>
<trkpt lat="46.5127600" lon="14.4968496">
<ele>1318.41</ele>
<time>2026-08-01T04:31:48.083Z</time>
</trkpt>
<trkpt lat="46.5125667" lon="14.4967820">
<ele>1317.72</ele>
<time>2026-08-01T04:32:12.105Z</time>
</trkpt>
<trkpt lat="46.5125206" lon="14.4965163">
<ele>1327.15</ele>
<time>2026-08-01T04:32:29.823Z</time>
</trkpt>
<trkpt lat="46.5123953" lon="14.4963242">
<ele>1330.36</ele>
<time>2026-08-01T04:32:46.198Z</time>
</trkpt>
<trkpt lat="46.5122521" lon="14.4961594">
<ele>1331.15</ele>
<time>2026-08-01T04:33:03.780Z</time>
</trkpt>
<trkpt lat="46.5123305" lon="14.4959177">
<ele>1342.19</ele>
<time>2026-08-01T04:33:57.785Z</time>
</trkpt>
<trkpt lat="46.5123914" lon="14.4956711">
<ele>1353.21</ele>
<time>2026-08-01T04:34:39.187Z</time>
</trkpt>
<trkpt lat="46.5125337" lon="14.4955109">
<ele>1365.43</ele>
<time>2026-08-01T04:35:34.203Z</time>
</trkpt>
<trkpt lat="46.5127036" lon="14.4954163">
<ele>1378.25</ele>
<time>2026-08-01T04:36:16.179Z</time>
</trkpt>
<trkpt lat="46.5128742" lon="14.4953297">
<ele>1391.16</ele>
<time>2026-08-01T04:36:55.961Z</time>
</trkpt>
<trkpt lat="46.5129509" lon="14.4955730">
<ele>1385.45</ele>
<time>2026-08-01T04:37:09.761Z</time>
</trkpt>
<trkpt lat="46.5128322" lon="14.4953741">
<ele>1387.03</ele>
<time>2026-08-01T04:37:39.197Z</time>
</trkpt>
<trkpt lat="46.5128905" lon="14.4951173">
<ele>1400.68</ele>
<time>2026-08-01T04:37:57.842Z</time>
</trkpt>
<trkpt lat="46.5128794" lon="14.4948546">
<ele>1407.33</ele>
<time>2026-08-01T04:38:17.141Z</time>
</trkpt>
<trkpt lat="46.5127656" lon="14.4946398">
<ele>1403.95</ele>
<time>2026-08-01T04:38:34.025Z</time>
</trkpt>
<trkpt lat="46.5126353" lon="14.4944501">
<ele>1398.68</ele>
<time>2026-08-01T04:38:54.259Z</time>
</trkpt>
<trkpt lat="46.5125704" lon="14.4942062">
<ele>1398.14</ele>
<time>2026-08-01T04:39:16.193Z</time>
</trkpt>
<trkpt lat="46.5125821" lon="14.4939411">
<ele>1404.31</ele>
<time>2026-08-01T04:39:40.265Z</time>
</trkpt>
<trkpt lat="46.5125585" lon="14.4936784">
<ele>1408.35</ele>
<time>2026-08-01T04:39:53.743Z</time>
</trkpt>
<trkpt lat="46.5124383" lon="14.4934800">
<ele>1407.09</ele>
<time>2026-08-01T04:40:07.260Z</time>
</trkpt>
<trkpt lat="46.5123846" lon="14.4932274">
<ele>1412.97</ele>
<time>2026-08-01T04:40:23.701Z</time>
</trkpt>
<trkpt lat="46.5123157" lon="14.4929740">
<ele>1420.41</ele>
<time>2026-08-01T04:40:40.162Z</time>
</trkpt>
<trkpt lat="46.5123908" lon="14.4929017">
<ele>1425.53</ele>
<time>2026-08-01T04:41:47.181Z</time>
</trkpt>
<trkpt lat="46.5125334" lon="14.4927261">
<ele>1437.70</ele>
<time>2026-08-01T04:41:57.585Z</time>
</trkpt>
<trkpt lat="46.5127005" lon="14.4928272">
<ele>1442.46</ele>
<time>2026-08-01T04:42:12.281Z</time>
</trkpt>
<trkpt lat="46.5128267" lon="14.4930229">
<ele>1442.73</ele>
<time>2026-08-01T04:42:23.254Z</time>
</trkpt>
<trkpt lat="46.5127890" lon="14.4927592">
<ele>1449.29</ele>
<time>2026-08-01T04:42:50.542Z</time>
</trkpt>
<trkpt lat="46.5126797" lon="14.4925382">
<ele>1451.62</ele>
<time>2026-08-01T04:43:10.242Z</time>
</trkpt>
<trkpt lat="46.5125309" lon="14.4923819">
<ele>1448.62</ele>
<time>2026-08-01T04:43:36.242Z</time>
</trkpt>
<trkpt lat="46.5124542" lon="14.4921430">
<ele>1450.12</ele>
<time>2026-08-01T04:43:54.861Z</time>
</trkpt>
<trkpt lat="46.5123118" lon="14.4919770">
<ele>1447.96</ele>
<time>2026-08-01T04:44:13.203Z</time>
</trkpt>
<trkpt lat="46.5122666" lon="14.4917205">
<ele>1451.27</ele>
<time>2026-08-01T04:44:31.244Z</time>
</trkpt>
<trkpt lat="46.5122102" lon="14.4914633">
<ele>1453.80</ele>
<time>2026-08-01T04:44:48.122Z</time>
</trkpt>
<trkpt lat="46.5122305" lon="14.4912006">
<ele>1459.18</ele>
<time>2026-08-01T04:45:10.902Z</time>
</trkpt>
<trkpt lat="46.5121915" lon="14.4909413">
<ele>1462.26</ele>
<time>2026-08-01T04:45:32.212Z</time>
</trkpt>
<trkpt lat="46.5121366" lon="14.4906817">
<ele>1464.98</ele>
<time>2026-08-01T04:45:54.523Z</time>
</trkpt>
<trkpt lat="46.5121796" lon="14.4904233">
<ele>1471.68</ele>
<time>2026-08-01T04:46:13.922Z</time>
</trkpt>
<trkpt lat="46.5121803" lon="14.4901491">
<ele>1477.05</ele>
<time>2026-08-01T04:46:33.784Z</time>
</trkpt>
<trkpt lat="46.5121618" lon="14.4898834">
<ele>1482.33</ele>
<time>2026-08-01T04:46:50.762Z</time>
</trkpt>
<trkpt lat="46.5121232" lon="14.4896162">
<ele>1487.85</ele>
<time>2026-08-01T04:47:04.185Z</time>
</trkpt>
<trkpt lat="46.5120636" lon="14.4893639">
<ele>1491.92</ele>
<time>2026-08-01T04:47:41.524Z</time>
</trkpt>
<trkpt lat="46.5119717" lon="14.4891381">
<ele>1493.98</ele>
<time>2026-08-01T04:48:04.243Z</time>
</trkpt>
<trkpt lat="46.5118571" lon="14.4889312">
<ele>1496.27</ele>
<time>2026-08-01T04:48:31.681Z</time>
</trkpt>
<trkpt lat="46.5117173" lon="14.4887642">
<ele>1495.49</ele>
<time>2026-08-01T04:48:51.084Z</time>
</trkpt>
<trkpt lat="46.5117209" lon="14.4884976">
<ele>1505.07</ele>
<time>2026-08-01T04:49:25.701Z</time>
</trkpt>
<trkpt lat="46.5117695" lon="14.4882388">
<ele>1517.03</ele>
<time>2026-08-01T04:49:58.682Z</time>
</trkpt>
<trkpt lat="46.5119181" lon="14.4880915">
<ele>1530.80</ele>
<time>2026-08-01T04:50:43.104Z</time>
</trkpt>
<trkpt lat="46.5117768" lon="14.4879292">
<ele>1529.23</ele>
<time>2026-08-01T04:51:30.861Z</time>
</trkpt>
<trkpt lat="46.5116581" lon="14.4877258">
<ele>1530.85</ele>
<time>2026-08-01T04:51:57.726Z</time>
</trkpt>
<trkpt lat="46.5116977" lon="14.4874666">
<ele>1542.08</ele>
<time>2026-08-01T04:52:18.104Z</time>
</trkpt>
<trkpt lat="46.5116895" lon="14.4872050">
<ele>1551.09</ele>
<time>2026-08-01T04:52:38.524Z</time>
</trkpt>
<trkpt lat="46.5116751" lon="14.4869374">
<ele>1559.83</ele>
<time>2026-08-01T04:53:01.258Z</time>
</trkpt>
<trkpt lat="46.5116421" lon="14.4866786">
<ele>1568.49</ele>
<time>2026-08-01T04:53:24.661Z</time>
</trkpt>
<trkpt lat="46.5115346" lon="14.4864687">
<ele>1575.25</ele>
<time>2026-08-01T04:53:50.841Z</time>
</trkpt>
<trkpt lat="46.5114822" lon="14.4862169">
<ele>1583.04</ele>
<time>2026-08-01T04:54:17.222Z</time>
</trkpt>
<trkpt lat="46.5114563" lon="14.4859525">
<ele>1591.13</ele>
<time>2026-08-01T04:54:49.182Z</time>
</trkpt>
<trkpt lat="46.5114306" lon="14.4856894">
<ele>1600.14</ele>
<time>2026-08-01T04:55:13.802Z</time>
</trkpt>
<trkpt lat="46.5113151" lon="14.4854423">
<ele>1606.10</ele>
<time>2026-08-01T04:56:43.247Z</time>
</trkpt>
<trkpt lat="46.5112152" lon="14.4852175">
<ele>1610.38</ele>
<time>2026-08-01T04:57:06.187Z</time>
</trkpt>
<trkpt lat="46.5112263" lon="14.4849538">
<ele>1620.45</ele>
<time>2026-08-01T04:57:31.241Z</time>
</trkpt>
<trkpt lat="46.5111811" lon="14.4846988">
<ele>1629.50</ele>
<time>2026-08-01T04:58:36.741Z</time>
</trkpt>
<trkpt lat="46.5111681" lon="14.4844357">
<ele>1640.33</ele>
<time>2026-08-01T04:59:05.744Z</time>
</trkpt>
<trkpt lat="46.5111416" lon="14.4841687">
<ele>1650.41</ele>
<time>2026-08-01T04:59:40.501Z</time>
</trkpt>
<trkpt lat="46.5110006" lon="14.4839919">
<ele>1649.42</ele>
<time>2026-08-01T05:00:18.901Z</time>
</trkpt>
<trkpt lat="46.5108957" lon="14.4837763">
<ele>1652.76</ele>
<time>2026-08-01T05:00:57.542Z</time>
</trkpt>
<trkpt lat="46.5108068" lon="14.4835428">
<ele>1659.93</ele>
<time>2026-08-01T05:01:34.081Z</time>
</trkpt>
<trkpt lat="46.5106959" lon="14.4833304">
<ele>1669.40</ele>
<time>2026-08-01T05:02:02.424Z</time>
</trkpt>
<trkpt lat="46.5106248" lon="14.4830887">
<ele>1675.08</ele>
<time>2026-08-01T05:02:31.175Z</time>
</trkpt>
<trkpt lat="46.5105142" lon="14.4828791">
<ele>1679.54</ele>
<time>2026-08-01T05:03:19.661Z</time>
</trkpt>
<trkpt lat="46.5104898" lon="14.4826046">
<ele>1685.30</ele>
<time>2026-08-01T05:03:58.041Z</time>
</trkpt>
<trkpt lat="46.5106131" lon="14.4824079">
<ele>1686.34</ele>
<time>2026-08-01T05:04:57.268Z</time>
</trkpt>
<trkpt lat="46.5107920" lon="14.4823543">
<ele>1687.10</ele>
<time>2026-08-01T05:05:33.188Z</time>
</trkpt>
<trkpt lat="46.5109389" lon="14.4821952">
<ele>1689.82</ele>
<time>2026-08-01T05:06:04.902Z</time>
</trkpt>
<trkpt lat="46.5110935" lon="14.4820529">
<ele>1695.26</ele>
<time>2026-08-01T05:07:10.242Z</time>
</trkpt>
<trkpt lat="46.5105570" lon="14.4818914">
<ele>1673.43</ele>
<time>2026-08-01T05:09:44.222Z</time>
</trkpt>
<trkpt lat="46.5103793" lon="14.4818385">
<ele>1667.83</ele>
<time>2026-08-01T05:10:00.255Z</time>
</trkpt>
<trkpt lat="46.5101876" lon="14.4818542">
<ele>1663.69</ele>
<time>2026-08-01T05:10:17.158Z</time>
</trkpt>
<trkpt lat="46.5100164" lon="14.4819480">
<ele>1663.16</ele>
<time>2026-08-01T05:10:44.363Z</time>
</trkpt>
<trkpt lat="46.5098732" lon="14.4821085">
<ele>1671.67</ele>
<time>2026-08-01T05:11:18.904Z</time>
</trkpt>
<trkpt lat="46.5095561" lon="14.4818894">
<ele>1668.76</ele>
<time>2026-08-01T05:12:18.195Z</time>
</trkpt>
<trkpt lat="46.5093815" lon="14.4822464">
<ele>1688.56</ele>
<time>2026-08-01T05:15:27.184Z</time>
</trkpt>
<trkpt lat="46.5092924" lon="14.4824822">
<ele>1701.83</ele>
<time>2026-08-01T05:16:20.202Z</time>
</trkpt>
<trkpt lat="46.5091694" lon="14.4826779">
<ele>1714.22</ele>
<time>2026-08-01T05:17:12.143Z</time>
</trkpt>
<trkpt lat="46.5090704" lon="14.4829009">
<ele>1730.22</ele>
<time>2026-08-01T05:18:07.903Z</time>
</trkpt>
<trkpt lat="46.5090161" lon="14.4831523">
<ele>1745.88</ele>
<time>2026-08-01T05:19:27.247Z</time>
</trkpt>
<trkpt lat="46.5089051" lon="14.4833588">
<ele>1762.69</ele>
<time>2026-08-01T05:20:33.123Z</time>
</trkpt>
<trkpt lat="46.5087004" lon="14.4834812">
<ele>1780.36</ele>
<time>2026-08-01T05:21:36.904Z</time>
</trkpt>
<trkpt lat="46.5085574" lon="14.4836458">
<ele>1798.00</ele>
<time>2026-08-01T05:22:30.843Z</time>
</trkpt>
<trkpt lat="46.5083885" lon="14.4838356">
<ele>1822.77</ele>
<time>2026-08-01T05:23:56.403Z</time>
</trkpt>
<trkpt lat="46.5083099" lon="14.4840719">
<ele>1842.38</ele>
<time>2026-08-01T05:24:33.243Z</time>
</trkpt>
<trkpt lat="46.5082393" lon="14.4843708">
<ele>1858.50</ele>
<time>2026-08-01T05:26:29.264Z</time>
</trkpt>
<trkpt lat="46.5080757" lon="14.4844808">
<ele>1869.82</ele>
<time>2026-08-01T05:27:38.186Z</time>
</trkpt>
<trkpt lat="46.5078933" lon="14.4844801">
<ele>1877.40</ele>
<time>2026-08-01T05:28:16.062Z</time>
</trkpt>
<trkpt lat="46.5077289" lon="14.4845887">
<ele>1890.13</ele>
<time>2026-08-01T05:29:07.230Z</time>
</trkpt>
<trkpt lat="46.5076698" lon="14.4849098">
<ele>1910.61</ele>
<time>2026-08-01T05:31:00.183Z</time>
</trkpt>
<trkpt lat="46.5076161" lon="14.4851884">
<ele>1926.30</ele>
<time>2026-08-01T05:33:12.021Z</time>
</trkpt>
<trkpt lat="46.5074649" lon="14.4853309">
<ele>1940.33</ele>
<time>2026-08-01T05:33:53.684Z</time>
</trkpt>
<trkpt lat="46.5073034" lon="14.4854630">
<ele>1948.29</ele>
<time>2026-08-01T05:35:00.199Z</time>
</trkpt>
<trkpt lat="46.5073376" lon="14.4857255">
<ele>1961.23</ele>
<time>2026-08-01T05:35:50.560Z</time>
</trkpt>
<trkpt lat="46.5071908" lon="14.4858805">
<ele>1971.63</ele>
<time>2026-08-01T05:36:49.262Z</time>
</trkpt>
<trkpt lat="46.5070782" lon="14.4860132">
<ele>1980.13</ele>
<time>2026-08-01T05:39:19.182Z</time>
</trkpt>
<trkpt lat="46.5069895" lon="14.4862478">
<ele>1994.65</ele>
<time>2026-08-01T05:40:13.101Z</time>
</trkpt>
<trkpt lat="46.5070149" lon="14.4865081">
<ele>2005.39</ele>
<time>2026-08-01T05:42:07.924Z</time>
</trkpt>
<trkpt lat="46.5069144" lon="14.4867300">
<ele>2023.15</ele>
<time>2026-08-01T05:42:51.174Z</time>
</trkpt>
<trkpt lat="46.5067408" lon="14.4868108">
<ele>2040.98</ele>
<time>2026-08-01T05:43:28.004Z</time>
</trkpt>
<trkpt lat="46.5065908" lon="14.4869630">
<ele>2054.76</ele>
<time>2026-08-01T05:44:02.424Z</time>
</trkpt>
<trkpt lat="46.5064158" lon="14.4868754">
<ele>2053.41</ele>
<time>2026-08-01T05:44:40.239Z</time>
</trkpt>
<trkpt lat="46.5064774" lon="14.4872051">
<ele>2068.56</ele>
<time>2026-08-01T05:45:22.961Z</time>
</trkpt>
<trkpt lat="46.5063107" lon="14.4870980">
<ele>2067.60</ele>
<time>2026-08-01T05:45:46.157Z</time>
</trkpt>
<trkpt lat="46.5061242" lon="14.4871056">
<ele>2072.84</ele>
<time>2026-08-01T05:46:07.843Z</time>
</trkpt>
<trkpt lat="46.5059823" lon="14.4871674">
<ele>2081.13</ele>
<time>2026-08-01T06:07:49.167Z</time>
</trkpt>
<trkpt lat="46.5060033" lon="14.4873149">
<ele>2091.40</ele>
<time>2026-08-01T06:08:22.270Z</time>
</trkpt>
<trkpt lat="46.5058207" lon="14.4872664">
<ele>2093.72</ele>
<time>2026-08-01T06:10:49.041Z</time>
</trkpt>
<trkpt lat="46.5056457" lon="14.4872048">
<ele>2089.89</ele>
<time>2026-08-01T06:11:03.982Z</time>
</trkpt>
<trkpt lat="46.5054732" lon="14.4871136">
<ele>2084.89</ele>
<time>2026-08-01T06:11:23.274Z</time>
</trkpt>
<trkpt lat="46.5052946" lon="14.4870446">
<ele>2082.60</ele>
<time>2026-08-01T06:11:40.600Z</time>
</trkpt>
<trkpt lat="46.5051084" lon="14.4870163">
<ele>2083.61</ele>
<time>2026-08-01T06:11:53.378Z</time>
</trkpt>
<trkpt lat="46.5049387" lon="14.4869230">
<ele>2080.72</ele>
<time>2026-08-01T06:12:06.921Z</time>
</trkpt>
<trkpt lat="46.5048135" lon="14.4867147">
<ele>2072.43</ele>
<time>2026-08-01T06:12:18.939Z</time>
</trkpt>
<trkpt lat="46.5046698" lon="14.4865506">
<ele>2066.60</ele>
<time>2026-08-01T06:12:33.901Z</time>
</trkpt>
<trkpt lat="46.5046490" lon="14.4862910">
<ele>2054.51</ele>
<time>2026-08-01T06:13:00.719Z</time>
</trkpt>
<trkpt lat="46.5045983" lon="14.4860340">
<ele>2044.95</ele>
<time>2026-08-01T06:13:19.203Z</time>
</trkpt>
<trkpt lat="46.5044204" lon="14.4860966">
<ele>2056.97</ele>
<time>2026-08-01T06:13:57.161Z</time>
</trkpt>
<trkpt lat="46.5042381" lon="14.4861462">
<ele>2067.42</ele>
<time>2026-08-01T06:14:13.919Z</time>
</trkpt>
<trkpt lat="46.5040788" lon="14.4862755">
<ele>2071.08</ele>
<time>2026-08-01T06:14:32.301Z</time>
</trkpt>
<trkpt lat="46.5039188" lon="14.4864111">
<ele>2068.78</ele>
<time>2026-08-01T06:14:48.520Z</time>
</trkpt>
<trkpt lat="46.5037750" lon="14.4865824">
<ele>2065.62</ele>
<time>2026-08-01T06:15:03.779Z</time>
</trkpt>
<trkpt lat="46.5036282" lon="14.4867440">
<ele>2061.12</ele>
<time>2026-08-01T06:15:22.161Z</time>
</trkpt>
<trkpt lat="46.5035121" lon="14.4869762">
<ele>2057.22</ele>
<time>2026-08-01T06:15:40.820Z</time>
</trkpt>
<trkpt lat="46.5033299" lon="14.4869212">
<ele>2050.31</ele>
<time>2026-08-01T06:15:50.882Z</time>
</trkpt>
<trkpt lat="46.5031493" lon="14.4869806">
<ele>2046.10</ele>
<time>2026-08-01T06:16:04.782Z</time>
</trkpt>
<trkpt lat="46.5029743" lon="14.4870673">
<ele>2041.50</ele>
<time>2026-08-01T06:16:17.339Z</time>
</trkpt>
<trkpt lat="46.5028060" lon="14.4871725">
<ele>2036.45</ele>
<time>2026-08-01T06:16:31.722Z</time>
</trkpt>
<trkpt lat="46.5026514" lon="14.4873184">
<ele>2030.76</ele>
<time>2026-08-01T06:16:44.002Z</time>
</trkpt>
<trkpt lat="46.5025097" lon="14.4874863">
<ele>2024.49</ele>
<time>2026-08-01T06:16:55.443Z</time>
</trkpt>
<trkpt lat="46.5023743" lon="14.4876600">
<ele>2022.46</ele>
<time>2026-08-01T06:17:05.860Z</time>
</trkpt>
<trkpt lat="46.5022491" lon="14.4878570">
<ele>2020.20</ele>
<time>2026-08-01T06:17:17.738Z</time>
</trkpt>
<trkpt lat="46.5021719" lon="14.4880984">
<ele>2018.87</ele>
<time>2026-08-01T06:17:30.239Z</time>
</trkpt>
<trkpt lat="46.5020816" lon="14.4883345">
<ele>2015.93</ele>
<time>2026-08-01T06:17:41.779Z</time>
</trkpt>
<trkpt lat="46.5019812" lon="14.4885517">
<ele>2013.67</ele>
<time>2026-08-01T06:17:52.783Z</time>
</trkpt>
<trkpt lat="46.5019913" lon="14.4888164">
<ele>2017.15</ele>
<time>2026-08-01T06:18:07.899Z</time>
</trkpt>
<trkpt lat="46.5020514" lon="14.4890688">
<ele>2021.73</ele>
<time>2026-08-01T06:18:25.194Z</time>
</trkpt>
<trkpt lat="46.5020952" lon="14.4893299">
<ele>2020.82</ele>
<time>2026-08-01T06:18:39.562Z</time>
</trkpt>
<trkpt lat="46.5021559" lon="14.4895763">
<ele>2017.27</ele>
<time>2026-08-01T06:18:53.799Z</time>
</trkpt>
<trkpt lat="46.5022491" lon="14.4898209">
<ele>2013.40</ele>
<time>2026-08-01T06:19:09.102Z</time>
</trkpt>
<trkpt lat="46.5022472" lon="14.4900856">
<ele>2007.48</ele>
<time>2026-08-01T06:19:42.080Z</time>
</trkpt>
<trkpt lat="46.5020861" lon="14.4902073">
<ele>2003.91</ele>
<time>2026-08-01T06:19:55.246Z</time>
</trkpt>
<trkpt lat="46.5019078" lon="14.4902761">
<ele>2001.67</ele>
<time>2026-08-01T06:20:08.980Z</time>
</trkpt>
<trkpt lat="46.5017328" lon="14.4903369">
<ele>1999.77</ele>
<time>2026-08-01T06:20:21.261Z</time>
</trkpt>
<trkpt lat="46.5015493" lon="14.4903682">
<ele>1994.48</ele>
<time>2026-08-01T06:20:35.941Z</time>
</trkpt>
<trkpt lat="46.5013962" lon="14.4905135">
<ele>1986.96</ele>
<time>2026-08-01T06:20:49.901Z</time>
</trkpt>
<trkpt lat="46.5012784" lon="14.4907196">
<ele>1981.19</ele>
<time>2026-08-01T06:21:03.660Z</time>
</trkpt>
<trkpt lat="46.5011996" lon="14.4909610">
<ele>1978.00</ele>
<time>2026-08-01T06:21:16.242Z</time>
</trkpt>
<trkpt lat="46.5011721" lon="14.4912201">
<ele>1976.96</ele>
<time>2026-08-01T06:21:30.560Z</time>
</trkpt>
<trkpt lat="46.5011672" lon="14.4914891">
<ele>1976.46</ele>
<time>2026-08-01T06:21:43.378Z</time>
</trkpt>
<trkpt lat="46.5011928" lon="14.4917522">
<ele>1975.57</ele>
<time>2026-08-01T06:21:55.120Z</time>
</trkpt>
<trkpt lat="46.5012674" lon="14.4919907">
<ele>1973.90</ele>
<time>2026-08-01T06:22:06.248Z</time>
</trkpt>
<trkpt lat="46.5013176" lon="14.4922418">
<ele>1971.76</ele>
<time>2026-08-01T06:22:19.962Z</time>
</trkpt>
<trkpt lat="46.5013702" lon="14.4925023">
<ele>1969.63</ele>
<time>2026-08-01T06:22:33.058Z</time>
</trkpt>
<trkpt lat="46.5014333" lon="14.4927556">
<ele>1966.64</ele>
<time>2026-08-01T06:22:44.598Z</time>
</trkpt>
<trkpt lat="46.5014984" lon="14.4930000">
<ele>1963.93</ele>
<time>2026-08-01T06:22:57.759Z</time>
</trkpt>
<trkpt lat="46.5015411" lon="14.4932593">
<ele>1960.62</ele>
<time>2026-08-01T06:23:09.802Z</time>
</trkpt>
<trkpt lat="46.5015463" lon="14.4935366">
<ele>1954.77</ele>
<time>2026-08-01T06:23:23.758Z</time>
</trkpt>
<trkpt lat="46.5016034" lon="14.4937906">
<ele>1949.86</ele>
<time>2026-08-01T06:23:34.680Z</time>
</trkpt>
<trkpt lat="46.5016872" lon="14.4940291">
<ele>1944.79</ele>
<time>2026-08-01T06:23:47.840Z</time>
</trkpt>
<trkpt lat="46.5017966" lon="14.4942370">
<ele>1937.02</ele>
<time>2026-08-01T06:24:00.599Z</time>
</trkpt>
<trkpt lat="46.5017057" lon="14.4944646">
<ele>1933.20</ele>
<time>2026-08-01T06:24:18.760Z</time>
</trkpt>
<trkpt lat="46.5017853" lon="14.4947154">
<ele>1924.67</ele>
<time>2026-08-01T06:24:34.018Z</time>
</trkpt>
<trkpt lat="46.5019235" lon="14.4948869">
<ele>1916.82</ele>
<time>2026-08-01T06:24:45.660Z</time>
</trkpt>
<trkpt lat="46.5020113" lon="14.4951169">
<ele>1908.34</ele>
<time>2026-08-01T06:24:54.177Z</time>
</trkpt>
<trkpt lat="46.5020409" lon="14.4953784">
<ele>1899.90</ele>
<time>2026-08-01T06:25:01.281Z</time>
</trkpt>
<trkpt lat="46.5019924" lon="14.4956411">
<ele>1893.79</ele>
<time>2026-08-01T06:25:07.861Z</time>
</trkpt>
<trkpt lat="46.5019548" lon="14.4959041">
<ele>1888.61</ele>
<time>2026-08-01T06:25:24.181Z</time>
</trkpt>
<trkpt lat="46.5020042" lon="14.4961798">
<ele>1882.86</ele>
<time>2026-08-01T06:25:37.740Z</time>
</trkpt>
<trkpt lat="46.5020598" lon="14.4964358">
<ele>1877.17</ele>
<time>2026-08-01T06:25:51.162Z</time>
</trkpt>
<trkpt lat="46.5021573" lon="14.4966656">
<ele>1870.35</ele>
<time>2026-08-01T06:26:05.460Z</time>
</trkpt>
<trkpt lat="46.5022740" lon="14.4968713">
<ele>1867.51</ele>
<time>2026-08-01T06:26:22.902Z</time>
</trkpt>
<trkpt lat="46.5023941" lon="14.4970838">
<ele>1866.05</ele>
<time>2026-08-01T06:26:32.521Z</time>
</trkpt>
<trkpt lat="46.5025380" lon="14.4972544">
<ele>1864.00</ele>
<time>2026-08-01T06:26:45.762Z</time>
</trkpt>
<trkpt lat="46.5026918" lon="14.4974043">
<ele>1860.34</ele>
<time>2026-08-01T06:26:57.202Z</time>
</trkpt>
<trkpt lat="46.5027947" lon="14.4976231">
<ele>1860.59</ele>
<time>2026-08-01T06:27:08.718Z</time>
</trkpt>
<trkpt lat="46.5028738" lon="14.4978701">
<ele>1861.76</ele>
<time>2026-08-01T06:27:21.758Z</time>
</trkpt>
<trkpt lat="46.5029650" lon="14.4981030">
<ele>1863.62</ele>
<time>2026-08-01T06:27:34.421Z</time>
</trkpt>
<trkpt lat="46.5030941" lon="14.4982987">
<ele>1865.58</ele>
<time>2026-08-01T06:27:47.380Z</time>
</trkpt>
<trkpt lat="46.5032113" lon="14.4984977">
<ele>1865.61</ele>
<time>2026-08-01T06:28:02.438Z</time>
</trkpt>
<trkpt lat="46.5033352" lon="14.4987050">
<ele>1865.64</ele>
<time>2026-08-01T06:28:15.840Z</time>
</trkpt>
<trkpt lat="46.5034273" lon="14.4989315">
<ele>1860.13</ele>
<time>2026-08-01T06:28:30.782Z</time>
</trkpt>
<trkpt lat="46.5035400" lon="14.4991421">
<ele>1853.67</ele>
<time>2026-08-01T06:28:43.661Z</time>
</trkpt>
<trkpt lat="46.5036480" lon="14.4993587">
<ele>1846.73</ele>
<time>2026-08-01T06:28:55.942Z</time>
</trkpt>
<trkpt lat="46.5037752" lon="14.4995597">
<ele>1840.59</ele>
<time>2026-08-01T06:29:08.001Z</time>
</trkpt>
<trkpt lat="46.5038700" lon="14.4997840">
<ele>1838.41</ele>
<time>2026-08-01T06:29:29.222Z</time>
</trkpt>
<trkpt lat="46.5039273" lon="14.5000433">
<ele>1838.48</ele>
<time>2026-08-01T06:29:42.921Z</time>
</trkpt>
<trkpt lat="46.5039925" lon="14.5002882">
<ele>1832.77</ele>
<time>2026-08-01T06:29:58.658Z</time>
</trkpt>
<trkpt lat="46.5041151" lon="14.5004887">
<ele>1826.77</ele>
<time>2026-08-01T06:30:13.162Z</time>
</trkpt>
<trkpt lat="46.5042496" lon="14.5006761">
<ele>1814.86</ele>
<time>2026-08-01T06:30:39.199Z</time>
</trkpt>
<trkpt lat="46.5042738" lon="14.5009649">
<ele>1811.94</ele>
<time>2026-08-01T06:30:47.862Z</time>
</trkpt>
<trkpt lat="46.5042374" lon="14.5012268">
<ele>1816.61</ele>
<time>2026-08-01T06:30:54.191Z</time>
</trkpt>
<trkpt lat="46.5041590" lon="14.5014918">
<ele>1822.61</ele>
<time>2026-08-01T06:31:01.798Z</time>
</trkpt>
<trkpt lat="46.5040770" lon="14.5017319">
<ele>1822.85</ele>
<time>2026-08-01T06:31:09.359Z</time>
</trkpt>
<trkpt lat="46.5039181" lon="14.5018570">
<ele>1822.61</ele>
<time>2026-08-01T06:31:24.759Z</time>
</trkpt>
<trkpt lat="46.5034006" lon="14.5022254">
<ele>1822.28</ele>
<time>2026-08-01T06:32:07.254Z</time>
</trkpt>
<trkpt lat="46.5032253" lon="14.5022876">
<ele>1819.01</ele>
<time>2026-08-01T06:32:22.247Z</time>
</trkpt>
<trkpt lat="46.5030550" lon="14.5023920">
<ele>1813.78</ele>
<time>2026-08-01T06:32:38.140Z</time>
</trkpt>
<trkpt lat="46.5028989" lon="14.5025344">
<ele>1808.97</ele>
<time>2026-08-01T06:32:55.000Z</time>
</trkpt>
<trkpt lat="46.5028166" lon="14.5027752">
<ele>1806.74</ele>
<time>2026-08-01T06:33:09.162Z</time>
</trkpt>
<trkpt lat="46.5027620" lon="14.5030319">
<ele>1805.57</ele>
<time>2026-08-01T06:33:22.520Z</time>
</trkpt>
<trkpt lat="46.5027306" lon="14.5032898">
<ele>1805.19</ele>
<time>2026-08-01T06:33:38.841Z</time>
</trkpt>
<trkpt lat="46.5026740" lon="14.5035447">
<ele>1801.67</ele>
<time>2026-08-01T06:34:01.138Z</time>
</trkpt>
<trkpt lat="46.5027394" lon="14.5037944">
<ele>1800.24</ele>
<time>2026-08-01T06:34:26.561Z</time>
</trkpt>
<trkpt lat="46.5028014" lon="14.5040414">
<ele>1798.54</ele>
<time>2026-08-01T06:34:48.402Z</time>
</trkpt>
<trkpt lat="46.5027154" lon="14.5042712">
<ele>1793.21</ele>
<time>2026-08-01T06:35:31.258Z</time>
</trkpt>
<trkpt lat="46.5028154" lon="14.5045085">
<ele>1789.56</ele>
<time>2026-08-01T06:35:48.157Z</time>
</trkpt>
<trkpt lat="46.5029343" lon="14.5047247">
<ele>1786.95</ele>
<time>2026-08-01T06:36:02.157Z</time>
</trkpt>
<trkpt lat="46.5030578" lon="14.5049152">
<ele>1785.21</ele>
<time>2026-08-01T06:36:15.204Z</time>
</trkpt>
<trkpt lat="46.5031512" lon="14.5051459">
<ele>1781.20</ele>
<time>2026-08-01T06:36:28.185Z</time>
</trkpt>
<trkpt lat="46.5030451" lon="14.5053582">
<ele>1772.77</ele>
<time>2026-08-01T06:37:19.201Z</time>
</trkpt>
<trkpt lat="46.5031110" lon="14.5056053">
<ele>1767.32</ele>
<time>2026-08-01T06:37:39.657Z</time>
</trkpt>
<trkpt lat="46.5029299" lon="14.5056631">
<ele>1760.95</ele>
<time>2026-08-01T06:38:26.100Z</time>
</trkpt>
<trkpt lat="46.5027665" lon="14.5055331">
<ele>1760.75</ele>
<time>2026-08-01T06:38:45.102Z</time>
</trkpt>
<trkpt lat="46.5026854" lon="14.5057778">
<ele>1750.89</ele>
<time>2026-08-01T06:39:04.100Z</time>
</trkpt>
<trkpt lat="46.5027705" lon="14.5060093">
<ele>1745.91</ele>
<time>2026-08-01T06:39:23.062Z</time>
</trkpt>
<trkpt lat="46.5029372" lon="14.5061414">
<ele>1746.26</ele>
<time>2026-08-01T06:39:40.022Z</time>
</trkpt>
<trkpt lat="46.5030888" lon="14.5062991">
<ele>1745.32</ele>
<time>2026-08-01T06:39:57.580Z</time>
</trkpt>
<trkpt lat="46.5032561" lon="14.5064127">
<ele>1746.16</ele>
<time>2026-08-01T06:40:13.841Z</time>
</trkpt>
<trkpt lat="46.5034027" lon="14.5065739">
<ele>1743.76</ele>
<time>2026-08-01T06:40:26.821Z</time>
</trkpt>
<trkpt lat="46.5035772" lon="14.5066423">
<ele>1743.43</ele>
<time>2026-08-01T06:40:42.256Z</time>
</trkpt>
<trkpt lat="46.5037545" lon="14.5067263">
<ele>1742.69</ele>
<time>2026-08-01T06:40:52.379Z</time>
</trkpt>
<trkpt lat="46.5039179" lon="14.5068573">
<ele>1740.37</ele>
<time>2026-08-01T06:41:05.998Z</time>
</trkpt>
<trkpt lat="46.5043272" lon="14.5070535">
<ele>1736.96</ele>
<time>2026-08-01T06:41:45.442Z</time>
</trkpt>
<trkpt lat="46.5044552" lon="14.5072378">
<ele>1731.93</ele>
<time>2026-08-01T06:42:04.002Z</time>
</trkpt>
<trkpt lat="46.5046259" lon="14.5073434">
<ele>1729.71</ele>
<time>2026-08-01T06:42:17.742Z</time>
</trkpt>
<trkpt lat="46.5048035" lon="14.5074266">
<ele>1728.51</ele>
<time>2026-08-01T06:42:33.082Z</time>
</trkpt>
<trkpt lat="46.5049801" lon="14.5075114">
<ele>1727.69</ele>
<time>2026-08-01T06:42:46.380Z</time>
</trkpt>
<trkpt lat="46.5051651" lon="14.5075871">
<ele>1723.56</ele>
<time>2026-08-01T06:43:08.538Z</time>
</trkpt>
<trkpt lat="46.5053369" lon="14.5076898">
<ele>1718.75</ele>
<time>2026-08-01T06:43:21.042Z</time>
</trkpt>
<trkpt lat="46.5055233" lon="14.5077003">
<ele>1715.22</ele>
<time>2026-08-01T06:43:34.079Z</time>
</trkpt>
<trkpt lat="46.5057001" lon="14.5077798">
<ele>1710.70</ele>
<time>2026-08-01T06:43:48.841Z</time>
</trkpt>
<trkpt lat="46.5058667" lon="14.5078995">
<ele>1704.56</ele>
<time>2026-08-01T06:43:58.220Z</time>
</trkpt>
<trkpt lat="46.5060454" lon="14.5079453">
<ele>1694.70</ele>
<time>2026-08-01T06:44:11.659Z</time>
</trkpt>
<trkpt lat="46.5062124" lon="14.5078212">
<ele>1687.31</ele>
<time>2026-08-01T06:44:31.739Z</time>
</trkpt>
<trkpt lat="46.5064018" lon="14.5077504">
<ele>1677.55</ele>
<time>2026-08-01T06:44:45.842Z</time>
</trkpt>
<trkpt lat="46.5065688" lon="14.5076389">
<ele>1668.60</ele>
<time>2026-08-01T06:44:57.781Z</time>
</trkpt>
<trkpt lat="46.5067228" lon="14.5074917">
<ele>1659.99</ele>
<time>2026-08-01T06:45:10.459Z</time>
</trkpt>
<trkpt lat="46.5068578" lon="14.5073164">
<ele>1645.58</ele>
<time>2026-08-01T06:45:23.998Z</time>
</trkpt>
<trkpt lat="46.5070207" lon="14.5072031">
<ele>1632.59</ele>
<time>2026-08-01T06:45:45.280Z</time>
</trkpt>
<trkpt lat="46.5072160" lon="14.5072008">
<ele>1623.17</ele>
<time>2026-08-01T06:45:56.233Z</time>
</trkpt>
<trkpt lat="46.5071387" lon="14.5069581">
<ele>1615.46</ele>
<time>2026-08-01T06:47:00.740Z</time>
</trkpt>
<trkpt lat="46.5071714" lon="14.5066950">
<ele>1601.50</ele>
<time>2026-08-01T06:47:37.981Z</time>
</trkpt>
<trkpt lat="46.5073457" lon="14.5066048">
<ele>1589.68</ele>
<time>2026-08-01T06:47:53.698Z</time>
</trkpt>
<trkpt lat="46.5072935" lon="14.5063420">
<ele>1584.03</ele>
<time>2026-08-01T06:48:24.041Z</time>
</trkpt>
<trkpt lat="46.5071740" lon="14.5061463">
<ele>1583.45</ele>
<time>2026-08-01T06:48:41.021Z</time>
</trkpt>
<trkpt lat="46.5072009" lon="14.5058785">
<ele>1573.71</ele>
<time>2026-08-01T06:49:06.700Z</time>
</trkpt>
<trkpt lat="46.5070906" lon="14.5056655">
<ele>1574.36</ele>
<time>2026-08-01T06:49:22.599Z</time>
</trkpt>
<trkpt lat="46.5072571" lon="14.5055359">
<ele>1565.09</ele>
<time>2026-08-01T06:49:52.262Z</time>
</trkpt>
<trkpt lat="46.5074108" lon="14.5053855">
<ele>1556.28</ele>
<time>2026-08-01T06:50:04.900Z</time>
</trkpt>
<trkpt lat="46.5074280" lon="14.5051203">
<ele>1551.63</ele>
<time>2026-08-01T06:50:29.260Z</time>
</trkpt>
<trkpt lat="46.5076059" lon="14.5050376">
<ele>1541.89</ele>
<time>2026-08-01T06:50:53.918Z</time>
</trkpt>
<trkpt lat="46.5077835" lon="14.5051008">
<ele>1533.03</ele>
<time>2026-08-01T06:51:11.184Z</time>
</trkpt>
<trkpt lat="46.5079393" lon="14.5052490">
<ele>1525.66</ele>
<time>2026-08-01T06:51:37.059Z</time>
</trkpt>
<trkpt lat="46.5080424" lon="14.5050273">
<ele>1518.52</ele>
<time>2026-08-01T06:52:06.898Z</time>
</trkpt>
<trkpt lat="46.5082270" lon="14.5050833">
<ele>1508.85</ele>
<time>2026-08-01T06:52:27.721Z</time>
</trkpt>
<trkpt lat="46.5083966" lon="14.5049842">
<ele>1500.29</ele>
<time>2026-08-01T06:52:42.246Z</time>
</trkpt>
<trkpt lat="46.5085646" lon="14.5050864">
<ele>1490.50</ele>
<time>2026-08-01T06:53:03.799Z</time>
</trkpt>
<trkpt lat="46.5086962" lon="14.5049065">
<ele>1487.70</ele>
<time>2026-08-01T06:53:26.941Z</time>
</trkpt>
<trkpt lat="46.5088816" lon="14.5049551">
<ele>1475.49</ele>
<time>2026-08-01T06:53:47.262Z</time>
</trkpt>
<trkpt lat="46.5089580" lon="14.5051923">
<ele>1468.81</ele>
<time>2026-08-01T06:54:06.264Z</time>
</trkpt>
<trkpt lat="46.5091340" lon="14.5052666">
<ele>1458.85</ele>
<time>2026-08-01T06:54:23.002Z</time>
</trkpt>
<trkpt lat="46.5092201" lon="14.5055097">
<ele>1453.21</ele>
<time>2026-08-01T06:54:36.621Z</time>
</trkpt>
<trkpt lat="46.5093437" lon="14.5057038">
<ele>1446.33</ele>
<time>2026-08-01T06:54:47.281Z</time>
</trkpt>
<trkpt lat="46.5094399" lon="14.5059323">
<ele>1443.77</ele>
<time>2026-08-01T06:55:00.880Z</time>
</trkpt>
<trkpt lat="46.5095837" lon="14.5060939">
<ele>1440.74</ele>
<time>2026-08-01T06:55:17.558Z</time>
</trkpt>
<trkpt lat="46.5097444" lon="14.5062188">
<ele>1436.54</ele>
<time>2026-08-01T06:55:31.202Z</time>
</trkpt>
<trkpt lat="46.5099174" lon="14.5063046">
<ele>1431.19</ele>
<time>2026-08-01T06:55:48.161Z</time>
</trkpt>
<trkpt lat="46.5100976" lon="14.5063807">
<ele>1426.09</ele>
<time>2026-08-01T06:56:03.184Z</time>
</trkpt>
<trkpt lat="46.5102560" lon="14.5065279">
<ele>1424.43</ele>
<time>2026-08-01T06:56:14.001Z</time>
</trkpt>
<trkpt lat="46.5104394" lon="14.5065674">
<ele>1418.73</ele>
<time>2026-08-01T06:56:28.238Z</time>
</trkpt>
<trkpt lat="46.5106076" lon="14.5066632">
<ele>1415.29</ele>
<time>2026-08-01T06:56:48.262Z</time>
</trkpt>
<trkpt lat="46.5107864" lon="14.5066141">
<ele>1407.17</ele>
<time>2026-08-01T06:57:08.698Z</time>
</trkpt>
<trkpt lat="46.5109260" lon="14.5064409">
<ele>1399.87</ele>
<time>2026-08-01T06:57:21.642Z</time>
</trkpt>
<trkpt lat="46.5109893" lon="14.5061898">
<ele>1391.65</ele>
<time>2026-08-01T06:57:48.961Z</time>
</trkpt>
<trkpt lat="46.5109833" lon="14.5059281">
<ele>1383.39</ele>
<time>2026-08-01T06:58:03.380Z</time>
</trkpt>
<trkpt lat="46.5111451" lon="14.5058104">
<ele>1378.07</ele>
<time>2026-08-01T06:58:17.778Z</time>
</trkpt>
<trkpt lat="46.5112451" lon="14.5055917">
<ele>1371.47</ele>
<time>2026-08-01T06:58:46.189Z</time>
</trkpt>
<trkpt lat="46.5112813" lon="14.5053352">
<ele>1364.52</ele>
<time>2026-08-01T06:59:11.022Z</time>
</trkpt>
<trkpt lat="46.5114641" lon="14.5052852">
<ele>1360.70</ele>
<time>2026-08-01T06:59:36.640Z</time>
</trkpt>
<trkpt lat="46.5116618" lon="14.5053042">
<ele>1358.46</ele>
<time>2026-08-01T06:59:48.759Z</time>
</trkpt>
<trkpt lat="46.5118362" lon="14.5052182">
<ele>1359.94</ele>
<time>2026-08-01T06:59:59.501Z</time>
</trkpt>
<trkpt lat="46.5119990" lon="14.5050835">
<ele>1359.92</ele>
<time>2026-08-01T07:00:09.221Z</time>
</trkpt>
<trkpt lat="46.5121515" lon="14.5049351">
<ele>1359.87</ele>
<time>2026-08-01T07:00:22.402Z</time>
</trkpt>
<trkpt lat="46.5122321" lon="14.5046956">
<ele>1357.01</ele>
<time>2026-08-01T07:00:36.680Z</time>
</trkpt>
<trkpt lat="46.5122240" lon="14.5044333">
<ele>1351.81</ele>
<time>2026-08-01T07:00:47.235Z</time>
</trkpt>
<trkpt lat="46.5122972" lon="14.5041887">
<ele>1348.01</ele>
<time>2026-08-01T07:01:03.234Z</time>
</trkpt>
<trkpt lat="46.5124139" lon="14.5039616">
<ele>1346.29</ele>
<time>2026-08-01T07:01:11.183Z</time>
</trkpt>
<trkpt lat="46.5124779" lon="14.5037131">
<ele>1343.36</ele>
<time>2026-08-01T07:01:20.251Z</time>
</trkpt>
<trkpt lat="46.5127175" lon="14.5035236">
<ele>1345.66</ele>
<time>2026-08-01T07:01:28.561Z</time>
</trkpt>
<trkpt lat="46.5130102" lon="14.5028303">
<ele>1343.19</ele>
<time>2026-08-01T07:02:12.461Z</time>
</trkpt>
<trkpt lat="46.5129049" lon="14.5026141">
<ele>1342.28</ele>
<time>2026-08-01T07:02:25.702Z</time>
</trkpt>
<trkpt lat="46.5127476" lon="14.5024797">
<ele>1342.72</ele>
<time>2026-08-01T07:02:35.019Z</time>
</trkpt>
<trkpt lat="46.5126006" lon="14.5023196">
<ele>1343.88</ele>
<time>2026-08-01T07:02:48.739Z</time>
</trkpt>
<trkpt lat="46.5124415" lon="14.5021852">
<ele>1342.82</ele>
<time>2026-08-01T07:02:59.259Z</time>
</trkpt>
<trkpt lat="46.5123567" lon="14.5019443">
<ele>1342.60</ele>
<time>2026-08-01T07:03:12.722Z</time>
</trkpt>
<trkpt lat="46.5123416" lon="14.5016794">
<ele>1342.62</ele>
<time>2026-08-01T07:03:25.798Z</time>
</trkpt>
<trkpt lat="46.5123030" lon="14.5014228">
<ele>1334.91</ele>
<time>2026-08-01T07:03:37.898Z</time>
</trkpt>
<trkpt lat="46.5123942" lon="14.5011856">
<ele>1326.39</ele>
<time>2026-08-01T07:03:48.699Z</time>
</trkpt>
<trkpt lat="46.5123588" lon="14.5009249">
<ele>1318.23</ele>
<time>2026-08-01T07:04:05.121Z</time>
</trkpt>
<trkpt lat="46.5124079" lon="14.5006706">
<ele>1306.70</ele>
<time>2026-08-01T07:04:27.081Z</time>
</trkpt>
<trkpt lat="46.5124005" lon="14.5004078">
<ele>1294.93</ele>
<time>2026-08-01T07:04:48.780Z</time>
</trkpt>
<trkpt lat="46.5124378" lon="14.5001414">
<ele>1281.93</ele>
<time>2026-08-01T07:05:17.261Z</time>
</trkpt>
<trkpt lat="46.5125473" lon="14.4999340">
<ele>1272.97</ele>
<time>2026-08-01T07:05:49.842Z</time>
</trkpt>
<trkpt lat="46.5126427" lon="14.4997086">
<ele>1268.12</ele>
<time>2026-08-01T07:06:09.418Z</time>
</trkpt>
<trkpt lat="46.5126926" lon="14.4994538">
<ele>1261.57</ele>
<time>2026-08-01T07:06:33.360Z</time>
</trkpt>
<trkpt lat="46.5128137" lon="14.4990582">
<ele>1253.46</ele>
<time>2026-08-01T07:07:01.263Z</time>
</trkpt>
<trkpt lat="46.5129879" lon="14.4989916">
<ele>1251.42</ele>
<time>2026-08-01T07:07:15.003Z</time>
</trkpt>
<trkpt lat="46.5131501" lon="14.4988692">
<ele>1250.88</ele>
<time>2026-08-01T07:07:28.360Z</time>
</trkpt>
<trkpt lat="46.5133263" lon="14.4988145">
<ele>1249.29</ele>
<time>2026-08-01T07:07:39.196Z</time>
</trkpt>
<trkpt lat="46.5134677" lon="14.4986507">
<ele>1248.46</ele>
<time>2026-08-01T07:07:48.202Z</time>
</trkpt>
<trkpt lat="46.5136167" lon="14.4984919">
<ele>1247.91</ele>
<time>2026-08-01T07:07:57.207Z</time>
</trkpt>
<trkpt lat="46.5138017" lon="14.4985086">
<ele>1242.32</ele>
<time>2026-08-01T07:08:06.319Z</time>
</trkpt>
<trkpt lat="46.5139783" lon="14.4985610">
<ele>1235.78</ele>
<time>2026-08-01T07:08:22.262Z</time>
</trkpt>
<trkpt lat="46.5141629" lon="14.4985362">
<ele>1231.29</ele>
<time>2026-08-01T07:08:45.621Z</time>
</trkpt>
<trkpt lat="46.5143431" lon="14.4985986">
<ele>1224.46</ele>
<time>2026-08-01T07:09:06.218Z</time>
</trkpt>
<trkpt lat="46.5145194" lon="14.4986526">
<ele>1217.77</ele>
<time>2026-08-01T07:09:33.798Z</time>
</trkpt>
<trkpt lat="46.5146847" lon="14.4987650">
<ele>1208.79</ele>
<time>2026-08-01T07:09:56.841Z</time>
</trkpt>
<trkpt lat="46.5148694" lon="14.4987836">
<ele>1202.75</ele>
<time>2026-08-01T07:10:21.195Z</time>
</trkpt>
<trkpt lat="46.5150386" lon="14.4988810">
<ele>1194.46</ele>
<time>2026-08-01T07:10:53.761Z</time>
</trkpt>
<trkpt lat="46.5151881" lon="14.4990351">
<ele>1186.24</ele>
<time>2026-08-01T07:11:26.800Z</time>
</trkpt>
<trkpt lat="46.5153049" lon="14.4992436">
<ele>1176.37</ele>
<time>2026-08-01T07:11:44.207Z</time>
</trkpt>
<trkpt lat="46.5154318" lon="14.4994491">
<ele>1166.76</ele>
<time>2026-08-01T07:11:58.193Z</time>
</trkpt>
<trkpt lat="46.5155593" lon="14.4996427">
<ele>1154.72</ele>
<time>2026-08-01T07:12:15.198Z</time>
</trkpt>
<trkpt lat="46.5156974" lon="14.4998129">
<ele>1140.63</ele>
<time>2026-08-01T07:12:31.740Z</time>
</trkpt>
<trkpt lat="46.5157864" lon="14.5000429">
<ele>1125.44</ele>
<time>2026-08-01T07:12:53.459Z</time>
</trkpt>
<trkpt lat="46.5159223" lon="14.5002201">
<ele>1119.85</ele>
<time>2026-08-01T07:13:09.760Z</time>
</trkpt>
<trkpt lat="46.5159669" lon="14.5004781">
<ele>1115.77</ele>
<time>2026-08-01T07:13:29.859Z</time>
</trkpt>
<trkpt lat="46.5160213" lon="14.5007276">
<ele>1110.47</ele>
<time>2026-08-01T07:13:42.637Z</time>
</trkpt>
<trkpt lat="46.5161536" lon="14.5009114">
<ele>1103.66</ele>
<time>2026-08-01T07:13:58.500Z</time>
</trkpt>
<trkpt lat="46.5162845" lon="14.5011103">
<ele>1098.23</ele>
<time>2026-08-01T07:14:13.141Z</time>
</trkpt>
<trkpt lat="46.5163668" lon="14.5013461">
<ele>1094.08</ele>
<time>2026-08-01T07:14:24.677Z</time>
</trkpt>
<trkpt lat="46.5164114" lon="14.5010876">
<ele>1091.76</ele>
<time>2026-08-01T07:15:00.760Z</time>
</trkpt>
<trkpt lat="46.5163272" lon="14.5008480">
<ele>1095.69</ele>
<time>2026-08-01T07:15:12.618Z</time>
</trkpt>
<trkpt lat="46.5165065" lon="14.5007789">
<ele>1089.84</ele>
<time>2026-08-01T07:15:42.799Z</time>
</trkpt>
<trkpt lat="46.5166733" lon="14.5008965">
<ele>1080.51</ele>
<time>2026-08-01T07:16:01.902Z</time>
</trkpt>
<trkpt lat="46.5168509" lon="14.5008502">
<ele>1082.47</ele>
<time>2026-08-01T07:16:33.642Z</time>
</trkpt>
<trkpt lat="46.5169550" lon="14.5010667">
<ele>1078.42</ele>
<time>2026-08-01T07:16:52.121Z</time>
</trkpt>
<trkpt lat="46.5170323" lon="14.5013032">
<ele>1071.90</ele>
<time>2026-08-01T07:17:26.699Z</time>
</trkpt>
<trkpt lat="46.5171126" lon="14.5015470">
<ele>1063.25</ele>
<time>2026-08-01T07:17:38.939Z</time>
</trkpt>
<trkpt lat="46.5171810" lon="14.5017944">
<ele>1056.83</ele>
<time>2026-08-01T07:17:52.176Z</time>
</trkpt>
<trkpt lat="46.5173485" lon="14.5016739">
<ele>1051.83</ele>
<time>2026-08-01T07:18:17.230Z</time>
</trkpt>
<trkpt lat="46.5175266" lon="14.5017360">
<ele>1045.73</ele>
<time>2026-08-01T07:18:50.078Z</time>
</trkpt>
<trkpt lat="46.5176343" lon="14.5019633">
<ele>1040.19</ele>
<time>2026-08-01T07:19:33.198Z</time>
</trkpt>
<trkpt lat="46.5178128" lon="14.5020216">
<ele>1036.03</ele>
<time>2026-08-01T07:19:57.398Z</time>
</trkpt>
<trkpt lat="46.5179882" lon="14.5019431">
<ele>1036.13</ele>
<time>2026-08-01T07:20:20.938Z</time>
</trkpt>
<trkpt lat="46.5181424" lon="14.5018055">
<ele>1040.17</ele>
<time>2026-08-01T07:20:51.919Z</time>
</trkpt>
<trkpt lat="46.5182908" lon="14.5019666">
<ele>1031.11</ele>
<time>2026-08-01T07:21:05.165Z</time>
</trkpt>
<trkpt lat="46.5184309" lon="14.5021524">
<ele>1019.67</ele>
<time>2026-08-01T07:21:19.252Z</time>
</trkpt>
<trkpt lat="46.5186020" lon="14.5022385">
<ele>1012.67</ele>
<time>2026-08-01T07:21:34.119Z</time>
</trkpt>
<trkpt lat="46.5187633" lon="14.5023754">
<ele>1002.46</ele>
<time>2026-08-01T07:21:48.442Z</time>
</trkpt>
<trkpt lat="46.5189264" lon="14.5024913">
<ele>992.85</ele>
<time>2026-08-01T07:22:00.859Z</time>
</trkpt>
<trkpt lat="46.5191057" lon="14.5025326">
<ele>988.89</ele>
<time>2026-08-01T07:22:14.281Z</time>
</trkpt>
<trkpt lat="46.5190573" lon="14.5022776">
<ele>1003.76</ele>
<time>2026-08-01T07:22:32.559Z</time>
</trkpt>
<trkpt lat="46.5191653" lon="14.5020569">
<ele>1016.20</ele>
<time>2026-08-01T07:23:00.719Z</time>
</trkpt>
<trkpt lat="46.5193287" lon="14.5021759">
<ele>1009.39</ele>
<time>2026-08-01T07:23:20.842Z</time>
</trkpt>
<trkpt lat="46.5195099" lon="14.5022076">
<ele>1008.24</ele>
<time>2026-08-01T07:23:33.701Z</time>
</trkpt>
<trkpt lat="46.5196834" lon="14.5022942">
<ele>1003.57</ele>
<time>2026-08-01T07:23:51.938Z</time>
</trkpt>
<trkpt lat="46.5198679" lon="14.5023617">
<ele>1000.16</ele>
<time>2026-08-01T07:24:06.720Z</time>
</trkpt>
<trkpt lat="46.5200269" lon="14.5024906">
<ele>992.73</ele>
<time>2026-08-01T07:24:20.459Z</time>
</trkpt>
<trkpt lat="46.5201862" lon="14.5026146">
<ele>987.80</ele>
<time>2026-08-01T07:24:36.880Z</time>
</trkpt>
<trkpt lat="46.5203320" lon="14.5027841">
<ele>980.44</ele>
<time>2026-08-01T07:24:50.021Z</time>
</trkpt>
<trkpt lat="46.5204902" lon="14.5029243">
<ele>973.84</ele>
<time>2026-08-01T07:25:03.062Z</time>
</trkpt>
<trkpt lat="46.5206423" lon="14.5030661">
<ele>966.59</ele>
<time>2026-08-01T07:25:15.619Z</time>
</trkpt>
<trkpt lat="46.5207669" lon="14.5032551">
<ele>956.46</ele>
<time>2026-08-01T07:25:30.682Z</time>
</trkpt>
<trkpt lat="46.5209436" lon="14.5033289">
<ele>949.20</ele>
<time>2026-08-01T07:25:45.720Z</time>
</trkpt>
<trkpt lat="46.5211156" lon="14.5034293">
<ele>943.03</ele>
<time>2026-08-01T07:25:59.882Z</time>
</trkpt>
<trkpt lat="46.5212963" lon="14.5034149">
<ele>938.45</ele>
<time>2026-08-01T07:26:22.220Z</time>
</trkpt>
<trkpt lat="46.5214510" lon="14.5032449">
<ele>940.17</ele>
<time>2026-08-01T07:26:32.598Z</time>
</trkpt>
<trkpt lat="46.5215919" lon="14.5030720">
<ele>946.86</ele>
<time>2026-08-01T07:26:46.167Z</time>
</trkpt>
<trkpt lat="46.5217691" lon="14.5031524">
<ele>939.00</ele>
<time>2026-08-01T07:26:57.940Z</time>
</trkpt>
<trkpt lat="46.5219518" lon="14.5031840">
<ele>935.09</ele>
<time>2026-08-01T07:27:27.839Z</time>
</trkpt>
<trkpt lat="46.5221351" lon="14.5031580">
<ele>934.82</ele>
<time>2026-08-01T07:27:39.919Z</time>
</trkpt>
<trkpt lat="46.5223108" lon="14.5030918">
<ele>937.40</ele>
<time>2026-08-01T07:27:53.099Z</time>
</trkpt>
<trkpt lat="46.5224834" lon="14.5029895">
<ele>942.67</ele>
<time>2026-08-01T07:28:06.482Z</time>
</trkpt>
<trkpt lat="46.5226651" lon="14.5030105">
<ele>938.38</ele>
<time>2026-08-01T07:28:21.253Z</time>
</trkpt>
<trkpt lat="46.5228463" lon="14.5030236">
<ele>934.59</ele>
<time>2026-08-01T07:28:34.182Z</time>
</trkpt>
<trkpt lat="46.5230310" lon="14.5030731">
<ele>928.68</ele>
<time>2026-08-01T07:28:49.939Z</time>
</trkpt>
<trkpt lat="46.5231932" lon="14.5031897">
<ele>919.62</ele>
<time>2026-08-01T07:29:06.939Z</time>
</trkpt>
<trkpt lat="46.5233144" lon="14.5033863">
<ele>908.52</ele>
<time>2026-08-01T07:29:27.260Z</time>
</trkpt>
<trkpt lat="46.5233950" lon="14.5036345">
<ele>899.60</ele>
<time>2026-08-01T07:29:42.700Z</time>
</trkpt>
<trkpt lat="46.5235042" lon="14.5038431">
<ele>891.59</ele>
<time>2026-08-01T07:29:54.226Z</time>
</trkpt>
<trkpt lat="46.5236711" lon="14.5039496">
<ele>886.19</ele>
<time>2026-08-01T07:30:13.117Z</time>
</trkpt>
<trkpt lat="46.5238539" lon="14.5038853">
<ele>886.29</ele>
<time>2026-08-01T07:30:34.142Z</time>
</trkpt>
<trkpt lat="46.5239603" lon="14.5036710">
<ele>892.43</ele>
<time>2026-08-01T07:30:53.562Z</time>
</trkpt>
<trkpt lat="46.5241437" lon="14.5037098">
<ele>889.14</ele>
<time>2026-08-01T07:31:10.702Z</time>
</trkpt>
<trkpt lat="46.5243238" lon="14.5037867">
<ele>883.75</ele>
<time>2026-08-01T07:31:30.258Z</time>
</trkpt>
<trkpt lat="46.5244813" lon="14.5039168">
<ele>876.64</ele>
<time>2026-08-01T07:31:47.720Z</time>
</trkpt>
<trkpt lat="46.5246533" lon="14.5039939">
<ele>871.08</ele>
<time>2026-08-01T07:31:57.838Z</time>
</trkpt>
<trkpt lat="46.5248300" lon="14.5040435">
<ele>866.38</ele>
<time>2026-08-01T07:32:06.602Z</time>
</trkpt>
<trkpt lat="46.5250181" lon="14.5040180">
<ele>864.64</ele>
<time>2026-08-01T07:32:22.641Z</time>
</trkpt>
<trkpt lat="46.5252033" lon="14.5040000">
<ele>866.52</ele>
<time>2026-08-01T07:32:32.899Z</time>
</trkpt>
<trkpt lat="46.5253848" lon="14.5040017">
<ele>867.61</ele>
<time>2026-08-01T07:32:42.438Z</time>
</trkpt>
<trkpt lat="46.5255745" lon="14.5039246">
<ele>873.10</ele>
<time>2026-08-01T07:32:53.818Z</time>
</trkpt>
<trkpt lat="46.5257349" lon="14.5038006">
<ele>882.02</ele>
<time>2026-08-01T07:33:03.618Z</time>
</trkpt>
<trkpt lat="46.5259215" lon="14.5037924">
<ele>884.05</ele>
<time>2026-08-01T07:33:15.461Z</time>
</trkpt>
<trkpt lat="46.5261031" lon="14.5038222">
<ele>882.63</ele>
<time>2026-08-01T07:33:24.799Z</time>
</trkpt>
<trkpt lat="46.5262834" lon="14.5038517">
<ele>881.18</ele>
<time>2026-08-01T07:33:36.098Z</time>
</trkpt>
<trkpt lat="46.5264705" lon="14.5038572">
<ele>881.30</ele>
<time>2026-08-01T07:33:49.199Z</time>
</trkpt>
<trkpt lat="46.5266532" lon="14.5038720">
<ele>880.77</ele>
<time>2026-08-01T07:33:59.639Z</time>
</trkpt>
<trkpt lat="46.5268211" lon="14.5039853">
<ele>871.79</ele>
<time>2026-08-01T07:34:11.421Z</time>
</trkpt>
<trkpt lat="46.5270030" lon="14.5040156">
<ele>868.22</ele>
<time>2026-08-01T07:34:22.661Z</time>
</trkpt>
<trkpt lat="46.5271565" lon="14.5041739">
<ele>857.07</ele>
<time>2026-08-01T07:34:34.559Z</time>
</trkpt>
<trkpt lat="46.5273322" lon="14.5042585">
<ele>851.14</ele>
<time>2026-08-01T07:34:47.378Z</time>
</trkpt>
<trkpt lat="46.5275146" lon="14.5043015">
<ele>847.36</ele>
<time>2026-08-01T07:34:59.498Z</time>
</trkpt>
<trkpt lat="46.5276938" lon="14.5043322">
<ele>843.30</ele>
<time>2026-08-01T07:35:10.018Z</time>
</trkpt>
<trkpt lat="46.5278743" lon="14.5043089">
<ele>842.21</ele>
<time>2026-08-01T07:35:19.979Z</time>
</trkpt>
<trkpt lat="46.5280559" lon="14.5042516">
<ele>842.97</ele>
<time>2026-08-01T07:35:32.320Z</time>
</trkpt>
<trkpt lat="46.5282387" lon="14.5042612">
<ele>840.03</ele>
<time>2026-08-01T07:35:42.921Z</time>
</trkpt>
<trkpt lat="46.5284254" lon="14.5043164">
<ele>835.46</ele>
<time>2026-08-01T07:35:52.661Z</time>
</trkpt>
<trkpt lat="46.5286073" lon="14.5043745">
<ele>831.79</ele>
<time>2026-08-01T07:36:00.962Z</time>
</trkpt>
<trkpt lat="46.5287944" lon="14.5043875">
<ele>830.59</ele>
<time>2026-08-01T07:36:12.161Z</time>
</trkpt>
<trkpt lat="46.5289814" lon="14.5043829">
<ele>830.34</ele>
<time>2026-08-01T07:36:22.882Z</time>
</trkpt>
<trkpt lat="46.5291660" lon="14.5044383">
<ele>826.99</ele>
<time>2026-08-01T07:36:34.438Z</time>
</trkpt>
<trkpt lat="46.5293378" lon="14.5045423">
<ele>824.47</ele>
<time>2026-08-01T07:36:45.702Z</time>
</trkpt>
<trkpt lat="46.5294854" lon="14.5046990">
<ele>818.99</ele>
<time>2026-08-01T07:36:57.958Z</time>
</trkpt>
<trkpt lat="46.5296570" lon="14.5048005">
<ele>816.84</ele>
<time>2026-08-01T07:37:09.821Z</time>
</trkpt>
<trkpt lat="46.5298426" lon="14.5048367">
<ele>818.28</ele>
<time>2026-08-01T07:37:20.662Z</time>
</trkpt>
<trkpt lat="46.5300195" lon="14.5048864">
<ele>818.86</ele>
<time>2026-08-01T07:37:31.942Z</time>
</trkpt>
<trkpt lat="46.5302069" lon="14.5049229">
<ele>819.64</ele>
<time>2026-08-01T07:37:42.658Z</time>
</trkpt>
<trkpt lat="46.5303858" lon="14.5049601">
<ele>820.17</ele>
<time>2026-08-01T07:37:53.178Z</time>
</trkpt>
<trkpt lat="46.5305664" lon="14.5049914">
<ele>820.93</ele>
<time>2026-08-01T07:38:04.462Z</time>
</trkpt>
<trkpt lat="46.5307471" lon="14.5050584">
<ele>820.14</ele>
<time>2026-08-01T07:38:15.339Z</time>
</trkpt>
<trkpt lat="46.5309336" lon="14.5051117">
<ele>818.37</ele>
<time>2026-08-01T07:38:26.201Z</time>
</trkpt>
<trkpt lat="46.5311159" lon="14.5051611">
<ele>815.43</ele>
<time>2026-08-01T07:38:38.255Z</time>
</trkpt>
<trkpt lat="46.5312933" lon="14.5052143">
<ele>812.47</ele>
<time>2026-08-01T07:38:48.981Z</time>
</trkpt>
<trkpt lat="46.5314710" lon="14.5052704">
<ele>809.53</ele>
<time>2026-08-01T07:39:02.041Z</time>
</trkpt>
<trkpt lat="46.5316555" lon="14.5052596">
<ele>809.44</ele>
<time>2026-08-01T07:39:14.000Z</time>
</trkpt>
<trkpt lat="46.5318389" lon="14.5052999">
<ele>808.96</ele>
<time>2026-08-01T07:39:23.231Z</time>
</trkpt>
<trkpt lat="46.5320171" lon="14.5053404">
<ele>808.65</ele>
<time>2026-08-01T07:39:32.921Z</time>
</trkpt>
<trkpt lat="46.5322007" lon="14.5053964">
<ele>807.91</ele>
<time>2026-08-01T07:39:43.602Z</time>
</trkpt>
<trkpt lat="46.5323731" lon="14.5054886">
<ele>805.94</ele>
<time>2026-08-01T07:39:54.438Z</time>
</trkpt>
<trkpt lat="46.5324402" lon="14.5057383">
<ele>797.70</ele>
<time>2026-08-01T07:40:08.701Z</time>
</trkpt>
<trkpt lat="46.5323098" lon="14.5059200">
<ele>790.47</ele>
<time>2026-08-01T07:40:42.841Z</time>
</trkpt>
<trkpt lat="46.5324126" lon="14.5061530">
<ele>785.29</ele>
<time>2026-08-01T07:40:51.982Z</time>
</trkpt>
<trkpt lat="46.5325235" lon="14.5063745">
<ele>781.04</ele>
<time>2026-08-01T07:41:03.759Z</time>
</trkpt>
<trkpt lat="46.5326998" lon="14.5064566">
<ele>781.25</ele>
<time>2026-08-01T07:41:16.961Z</time>
</trkpt>
<trkpt lat="46.5328540" lon="14.5065995">
<ele>779.19</ele>
<time>2026-08-01T07:41:29.739Z</time>
</trkpt>
<trkpt lat="46.5330218" lon="14.5067072">
<ele>777.61</ele>
<time>2026-08-01T07:41:44.062Z</time>
</trkpt>
<trkpt lat="46.5331840" lon="14.5068230">
<ele>775.04</ele>
<time>2026-08-01T07:42:03.321Z</time>
</trkpt>
<trkpt lat="46.5333616" lon="14.5068933">
<ele>773.96</ele>
<time>2026-08-01T07:42:15.878Z</time>
</trkpt>
<trkpt lat="46.5335387" lon="14.5069666">
<ele>769.02</ele>
<time>2026-08-01T07:42:29.401Z</time>
</trkpt>
<trkpt lat="46.5337057" lon="14.5070817">
<ele>762.59</ele>
<time>2026-08-01T07:42:42.582Z</time>
</trkpt>
<trkpt lat="46.5338685" lon="14.5072081">
<ele>755.79</ele>
<time>2026-08-01T07:42:56.518Z</time>
</trkpt>
<trkpt lat="46.5340596" lon="14.5072135">
<ele>753.29</ele>
<time>2026-08-01T07:43:07.560Z</time>
</trkpt>
<trkpt lat="46.5342421" lon="14.5071580">
<ele>751.15</ele>
<time>2026-08-01T07:43:19.081Z</time>
</trkpt>
<trkpt lat="46.5344060" lon="14.5070437">
<ele>749.04</ele>
<time>2026-08-01T07:43:32.398Z</time>
</trkpt>
<trkpt lat="46.5345844" lon="14.5069488">
<ele>745.62</ele>
<time>2026-08-01T07:43:47.255Z</time>
</trkpt>
<trkpt lat="46.5347408" lon="14.5070911">
<ele>733.97</ele>
<time>2026-08-01T07:44:06.221Z</time>
</trkpt>
<trkpt lat="46.5346860" lon="14.5073823">
<ele>724.95</ele>
<time>2026-08-01T07:44:22.899Z</time>
</trkpt>
<trkpt lat="46.5345424" lon="14.5075432">
<ele>724.09</ele>
<time>2026-08-01T07:44:33.500Z</time>
</trkpt>
<trkpt lat="46.5345419" lon="14.5078102">
<ele>711.57</ele>
<time>2026-08-01T07:45:09.780Z</time>
</trkpt>
<trkpt lat="46.5347271" lon="14.5078464">
<ele>701.89</ele>
<time>2026-08-01T07:45:35.022Z</time>
</trkpt>
<trkpt lat="46.5349147" lon="14.5077927">
<ele>696.53</ele>
<time>2026-08-01T07:45:50.242Z</time>
</trkpt>
<trkpt lat="46.5351038" lon="14.5079069">
<ele>681.14</ele>
<time>2026-08-01T07:47:06.155Z</time>
</trkpt>
<trkpt lat="46.5350083" lon="14.5081355">
<ele>674.75</ele>
<time>2026-08-01T07:47:24.210Z</time>
</trkpt>
<trkpt lat="46.5349071" lon="14.5083581">
<ele>668.15</ele>
<time>2026-08-01T07:47:37.864Z</time>
</trkpt>
<trkpt lat="46.5348119" lon="14.5085861">
<ele>660.86</ele>
<time>2026-08-01T07:47:55.161Z</time>
</trkpt>
<trkpt lat="46.5346397" lon="14.5086759">
<ele>665.04</ele>
<time>2026-08-01T07:48:14.042Z</time>
</trkpt>
<trkpt lat="46.5345493" lon="14.5088196">
<ele>662.59</ele>
<time>2026-08-01T07:48:29.216Z</time>
</trkpt>
<trkpt lat="46.5349231" lon="14.5086331">
<ele>652.74</ele>
<time>2026-08-01T07:49:04.155Z</time>
</trkpt>
<trkpt lat="46.5350769" lon="14.5084762">
<ele>653.18</ele>
<time>2026-08-01T07:49:29.155Z</time>
</trkpt>
<trkpt lat="46.5349849" lon="14.5087060">
<ele>645.66</ele>
<time>2026-08-01T07:50:04.811Z</time>
</trkpt>
<trkpt lat="46.5348348" lon="14.5088511">
<ele>645.83</ele>
<time>2026-08-01T07:50:17.155Z</time>
</trkpt>
<trkpt lat="46.5346575" lon="14.5088625">
<ele>654.69</ele>
<time>2026-08-01T07:50:38.155Z</time>
</trkpt>
<trkpt lat="46.5352275" lon="14.5086642">
<ele>635.17</ele>
<time>2026-08-01T07:52:29.593Z</time>
</trkpt>
<trkpt lat="46.5353267" lon="14.5084446">
<ele>641.51</ele>
<time>2026-08-01T07:52:44.474Z</time>
</trkpt>
<trkpt lat="46.5355205" lon="14.5084336">
<ele>631.70</ele>
<time>2026-08-01T07:53:32.133Z</time>
</trkpt>
<trkpt lat="46.5356831" lon="14.5083045">
<ele>629.49</ele>
<time>2026-08-01T07:53:39.997Z</time>
</trkpt>
<trkpt lat="46.5358769" lon="14.5082756">
<ele>621.29</ele>
<time>2026-08-01T07:53:49.933Z</time>
</trkpt>
<trkpt lat="46.5360546" lon="14.5082148">
<ele>618.08</ele>
<time>2026-08-01T07:54:00.317Z</time>
</trkpt>
<trkpt lat="46.5362218" lon="14.5081137">
<ele>616.32</ele>
<time>2026-08-01T07:54:11.954Z</time>
</trkpt>
<trkpt lat="46.5364091" lon="14.5080888">
<ele>610.44</ele>
<time>2026-08-01T07:54:22.257Z</time>
</trkpt>
<trkpt lat="46.5365189" lon="14.5083092">
<ele>599.38</ele>
<time>2026-08-01T07:54:52.136Z</time>
</trkpt>
<trkpt lat="46.5367035" lon="14.5083438">
<ele>593.01</ele>
<time>2026-08-01T07:55:04.376Z</time>
</trkpt>
<trkpt lat="46.5368868" lon="14.5082996">
<ele>590.64</ele>
<time>2026-08-01T07:55:17.014Z</time>
</trkpt>
<trkpt lat="46.5370751" lon="14.5083213">
<ele>586.43</ele>
<time>2026-08-01T07:55:29.315Z</time>
</trkpt>
<trkpt lat="46.5372616" lon="14.5083602">
<ele>582.00</ele>
<time>2026-08-01T07:55:39.472Z</time>
</trkpt>
<trkpt lat="46.5374419" lon="14.5084376">
<ele>577.05</ele>
<time>2026-08-01T07:55:49.937Z</time>
</trkpt>
<trkpt lat="46.5376196" lon="14.5084877">
<ele>570.07</ele>
<time>2026-08-01T07:56:00.376Z</time>
</trkpt>
<trkpt lat="46.5377988" lon="14.5084562">
<ele>563.20</ele>
<time>2026-08-01T07:56:09.874Z</time>
</trkpt>
<trkpt lat="46.5379578" lon="14.5083109">
<ele>559.18</ele>
<time>2026-08-01T07:56:21.556Z</time>
</trkpt>
<trkpt lat="46.5381127" lon="14.5081338">
<ele>555.97</ele>
<time>2026-08-01T07:56:33.017Z</time>
</trkpt>
<trkpt lat="46.5380766" lon="14.5083990">
<ele>552.63</ele>
<time>2026-08-01T07:56:50.394Z</time>
</trkpt>
<trkpt lat="46.5379858" lon="14.5086320">
<ele>552.28</ele>
<time>2026-08-01T07:57:02.836Z</time>
</trkpt>
<trkpt lat="46.5378076" lon="14.5087064">
<ele>558.25</ele>
<time>2026-08-01T07:57:19.136Z</time>
</trkpt>
<trkpt lat="46.5376787" lon="14.5088904">
<ele>560.09</ele>
<time>2026-08-01T07:57:28.332Z</time>
</trkpt>
<trkpt lat="46.5378261" lon="14.5090447">
<ele>551.31</ele>
<time>2026-08-01T07:57:43.194Z</time>
</trkpt>
<trkpt lat="46.5380107" lon="14.5089815">
<ele>545.06</ele>
<time>2026-08-01T07:57:57.316Z</time>
</trkpt>
<trkpt lat="46.5381952" lon="14.5089322">
<ele>538.50</ele>
<time>2026-08-01T07:58:07.076Z</time>
</trkpt>
<trkpt lat="46.5383718" lon="14.5088808">
<ele>533.11</ele>
<time>2026-08-01T07:58:17.213Z</time>
</trkpt>
<trkpt lat="46.5385015" lon="14.5086974">
<ele>533.44</ele>
<time>2026-08-01T07:58:28.935Z</time>
</trkpt>
<trkpt lat="46.5386386" lon="14.5085060">
<ele>533.09</ele>
<time>2026-08-01T07:58:39.872Z</time>
</trkpt>
<trkpt lat="46.5387626" lon="14.5087046">
<ele>528.01</ele>
<time>2026-08-01T07:58:59.674Z</time>
</trkpt>
<trkpt lat="46.5389637" lon="14.5087311">
<ele>523.68</ele>
<time>2026-08-01T07:59:10.892Z</time>
</trkpt>
</trkseg>
</trk>
</gpx>
