<?xml version="1.0" encoding="UTF-8" standalone="no" ?>
<gpx xmlns="http://www.topografix.com/GPX/1/1" creator="OruxMaps v.10.5.0 GP" version="1.1" xmlns:gpxtpx="http://www.garmin.com/xmlschemas/TrackPointExtension/v2" xmlns:xsi="http://www.w3.org/2001/XMLSchema-instance" xmlns:om="http://www.oruxmaps.com/oruxmapsextensions/1/0" xsi:schemaLocation="http://www.topografix.com/GPX/1/1 http://www.topografix.com/GPX/1/1/gpx.xsd">
<!-- owner: ba6e6e5031d655 -->
<metadata>
<name><![CDATA[2026-07-27 17:30:49 Kamnek]]></name>
<link href="https://www.oruxmaps.com">
<text>OruxMaps GP</text>
</link>
<time>2026-07-27T15:30:49.848Z</time><bounds maxlat="46.3748268" maxlon="14.3135207" minlat="46.3555786" minlon="14.2902174"/>
</metadata>
<wpt lat="46.3566575" lon="14.2906624">
<ele>599.10</ele>
<time>2026-07-27T15:30:50.932Z</time>
<name><![CDATA[]]></name>
<sym>Waypoint</sym>
<type>Starting Point</type>
<extensions>
<om:oruxmapsextensions>
<om:ext type="ICON" subtype="0">38</om:ext>
</om:oruxmapsextensions>
</extensions>
</wpt>
<wpt lat="46.3565758" lon="14.2905781">
<ele>593.62</ele>
<time>2026-07-27T16:51:17.130Z</time>
<name><![CDATA[]]></name>
<desc><![CDATA[<p><br /><h3>Name: Segment: 1</h3><br />Type: Trail running<br/>Start time: 17:30 27 Jul 2026<br/>Finish time: 18:50 27 Jul 2026<br/>Distance: 7,2km (01:19)<br/>Moving time: 00:59<br/>Average speed: 5,42 km/h<br/>Avg. Speed Mov: 7,25 km/h<br/>Max. speed: 14,66 km/h<br/>Minimum altitude: 580 m<br/>Maximum altitude: 925 m<br/>Ascent speed: 921,8 m/h<br/>Descent speed: 852,9 m/h<br/>Elevation gain: 423 m<br/>Elevation loss: 432 m<br/>Ascent time: 00:27<br/>Descent time: 00:30<br/></p>]]></desc>
<sym>Waypoint</sym>
<type>Finishing Point</type>
<extensions>
<om:oruxmapsextensions>
<om:ext type="ICON" subtype="0">15</om:ext>
</om:oruxmapsextensions>
</extensions>
</wpt>
<trk>
<name><![CDATA[2026-07-27 17:30:49 Kamnek]]></name>
<desc><![CDATA[<p>Type: Trail running<br/>Start time: 17:30 27 Jul 2026<br/>Finish time: 18:50 27 Jul 2026<br/>Distance: 7,2 km (01:19)<br/>Moving time: 00:59<br/>Average speed: 5,42 km/h<br/>Avg. Speed Mov: 7,25 km/h<br/>Max. speed: 14,66 km/h<br/>Minimum altitude: 580 m<br/>Maximum altitude: 925 m<br/>Ascent speed: 921,8 m/h<br/>Descent speed: 852,9 m/h<br/>Elevation gain: 423 m<br/>Elevation loss: 432 m<br/>Ascent time: 00:27<br/>Descent time: 00:30<br/></p><hr align="center" width="480" style="height: 2px; width: 517px"/>]]></desc>
<type>Trail running</type>
<extensions>
<om:oruxmapsextensions>
<om:ext type="TYPE" subtype="0">12</om:ext>
<om:ext type="DIFFICULTY">0</om:ext>
</om:oruxmapsextensions>
</extensions>
<trkseg>
<trkpt lat="46.3566575" lon="14.2906624">
<ele>599.10</ele>
<time>2026-07-27T15:30:50.903Z</time>
</trkpt>
<trkpt lat="46.3566844" lon="14.2906779">
<ele>598.83</ele>
<time>2026-07-27T15:31:14.188Z</time>
</trkpt>
<trkpt lat="46.3565575" lon="14.2904928">
<ele>591.20</ele>
<time>2026-07-27T15:33:01.226Z</time>
</trkpt>
<trkpt lat="46.3564018" lon="14.2903393">
<ele>591.72</ele>
<time>2026-07-27T15:33:05.714Z</time>
</trkpt>
<trkpt lat="46.3562389" lon="14.2902174">
<ele>590.90</ele>
<time>2026-07-27T15:33:11.515Z</time>
</trkpt>
<trkpt lat="46.3562081" lon="14.2905172">
<ele>589.47</ele>
<time>2026-07-27T15:33:20.013Z</time>
</trkpt>
<trkpt lat="46.3561271" lon="14.2907542">
<ele>589.52</ele>
<time>2026-07-27T15:33:26.212Z</time>
</trkpt>
<trkpt lat="46.3560580" lon="14.2910090">
<ele>589.42</ele>
<time>2026-07-27T15:33:32.753Z</time>
</trkpt>
<trkpt lat="46.3560434" lon="14.2912820">
<ele>592.93</ele>
<time>2026-07-27T15:33:40.497Z</time>
</trkpt>
<trkpt lat="46.3562151" lon="14.2914249">
<ele>591.84</ele>
<time>2026-07-27T15:33:47.556Z</time>
</trkpt>
<trkpt lat="46.3563689" lon="14.2915972">
<ele>589.04</ele>
<time>2026-07-27T15:33:55.053Z</time>
</trkpt>
<trkpt lat="46.3565391" lon="14.2916895">
<ele>586.71</ele>
<time>2026-07-27T15:34:02.208Z</time>
</trkpt>
<trkpt lat="46.3567118" lon="14.2917987">
<ele>585.56</ele>
<time>2026-07-27T15:34:09.574Z</time>
</trkpt>
<trkpt lat="46.3568810" lon="14.2919052">
<ele>587.48</ele>
<time>2026-07-27T15:34:16.673Z</time>
</trkpt>
<trkpt lat="46.3570193" lon="14.2920774">
<ele>586.55</ele>
<time>2026-07-27T15:34:23.752Z</time>
</trkpt>
<trkpt lat="46.3571871" lon="14.2921966">
<ele>585.18</ele>
<time>2026-07-27T15:34:31.188Z</time>
</trkpt>
<trkpt lat="46.3573208" lon="14.2923768">
<ele>589.92</ele>
<time>2026-07-27T15:34:40.245Z</time>
</trkpt>
<trkpt lat="46.3574364" lon="14.2925912">
<ele>593.82</ele>
<time>2026-07-27T15:34:48.577Z</time>
</trkpt>
<trkpt lat="46.3575809" lon="14.2927778">
<ele>596.96</ele>
<time>2026-07-27T15:34:56.894Z</time>
</trkpt>
<trkpt lat="46.3577306" lon="14.2929360">
<ele>596.75</ele>
<time>2026-07-27T15:35:04.194Z</time>
</trkpt>
<trkpt lat="46.3578242" lon="14.2931792">
<ele>592.77</ele>
<time>2026-07-27T15:35:11.052Z</time>
</trkpt>
<trkpt lat="46.3578783" lon="14.2934541">
<ele>588.81</ele>
<time>2026-07-27T15:35:17.188Z</time>
</trkpt>
<trkpt lat="46.3579102" lon="14.2937468">
<ele>589.83</ele>
<time>2026-07-27T15:35:23.892Z</time>
</trkpt>
<trkpt lat="46.3580010" lon="14.2939750">
<ele>591.17</ele>
<time>2026-07-27T15:35:30.836Z</time>
</trkpt>
<trkpt lat="46.3581520" lon="14.2941510">
<ele>590.46</ele>
<time>2026-07-27T15:35:38.207Z</time>
</trkpt>
<trkpt lat="46.3582610" lon="14.2943698">
<ele>592.86</ele>
<time>2026-07-27T15:35:44.893Z</time>
</trkpt>
<trkpt lat="46.3584153" lon="14.2945088">
<ele>593.00</ele>
<time>2026-07-27T15:35:51.535Z</time>
</trkpt>
<trkpt lat="46.3585657" lon="14.2946714">
<ele>595.43</ele>
<time>2026-07-27T15:35:59.636Z</time>
</trkpt>
<trkpt lat="46.3587041" lon="14.2948619">
<ele>594.42</ele>
<time>2026-07-27T15:36:07.188Z</time>
</trkpt>
<trkpt lat="46.3588873" lon="14.2948975">
<ele>594.62</ele>
<time>2026-07-27T15:36:16.873Z</time>
</trkpt>
<trkpt lat="46.3589559" lon="14.2951423">
<ele>601.47</ele>
<time>2026-07-27T15:36:25.200Z</time>
</trkpt>
<trkpt lat="46.3590512" lon="14.2953635">
<ele>603.25</ele>
<time>2026-07-27T15:36:32.244Z</time>
</trkpt>
<trkpt lat="46.3591350" lon="14.2955989">
<ele>604.65</ele>
<time>2026-07-27T15:36:38.574Z</time>
</trkpt>
<trkpt lat="46.3592149" lon="14.2958583">
<ele>608.30</ele>
<time>2026-07-27T15:36:46.956Z</time>
</trkpt>
<trkpt lat="46.3593099" lon="14.2961015">
<ele>612.32</ele>
<time>2026-07-27T15:36:54.936Z</time>
</trkpt>
<trkpt lat="46.3594170" lon="14.2963313">
<ele>614.16</ele>
<time>2026-07-27T15:37:01.894Z</time>
</trkpt>
<trkpt lat="46.3595009" lon="14.2965833">
<ele>616.90</ele>
<time>2026-07-27T15:37:08.833Z</time>
</trkpt>
<trkpt lat="46.3595840" lon="14.2968167">
<ele>615.60</ele>
<time>2026-07-27T15:37:15.213Z</time>
</trkpt>
<trkpt lat="46.3596888" lon="14.2970607">
<ele>616.09</ele>
<time>2026-07-27T15:37:21.995Z</time>
</trkpt>
<trkpt lat="46.3597787" lon="14.2972916">
<ele>613.02</ele>
<time>2026-07-27T15:37:27.796Z</time>
</trkpt>
<trkpt lat="46.3598193" lon="14.2975520">
<ele>610.81</ele>
<time>2026-07-27T15:37:34.232Z</time>
</trkpt>
<trkpt lat="46.3597984" lon="14.2978500">
<ele>608.88</ele>
<time>2026-07-27T15:37:41.175Z</time>
</trkpt>
<trkpt lat="46.3599239" lon="14.2980685">
<ele>607.72</ele>
<time>2026-07-27T15:37:47.756Z</time>
</trkpt>
<trkpt lat="46.3600073" lon="14.2983327">
<ele>613.79</ele>
<time>2026-07-27T15:37:55.072Z</time>
</trkpt>
<trkpt lat="46.3600767" lon="14.2985915">
<ele>621.77</ele>
<time>2026-07-27T15:38:02.655Z</time>
</trkpt>
<trkpt lat="46.3601754" lon="14.2988326">
<ele>624.52</ele>
<time>2026-07-27T15:38:10.655Z</time>
</trkpt>
<trkpt lat="46.3602547" lon="14.2990691">
<ele>620.75</ele>
<time>2026-07-27T15:38:17.201Z</time>
</trkpt>
<trkpt lat="46.3603264" lon="14.2993277">
<ele>615.24</ele>
<time>2026-07-27T15:38:23.234Z</time>
</trkpt>
<trkpt lat="46.3603310" lon="14.2995971">
<ele>605.19</ele>
<time>2026-07-27T15:38:29.734Z</time>
</trkpt>
<trkpt lat="46.3602947" lon="14.2998816">
<ele>594.86</ele>
<time>2026-07-27T15:38:36.955Z</time>
</trkpt>
<trkpt lat="46.3603870" lon="14.3001425">
<ele>589.85</ele>
<time>2026-07-27T15:38:42.776Z</time>
</trkpt>
<trkpt lat="46.3604924" lon="14.3003665">
<ele>591.07</ele>
<time>2026-07-27T15:38:49.734Z</time>
</trkpt>
<trkpt lat="46.3605176" lon="14.3006296">
<ele>592.52</ele>
<time>2026-07-27T15:38:57.188Z</time>
</trkpt>
<trkpt lat="46.3605790" lon="14.3008895">
<ele>595.25</ele>
<time>2026-07-27T15:39:03.576Z</time>
</trkpt>
<trkpt lat="46.3607008" lon="14.3011023">
<ele>599.55</ele>
<time>2026-07-27T15:39:10.837Z</time>
</trkpt>
<trkpt lat="46.3608339" lon="14.3012785">
<ele>603.95</ele>
<time>2026-07-27T15:39:18.188Z</time>
</trkpt>
<trkpt lat="46.3610093" lon="14.3013668">
<ele>609.59</ele>
<time>2026-07-27T15:39:25.674Z</time>
</trkpt>
<trkpt lat="46.3611595" lon="14.3015146">
<ele>615.62</ele>
<time>2026-07-27T15:39:32.593Z</time>
</trkpt>
<trkpt lat="46.3613102" lon="14.3016724">
<ele>614.93</ele>
<time>2026-07-27T15:39:38.077Z</time>
</trkpt>
<trkpt lat="46.3614580" lon="14.3018663">
<ele>618.77</ele>
<time>2026-07-27T15:39:46.057Z</time>
</trkpt>
<trkpt lat="46.3615763" lon="14.3020776">
<ele>617.52</ele>
<time>2026-07-27T15:39:51.873Z</time>
</trkpt>
<trkpt lat="46.3617322" lon="14.3022830">
<ele>612.80</ele>
<time>2026-07-27T15:39:57.675Z</time>
</trkpt>
<trkpt lat="46.3618607" lon="14.3024730">
<ele>609.51</ele>
<time>2026-07-27T15:40:03.536Z</time>
</trkpt>
<trkpt lat="46.3620245" lon="14.3025906">
<ele>608.19</ele>
<time>2026-07-27T15:40:10.495Z</time>
</trkpt>
<trkpt lat="46.3620598" lon="14.3028526">
<ele>611.50</ele>
<time>2026-07-27T15:40:20.714Z</time>
</trkpt>
<trkpt lat="46.3621396" lon="14.3031317">
<ele>604.54</ele>
<time>2026-07-27T15:40:30.173Z</time>
</trkpt>
<trkpt lat="46.3621736" lon="14.3033980">
<ele>599.36</ele>
<time>2026-07-27T15:40:36.794Z</time>
</trkpt>
<trkpt lat="46.3621512" lon="14.3036735">
<ele>598.78</ele>
<time>2026-07-27T15:40:43.713Z</time>
</trkpt>
<trkpt lat="46.3621355" lon="14.3039443">
<ele>598.92</ele>
<time>2026-07-27T15:40:51.652Z</time>
</trkpt>
<trkpt lat="46.3620828" lon="14.3041970">
<ele>599.60</ele>
<time>2026-07-27T15:40:59.214Z</time>
</trkpt>
<trkpt lat="46.3620478" lon="14.3044613">
<ele>600.97</ele>
<time>2026-07-27T15:41:06.616Z</time>
</trkpt>
<trkpt lat="46.3620696" lon="14.3047390">
<ele>599.61</ele>
<time>2026-07-27T15:41:12.095Z</time>
</trkpt>
<trkpt lat="46.3621101" lon="14.3050071">
<ele>598.61</ele>
<time>2026-07-27T15:41:17.197Z</time>
</trkpt>
<trkpt lat="46.3621714" lon="14.3052663">
<ele>596.37</ele>
<time>2026-07-27T15:41:22.676Z</time>
</trkpt>
<trkpt lat="46.3622567" lon="14.3055457">
<ele>589.98</ele>
<time>2026-07-27T15:41:28.115Z</time>
</trkpt>
<trkpt lat="46.3623810" lon="14.3057543">
<ele>587.67</ele>
<time>2026-07-27T15:41:33.936Z</time>
</trkpt>
<trkpt lat="46.3624853" lon="14.3059930">
<ele>584.03</ele>
<time>2026-07-27T15:41:41.156Z</time>
</trkpt>
<trkpt lat="46.3626466" lon="14.3061713">
<ele>581.11</ele>
<time>2026-07-27T15:41:47.657Z</time>
</trkpt>
<trkpt lat="46.3627631" lon="14.3063890">
<ele>579.70</ele>
<time>2026-07-27T15:41:55.188Z</time>
</trkpt>
<trkpt lat="46.3629229" lon="14.3065517">
<ele>576.19</ele>
<time>2026-07-27T15:42:02.253Z</time>
</trkpt>
<trkpt lat="46.3631142" lon="14.3064936">
<ele>570.27</ele>
<time>2026-07-27T15:42:08.074Z</time>
</trkpt>
<trkpt lat="46.3632957" lon="14.3065711">
<ele>567.77</ele>
<time>2026-07-27T15:42:15.189Z</time>
</trkpt>
<trkpt lat="46.3634595" lon="14.3066936">
<ele>568.43</ele>
<time>2026-07-27T15:42:21.956Z</time>
</trkpt>
<trkpt lat="46.3636148" lon="14.3068289">
<ele>565.62</ele>
<time>2026-07-27T15:42:29.916Z</time>
</trkpt>
<trkpt lat="46.3637518" lon="14.3070143">
<ele>568.22</ele>
<time>2026-07-27T15:42:36.794Z</time>
</trkpt>
<trkpt lat="46.3639088" lon="14.3071728">
<ele>572.38</ele>
<time>2026-07-27T15:42:44.733Z</time>
</trkpt>
<trkpt lat="46.3640582" lon="14.3073331">
<ele>571.59</ele>
<time>2026-07-27T15:42:51.576Z</time>
</trkpt>
<trkpt lat="46.3642172" lon="14.3074621">
<ele>568.82</ele>
<time>2026-07-27T15:42:58.016Z</time>
</trkpt>
<trkpt lat="46.3643687" lon="14.3076088">
<ele>567.10</ele>
<time>2026-07-27T15:43:05.216Z</time>
</trkpt>
<trkpt lat="46.3645521" lon="14.3077139">
<ele>564.87</ele>
<time>2026-07-27T15:43:11.239Z</time>
</trkpt>
<trkpt lat="46.3647300" lon="14.3078508">
<ele>564.52</ele>
<time>2026-07-27T15:43:18.957Z</time>
</trkpt>
<trkpt lat="46.3647333" lon="14.3081340">
<ele>567.51</ele>
<time>2026-07-27T15:43:28.874Z</time>
</trkpt>
<trkpt lat="46.3646605" lon="14.3083952">
<ele>574.29</ele>
<time>2026-07-27T15:43:36.557Z</time>
</trkpt>
<trkpt lat="46.3647700" lon="14.3086409">
<ele>584.30</ele>
<time>2026-07-27T15:43:47.636Z</time>
</trkpt>
<trkpt lat="46.3647193" lon="14.3089096">
<ele>587.19</ele>
<time>2026-07-27T15:43:57.593Z</time>
</trkpt>
<trkpt lat="46.3647148" lon="14.3093009">
<ele>592.88</ele>
<time>2026-07-27T15:44:31.893Z</time>
</trkpt>
<trkpt lat="46.3648307" lon="14.3095041">
<ele>589.81</ele>
<time>2026-07-27T15:44:38.897Z</time>
</trkpt>
<trkpt lat="46.3649976" lon="14.3096361">
<ele>585.99</ele>
<time>2026-07-27T15:44:44.834Z</time>
</trkpt>
<trkpt lat="46.3651621" lon="14.3097573">
<ele>591.65</ele>
<time>2026-07-27T15:44:52.188Z</time>
</trkpt>
<trkpt lat="46.3653556" lon="14.3098220">
<ele>590.10</ele>
<time>2026-07-27T15:45:00.552Z</time>
</trkpt>
<trkpt lat="46.3655304" lon="14.3098954">
<ele>591.36</ele>
<time>2026-07-27T15:45:07.677Z</time>
</trkpt>
<trkpt lat="46.3657161" lon="14.3099506">
<ele>586.90</ele>
<time>2026-07-27T15:45:15.214Z</time>
</trkpt>
<trkpt lat="46.3659046" lon="14.3099717">
<ele>590.82</ele>
<time>2026-07-27T15:45:23.254Z</time>
</trkpt>
<trkpt lat="46.3660866" lon="14.3099198">
<ele>595.92</ele>
<time>2026-07-27T15:45:31.752Z</time>
</trkpt>
<trkpt lat="46.3662035" lon="14.3097172">
<ele>594.62</ele>
<time>2026-07-27T15:45:38.595Z</time>
</trkpt>
<trkpt lat="46.3663356" lon="14.3095119">
<ele>595.23</ele>
<time>2026-07-27T15:45:45.976Z</time>
</trkpt>
<trkpt lat="46.3664688" lon="14.3093344">
<ele>596.13</ele>
<time>2026-07-27T15:45:54.258Z</time>
</trkpt>
<trkpt lat="46.3666126" lon="14.3091620">
<ele>593.19</ele>
<time>2026-07-27T15:46:02.555Z</time>
</trkpt>
<trkpt lat="46.3667619" lon="14.3089865">
<ele>599.33</ele>
<time>2026-07-27T15:46:10.716Z</time>
</trkpt>
<trkpt lat="46.3669260" lon="14.3088731">
<ele>599.33</ele>
<time>2026-07-27T15:46:21.096Z</time>
</trkpt>
<trkpt lat="46.3671136" lon="14.3088141">
<ele>601.03</ele>
<time>2026-07-27T15:46:28.552Z</time>
</trkpt>
<trkpt lat="46.3672960" lon="14.3087992">
<ele>604.56</ele>
<time>2026-07-27T15:46:36.794Z</time>
</trkpt>
<trkpt lat="46.3674682" lon="14.3088751">
<ele>604.16</ele>
<time>2026-07-27T15:46:44.633Z</time>
</trkpt>
<trkpt lat="46.3676309" lon="14.3090132">
<ele>598.75</ele>
<time>2026-07-27T15:46:52.537Z</time>
</trkpt>
<trkpt lat="46.3678182" lon="14.3090518">
<ele>603.15</ele>
<time>2026-07-27T15:47:02.188Z</time>
</trkpt>
<trkpt lat="46.3679925" lon="14.3091262">
<ele>606.87</ele>
<time>2026-07-27T15:47:11.188Z</time>
</trkpt>
<trkpt lat="46.3681792" lon="14.3091719">
<ele>605.54</ele>
<time>2026-07-27T15:47:19.717Z</time>
</trkpt>
<trkpt lat="46.3683652" lon="14.3091847">
<ele>608.77</ele>
<time>2026-07-27T15:47:28.245Z</time>
</trkpt>
<trkpt lat="46.3685479" lon="14.3091762">
<ele>613.40</ele>
<time>2026-07-27T15:47:36.733Z</time>
</trkpt>
<trkpt lat="46.3687238" lon="14.3091079">
<ele>620.69</ele>
<time>2026-07-27T15:47:46.856Z</time>
</trkpt>
<trkpt lat="46.3689119" lon="14.3090481">
<ele>622.00</ele>
<time>2026-07-27T15:47:55.575Z</time>
</trkpt>
<trkpt lat="46.3690999" lon="14.3089966">
<ele>623.37</ele>
<time>2026-07-27T15:48:07.188Z</time>
</trkpt>
<trkpt lat="46.3692204" lon="14.3087849">
<ele>611.10</ele>
<time>2026-07-27T15:48:21.188Z</time>
</trkpt>
<trkpt lat="46.3694031" lon="14.3088341">
<ele>616.86</ele>
<time>2026-07-27T15:48:31.813Z</time>
</trkpt>
<trkpt lat="46.3695834" lon="14.3089103">
<ele>619.40</ele>
<time>2026-07-27T15:48:39.994Z</time>
</trkpt>
<trkpt lat="46.3697691" lon="14.3089197">
<ele>622.60</ele>
<time>2026-07-27T15:48:48.935Z</time>
</trkpt>
<trkpt lat="46.3699585" lon="14.3089429">
<ele>628.99</ele>
<time>2026-07-27T15:49:00.220Z</time>
</trkpt>
<trkpt lat="46.3701486" lon="14.3089777">
<ele>630.86</ele>
<time>2026-07-27T15:49:09.775Z</time>
</trkpt>
<trkpt lat="46.3703375" lon="14.3089692">
<ele>637.37</ele>
<time>2026-07-27T15:49:19.536Z</time>
</trkpt>
<trkpt lat="46.3705239" lon="14.3089671">
<ele>641.38</ele>
<time>2026-07-27T15:49:29.201Z</time>
</trkpt>
<trkpt lat="46.3707078" lon="14.3089848">
<ele>642.36</ele>
<time>2026-07-27T15:49:39.053Z</time>
</trkpt>
<trkpt lat="46.3708892" lon="14.3089306">
<ele>646.79</ele>
<time>2026-07-27T15:49:48.220Z</time>
</trkpt>
<trkpt lat="46.3710722" lon="14.3088874">
<ele>648.34</ele>
<time>2026-07-27T15:49:57.815Z</time>
</trkpt>
<trkpt lat="46.3712601" lon="14.3088529">
<ele>650.18</ele>
<time>2026-07-27T15:50:07.657Z</time>
</trkpt>
<trkpt lat="46.3714432" lon="14.3088524">
<ele>655.12</ele>
<time>2026-07-27T15:50:17.201Z</time>
</trkpt>
<trkpt lat="46.3716249" lon="14.3089009">
<ele>658.40</ele>
<time>2026-07-27T15:50:28.188Z</time>
</trkpt>
<trkpt lat="46.3718049" lon="14.3089444">
<ele>664.42</ele>
<time>2026-07-27T15:50:40.245Z</time>
</trkpt>
<trkpt lat="46.3719869" lon="14.3089683">
<ele>668.65</ele>
<time>2026-07-27T15:50:50.857Z</time>
</trkpt>
<trkpt lat="46.3721781" lon="14.3089585">
<ele>673.73</ele>
<time>2026-07-27T15:51:03.496Z</time>
</trkpt>
<trkpt lat="46.3723564" lon="14.3090130">
<ele>684.49</ele>
<time>2026-07-27T15:51:15.596Z</time>
</trkpt>
<trkpt lat="46.3724912" lon="14.3091967">
<ele>711.24</ele>
<time>2026-07-27T15:51:32.188Z</time>
</trkpt>
<trkpt lat="46.3726635" lon="14.3092791">
<ele>739.18</ele>
<time>2026-07-27T15:51:54.534Z</time>
</trkpt>
<trkpt lat="46.3728415" lon="14.3092364">
<ele>730.25</ele>
<time>2026-07-27T15:52:06.188Z</time>
</trkpt>
<trkpt lat="46.3729281" lon="14.3094663">
<ele>722.15</ele>
<time>2026-07-27T15:52:18.796Z</time>
</trkpt>
<trkpt lat="46.3729344" lon="14.3097412">
<ele>715.62</ele>
<time>2026-07-27T15:52:31.873Z</time>
</trkpt>
<trkpt lat="46.3727715" lon="14.3098726">
<ele>713.28</ele>
<time>2026-07-27T15:52:48.245Z</time>
</trkpt>
<trkpt lat="46.3725951" lon="14.3099410">
<ele>722.32</ele>
<time>2026-07-27T15:53:03.696Z</time>
</trkpt>
<trkpt lat="46.3724732" lon="14.3101333">
<ele>728.50</ele>
<time>2026-07-27T15:53:17.694Z</time>
</trkpt>
<trkpt lat="46.3723384" lon="14.3103303">
<ele>731.41</ele>
<time>2026-07-27T15:53:29.794Z</time>
</trkpt>
<trkpt lat="46.3724980" lon="14.3104549">
<ele>736.03</ele>
<time>2026-07-27T15:53:48.219Z</time>
</trkpt>
<trkpt lat="46.3726748" lon="14.3105032">
<ele>746.43</ele>
<time>2026-07-27T15:54:06.634Z</time>
</trkpt>
<trkpt lat="46.3728394" lon="14.3106332">
<ele>751.30</ele>
<time>2026-07-27T15:54:23.238Z</time>
</trkpt>
<trkpt lat="46.3729732" lon="14.3108199">
<ele>752.00</ele>
<time>2026-07-27T15:54:35.761Z</time>
</trkpt>
<trkpt lat="46.3730996" lon="14.3110075">
<ele>752.66</ele>
<time>2026-07-27T15:54:45.783Z</time>
</trkpt>
<trkpt lat="46.3732662" lon="14.3111358">
<ele>754.06</ele>
<time>2026-07-27T15:55:00.642Z</time>
</trkpt>
<trkpt lat="46.3734408" lon="14.3112072">
<ele>757.07</ele>
<time>2026-07-27T15:55:14.639Z</time>
</trkpt>
<trkpt lat="46.3736223" lon="14.3112261">
<ele>766.74</ele>
<time>2026-07-27T15:55:30.860Z</time>
</trkpt>
<trkpt lat="46.3737785" lon="14.3113626">
<ele>769.92</ele>
<time>2026-07-27T15:55:49.844Z</time>
</trkpt>
<trkpt lat="46.3739363" lon="14.3115077">
<ele>776.80</ele>
<time>2026-07-27T15:56:15.922Z</time>
</trkpt>
<trkpt lat="46.3738392" lon="14.3117287">
<ele>774.87</ele>
<time>2026-07-27T15:56:34.231Z</time>
</trkpt>
<trkpt lat="46.3740200" lon="14.3117581">
<ele>818.50</ele>
<time>2026-07-27T15:57:12.268Z</time>
</trkpt>
<trkpt lat="46.3741942" lon="14.3116758">
<ele>835.60</ele>
<time>2026-07-27T15:57:28.882Z</time>
</trkpt>
<trkpt lat="46.3743670" lon="14.3117861">
<ele>838.06</ele>
<time>2026-07-27T15:57:42.824Z</time>
</trkpt>
<trkpt lat="46.3745316" lon="14.3116763">
<ele>850.05</ele>
<time>2026-07-27T15:58:05.561Z</time>
</trkpt>
<trkpt lat="46.3745783" lon="14.3114114">
<ele>855.46</ele>
<time>2026-07-27T15:58:15.920Z</time>
</trkpt>
<trkpt lat="46.3746792" lon="14.3111920">
<ele>855.57</ele>
<time>2026-07-27T15:58:26.682Z</time>
</trkpt>
<trkpt lat="46.3748268" lon="14.3113460">
<ele>854.62</ele>
<time>2026-07-27T15:58:51.225Z</time>
</trkpt>
<trkpt lat="46.3748264" lon="14.3116148">
<ele>870.20</ele>
<time>2026-07-27T15:59:06.762Z</time>
</trkpt>
<trkpt lat="46.3747896" lon="14.3118708">
<ele>883.47</ele>
<time>2026-07-27T15:59:22.722Z</time>
</trkpt>
<trkpt lat="46.3747707" lon="14.3121397">
<ele>884.26</ele>
<time>2026-07-27T15:59:37.861Z</time>
</trkpt>
<trkpt lat="46.3747013" lon="14.3123869">
<ele>889.31</ele>
<time>2026-07-27T15:59:51.803Z</time>
</trkpt>
<trkpt lat="46.3746389" lon="14.3126387">
<ele>887.24</ele>
<time>2026-07-27T16:00:03.234Z</time>
</trkpt>
<trkpt lat="46.3745224" lon="14.3128554">
<ele>882.59</ele>
<time>2026-07-27T16:00:14.841Z</time>
</trkpt>
<trkpt lat="46.3746946" lon="14.3129614">
<ele>892.94</ele>
<time>2026-07-27T16:00:34.901Z</time>
</trkpt>
<trkpt lat="46.3746177" lon="14.3132070">
<ele>897.97</ele>
<time>2026-07-27T16:00:47.782Z</time>
</trkpt>
<trkpt lat="46.3744398" lon="14.3132543">
<ele>896.13</ele>
<time>2026-07-27T16:01:06.227Z</time>
</trkpt>
<trkpt lat="46.3742583" lon="14.3132861">
<ele>903.35</ele>
<time>2026-07-27T16:01:18.981Z</time>
</trkpt>
<trkpt lat="46.3740761" lon="14.3133392">
<ele>912.94</ele>
<time>2026-07-27T16:01:32.581Z</time>
</trkpt>
<trkpt lat="46.3738879" lon="14.3133634">
<ele>922.60</ele>
<time>2026-07-27T16:01:43.620Z</time>
</trkpt>
<trkpt lat="46.3737106" lon="14.3134191">
<ele>926.47</ele>
<time>2026-07-27T16:01:52.225Z</time>
</trkpt>
<trkpt lat="46.3735315" lon="14.3133866">
<ele>925.30</ele>
<time>2026-07-27T16:02:01.270Z</time>
</trkpt>
<trkpt lat="46.3733500" lon="14.3133310">
<ele>923.28</ele>
<time>2026-07-27T16:02:10.226Z</time>
</trkpt>
<trkpt lat="46.3731588" lon="14.3133446">
<ele>928.53</ele>
<time>2026-07-27T16:02:26.145Z</time>
</trkpt>
<trkpt lat="46.3729853" lon="14.3134166">
<ele>929.40</ele>
<time>2026-07-27T16:02:34.623Z</time>
</trkpt>
<trkpt lat="46.3728015" lon="14.3134918">
<ele>929.88</ele>
<time>2026-07-27T16:02:42.225Z</time>
</trkpt>
<trkpt lat="46.3726226" lon="14.3135207">
<ele>927.70</ele>
<time>2026-07-27T16:02:49.022Z</time>
</trkpt>
<trkpt lat="46.3724491" lon="14.3134488">
<ele>918.73</ele>
<time>2026-07-27T16:03:01.923Z</time>
</trkpt>
<trkpt lat="46.3722785" lon="14.3133409">
<ele>908.82</ele>
<time>2026-07-27T16:24:52.518Z</time>
</trkpt>
<trkpt lat="46.3721123" lon="14.3132325">
<ele>899.72</ele>
<time>2026-07-27T16:25:12.117Z</time>
</trkpt>
<trkpt lat="46.3719328" lon="14.3133268">
<ele>890.54</ele>
<time>2026-07-27T16:25:48.098Z</time>
</trkpt>
<trkpt lat="46.3717586" lon="14.3132225">
<ele>885.38</ele>
<time>2026-07-27T16:26:05.658Z</time>
</trkpt>
<trkpt lat="46.3715752" lon="14.3131872">
<ele>879.11</ele>
<time>2026-07-27T16:26:20.914Z</time>
</trkpt>
<trkpt lat="46.3713998" lon="14.3131147">
<ele>872.30</ele>
<time>2026-07-27T16:26:39.225Z</time>
</trkpt>
<trkpt lat="46.3712207" lon="14.3131695">
<ele>860.29</ele>
<time>2026-07-27T16:26:55.158Z</time>
</trkpt>
<trkpt lat="46.3710412" lon="14.3131235">
<ele>859.30</ele>
<time>2026-07-27T16:27:18.896Z</time>
</trkpt>
<trkpt lat="46.3708567" lon="14.3131060">
<ele>853.61</ele>
<time>2026-07-27T16:27:28.657Z</time>
</trkpt>
<trkpt lat="46.3706858" lon="14.3130029">
<ele>845.94</ele>
<time>2026-07-27T16:27:40.275Z</time>
</trkpt>
<trkpt lat="46.3705013" lon="14.3129672">
<ele>838.67</ele>
<time>2026-07-27T16:27:53.281Z</time>
</trkpt>
<trkpt lat="46.3703229" lon="14.3129337">
<ele>833.76</ele>
<time>2026-07-27T16:28:04.777Z</time>
</trkpt>
<trkpt lat="46.3701710" lon="14.3127838">
<ele>829.94</ele>
<time>2026-07-27T16:28:27.694Z</time>
</trkpt>
<trkpt lat="46.3700461" lon="14.3125913">
<ele>823.68</ele>
<time>2026-07-27T16:28:43.874Z</time>
</trkpt>
<trkpt lat="46.3698585" lon="14.3125897">
<ele>812.26</ele>
<time>2026-07-27T16:29:01.976Z</time>
</trkpt>
<trkpt lat="46.3697374" lon="14.3123876">
<ele>803.56</ele>
<time>2026-07-27T16:29:16.859Z</time>
</trkpt>
<trkpt lat="46.3695557" lon="14.3123717">
<ele>791.44</ele>
<time>2026-07-27T16:29:36.736Z</time>
</trkpt>
<trkpt lat="46.3693713" lon="14.3124059">
<ele>782.29</ele>
<time>2026-07-27T16:29:54.230Z</time>
</trkpt>
<trkpt lat="46.3691922" lon="14.3123707">
<ele>783.45</ele>
<time>2026-07-27T16:30:04.225Z</time>
</trkpt>
<trkpt lat="46.3690089" lon="14.3123965">
<ele>780.50</ele>
<time>2026-07-27T16:30:15.260Z</time>
</trkpt>
<trkpt lat="46.3688454" lon="14.3125347">
<ele>775.62</ele>
<time>2026-07-27T16:30:27.233Z</time>
</trkpt>
<trkpt lat="46.3686731" lon="14.3126315">
<ele>771.15</ele>
<time>2026-07-27T16:30:37.014Z</time>
</trkpt>
<trkpt lat="46.3684987" lon="14.3127019">
<ele>768.76</ele>
<time>2026-07-27T16:30:45.758Z</time>
</trkpt>
<trkpt lat="46.3683133" lon="14.3127649">
<ele>761.72</ele>
<time>2026-07-27T16:30:58.174Z</time>
</trkpt>
<trkpt lat="46.3681332" lon="14.3127985">
<ele>749.72</ele>
<time>2026-07-27T16:31:16.874Z</time>
</trkpt>
<trkpt lat="46.3680303" lon="14.3125756">
<ele>738.90</ele>
<time>2026-07-27T16:31:38.638Z</time>
</trkpt>
<trkpt lat="46.3680222" lon="14.3123145">
<ele>746.96</ele>
<time>2026-07-27T16:31:56.539Z</time>
</trkpt>
<trkpt lat="46.3681699" lon="14.3121489">
<ele>734.15</ele>
<time>2026-07-27T16:32:10.238Z</time>
</trkpt>
<trkpt lat="46.3682179" lon="14.3118939">
<ele>733.91</ele>
<time>2026-07-27T16:32:21.794Z</time>
</trkpt>
<trkpt lat="46.3682015" lon="14.3116321">
<ele>735.80</ele>
<time>2026-07-27T16:32:31.695Z</time>
</trkpt>
<trkpt lat="46.3682576" lon="14.3113758">
<ele>724.72</ele>
<time>2026-07-27T16:32:45.258Z</time>
</trkpt>
<trkpt lat="46.3681141" lon="14.3112037">
<ele>713.82</ele>
<time>2026-07-27T16:33:09.034Z</time>
</trkpt>
<trkpt lat="46.3679539" lon="14.3110732">
<ele>717.16</ele>
<time>2026-07-27T16:33:22.734Z</time>
</trkpt>
<trkpt lat="46.3677710" lon="14.3110747">
<ele>700.23</ele>
<time>2026-07-27T16:33:36.317Z</time>
</trkpt>
<trkpt lat="46.3675854" lon="14.3111127">
<ele>682.68</ele>
<time>2026-07-27T16:33:50.676Z</time>
</trkpt>
<trkpt lat="46.3674328" lon="14.3112509">
<ele>668.10</ele>
<time>2026-07-27T16:34:04.777Z</time>
</trkpt>
<trkpt lat="46.3672435" lon="14.3112353">
<ele>656.84</ele>
<time>2026-07-27T16:34:15.734Z</time>
</trkpt>
<trkpt lat="46.3670576" lon="14.3112606">
<ele>655.61</ele>
<time>2026-07-27T16:34:27.225Z</time>
</trkpt>
<trkpt lat="46.3668662" lon="14.3113131">
<ele>653.78</ele>
<time>2026-07-27T16:34:36.834Z</time>
</trkpt>
<trkpt lat="46.3667003" lon="14.3112103">
<ele>649.26</ele>
<time>2026-07-27T16:34:46.936Z</time>
</trkpt>
<trkpt lat="46.3665642" lon="14.3110151">
<ele>646.46</ele>
<time>2026-07-27T16:34:57.757Z</time>
</trkpt>
<trkpt lat="46.3664929" lon="14.3107669">
<ele>640.22</ele>
<time>2026-07-27T16:35:10.225Z</time>
</trkpt>
<trkpt lat="46.3663153" lon="14.3107087">
<ele>630.62</ele>
<time>2026-07-27T16:35:26.756Z</time>
</trkpt>
<trkpt lat="46.3661559" lon="14.3108324">
<ele>625.02</ele>
<time>2026-07-27T16:35:45.898Z</time>
</trkpt>
<trkpt lat="46.3659749" lon="14.3108619">
<ele>611.12</ele>
<time>2026-07-27T16:36:03.818Z</time>
</trkpt>
<trkpt lat="46.3657883" lon="14.3108324">
<ele>607.74</ele>
<time>2026-07-27T16:36:17.834Z</time>
</trkpt>
<trkpt lat="46.3656071" lon="14.3108639">
<ele>602.89</ele>
<time>2026-07-27T16:36:28.253Z</time>
</trkpt>
<trkpt lat="46.3654042" lon="14.3108685">
<ele>602.94</ele>
<time>2026-07-27T16:36:37.036Z</time>
</trkpt>
<trkpt lat="46.3652025" lon="14.3108339">
<ele>598.26</ele>
<time>2026-07-27T16:36:42.817Z</time>
</trkpt>
<trkpt lat="46.3650211" lon="14.3107973">
<ele>594.12</ele>
<time>2026-07-27T16:36:49.915Z</time>
</trkpt>
<trkpt lat="46.3648386" lon="14.3107700">
<ele>589.65</ele>
<time>2026-07-27T16:36:59.298Z</time>
</trkpt>
<trkpt lat="46.3646536" lon="14.3107330">
<ele>588.64</ele>
<time>2026-07-27T16:37:09.158Z</time>
</trkpt>
<trkpt lat="46.3644543" lon="14.3107315">
<ele>583.57</ele>
<time>2026-07-27T16:37:17.057Z</time>
</trkpt>
<trkpt lat="46.3645238" lon="14.3109885">
<ele>573.03</ele>
<time>2026-07-27T16:37:31.697Z</time>
</trkpt>
<trkpt lat="46.3643399" lon="14.3110165">
<ele>568.29</ele>
<time>2026-07-27T16:37:45.114Z</time>
</trkpt>
<trkpt lat="46.3641986" lon="14.3108215">
<ele>573.66</ele>
<time>2026-07-27T16:37:58.295Z</time>
</trkpt>
<trkpt lat="46.3641201" lon="14.3105816">
<ele>578.95</ele>
<time>2026-07-27T16:38:06.737Z</time>
</trkpt>
<trkpt lat="46.3641144" lon="14.3102940">
<ele>575.58</ele>
<time>2026-07-27T16:38:12.995Z</time>
</trkpt>
<trkpt lat="46.3641306" lon="14.3100089">
<ele>570.46</ele>
<time>2026-07-27T16:38:19.717Z</time>
</trkpt>
<trkpt lat="46.3641556" lon="14.3097504">
<ele>573.81</ele>
<time>2026-07-27T16:38:27.137Z</time>
</trkpt>
<trkpt lat="46.3641797" lon="14.3094905">
<ele>573.46</ele>
<time>2026-07-27T16:38:34.578Z</time>
</trkpt>
<trkpt lat="46.3642429" lon="14.3092413">
<ele>575.02</ele>
<time>2026-07-27T16:38:41.435Z</time>
</trkpt>
<trkpt lat="46.3640558" lon="14.3091941">
<ele>583.01</ele>
<time>2026-07-27T16:38:53.097Z</time>
</trkpt>
<trkpt lat="46.3638648" lon="14.3091153">
<ele>578.99</ele>
<time>2026-07-27T16:39:01.277Z</time>
</trkpt>
<trkpt lat="46.3636903" lon="14.3090157">
<ele>572.29</ele>
<time>2026-07-27T16:39:08.275Z</time>
</trkpt>
<trkpt lat="46.3635156" lon="14.3089522">
<ele>565.94</ele>
<time>2026-07-27T16:39:15.157Z</time>
</trkpt>
<trkpt lat="46.3633488" lon="14.3088250">
<ele>569.26</ele>
<time>2026-07-27T16:39:28.937Z</time>
</trkpt>
<trkpt lat="46.3631989" lon="14.3086363">
<ele>572.89</ele>
<time>2026-07-27T16:39:37.077Z</time>
</trkpt>
<trkpt lat="46.3630397" lon="14.3084660">
<ele>572.44</ele>
<time>2026-07-27T16:39:44.835Z</time>
</trkpt>
<trkpt lat="46.3628662" lon="14.3083507">
<ele>565.10</ele>
<time>2026-07-27T16:39:51.934Z</time>
</trkpt>
<trkpt lat="46.3628201" lon="14.3080968">
<ele>567.84</ele>
<time>2026-07-27T16:39:59.878Z</time>
</trkpt>
<trkpt lat="46.3627852" lon="14.3078373">
<ele>571.06</ele>
<time>2026-07-27T16:40:05.754Z</time>
</trkpt>
<trkpt lat="46.3627864" lon="14.3075609">
<ele>568.85</ele>
<time>2026-07-27T16:40:12.656Z</time>
</trkpt>
<trkpt lat="46.3628396" lon="14.3073050">
<ele>572.79</ele>
<time>2026-07-27T16:40:20.817Z</time>
</trkpt>
<trkpt lat="46.3628477" lon="14.3070363">
<ele>567.49</ele>
<time>2026-07-27T16:40:26.678Z</time>
</trkpt>
<trkpt lat="46.3628840" lon="14.3067794">
<ele>567.75</ele>
<time>2026-07-27T16:40:33.258Z</time>
</trkpt>
<trkpt lat="46.3628317" lon="14.3065259">
<ele>570.11</ele>
<time>2026-07-27T16:40:40.256Z</time>
</trkpt>
<trkpt lat="46.3627389" lon="14.3063007">
<ele>571.86</ele>
<time>2026-07-27T16:40:46.776Z</time>
</trkpt>
<trkpt lat="46.3626412" lon="14.3060770">
<ele>571.95</ele>
<time>2026-07-27T16:40:54.225Z</time>
</trkpt>
<trkpt lat="46.3625168" lon="14.3058653">
<ele>569.79</ele>
<time>2026-07-27T16:41:01.698Z</time>
</trkpt>
<trkpt lat="46.3623664" lon="14.3057027">
<ele>574.64</ele>
<time>2026-07-27T16:41:10.774Z</time>
</trkpt>
<trkpt lat="46.3622462" lon="14.3054945">
<ele>580.40</ele>
<time>2026-07-27T16:41:18.778Z</time>
</trkpt>
<trkpt lat="46.3621261" lon="14.3052913">
<ele>586.69</ele>
<time>2026-07-27T16:41:27.557Z</time>
</trkpt>
<trkpt lat="46.3620921" lon="14.3050262">
<ele>588.43</ele>
<time>2026-07-27T16:41:35.295Z</time>
</trkpt>
<trkpt lat="46.3620767" lon="14.3047611">
<ele>591.33</ele>
<time>2026-07-27T16:41:43.797Z</time>
</trkpt>
<trkpt lat="46.3621065" lon="14.3045002">
<ele>600.52</ele>
<time>2026-07-27T16:41:52.974Z</time>
</trkpt>
<trkpt lat="46.3621255" lon="14.3042265">
<ele>608.42</ele>
<time>2026-07-27T16:42:02.538Z</time>
</trkpt>
<trkpt lat="46.3621314" lon="14.3039570">
<ele>613.11</ele>
<time>2026-07-27T16:42:09.249Z</time>
</trkpt>
<trkpt lat="46.3621319" lon="14.3036863">
<ele>606.44</ele>
<time>2026-07-27T16:42:15.714Z</time>
</trkpt>
<trkpt lat="46.3621460" lon="14.3034101">
<ele>601.68</ele>
<time>2026-07-27T16:42:22.717Z</time>
</trkpt>
<trkpt lat="46.3621689" lon="14.3031445">
<ele>600.27</ele>
<time>2026-07-27T16:42:28.976Z</time>
</trkpt>
<trkpt lat="46.3621565" lon="14.3028728">
<ele>597.86</ele>
<time>2026-07-27T16:42:37.225Z</time>
</trkpt>
<trkpt lat="46.3620263" lon="14.3026555">
<ele>601.60</ele>
<time>2026-07-27T16:42:46.936Z</time>
</trkpt>
<trkpt lat="46.3619261" lon="14.3024314">
<ele>600.57</ele>
<time>2026-07-27T16:42:52.838Z</time>
</trkpt>
<trkpt lat="46.3618238" lon="14.3022161">
<ele>595.43</ele>
<time>2026-07-27T16:42:59.257Z</time>
</trkpt>
<trkpt lat="46.3617188" lon="14.3019913">
<ele>594.30</ele>
<time>2026-07-27T16:43:05.677Z</time>
</trkpt>
<trkpt lat="46.3615820" lon="14.3018027">
<ele>600.47</ele>
<time>2026-07-27T16:43:13.978Z</time>
</trkpt>
<trkpt lat="46.3614416" lon="14.3016371">
<ele>604.28</ele>
<time>2026-07-27T16:43:20.916Z</time>
</trkpt>
<trkpt lat="46.3612684" lon="14.3014913">
<ele>603.25</ele>
<time>2026-07-27T16:43:27.894Z</time>
</trkpt>
<trkpt lat="46.3611007" lon="14.3013797">
<ele>601.89</ele>
<time>2026-07-27T16:43:35.194Z</time>
</trkpt>
<trkpt lat="46.3609165" lon="14.3012666">
<ele>595.91</ele>
<time>2026-07-27T16:43:42.494Z</time>
</trkpt>
<trkpt lat="46.3607810" lon="14.3010893">
<ele>592.35</ele>
<time>2026-07-27T16:43:49.114Z</time>
</trkpt>
<trkpt lat="46.3606593" lon="14.3008956">
<ele>589.61</ele>
<time>2026-07-27T16:43:55.796Z</time>
</trkpt>
<trkpt lat="46.3605443" lon="14.3006918">
<ele>593.68</ele>
<time>2026-07-27T16:44:01.637Z</time>
</trkpt>
<trkpt lat="46.3604723" lon="14.3004339">
<ele>594.77</ele>
<time>2026-07-27T16:44:08.257Z</time>
</trkpt>
<trkpt lat="46.3604257" lon="14.3001659">
<ele>595.44</ele>
<time>2026-07-27T16:44:15.256Z</time>
</trkpt>
<trkpt lat="46.3603386" lon="14.2999268">
<ele>593.62</ele>
<time>2026-07-27T16:44:21.263Z</time>
</trkpt>
<trkpt lat="46.3601875" lon="14.2997701">
<ele>591.47</ele>
<time>2026-07-27T16:44:31.225Z</time>
</trkpt>
<trkpt lat="46.3600043" lon="14.2996402">
<ele>588.83</ele>
<time>2026-07-27T16:44:39.238Z</time>
</trkpt>
<trkpt lat="46.3598950" lon="14.2994249">
<ele>588.10</ele>
<time>2026-07-27T16:44:44.838Z</time>
</trkpt>
<trkpt lat="46.3597722" lon="14.2992123">
<ele>588.45</ele>
<time>2026-07-27T16:44:52.555Z</time>
</trkpt>
<trkpt lat="46.3596356" lon="14.2990091">
<ele>588.93</ele>
<time>2026-07-27T16:44:59.996Z</time>
</trkpt>
<trkpt lat="46.3595390" lon="14.2987717">
<ele>586.27</ele>
<time>2026-07-27T16:45:06.537Z</time>
</trkpt>
<trkpt lat="46.3594489" lon="14.2985265">
<ele>588.19</ele>
<time>2026-07-27T16:45:13.225Z</time>
</trkpt>
<trkpt lat="46.3593819" lon="14.2982846">
<ele>598.93</ele>
<time>2026-07-27T16:45:20.734Z</time>
</trkpt>
<trkpt lat="46.3592169" lon="14.2981787">
<ele>613.57</ele>
<time>2026-07-27T16:45:28.225Z</time>
</trkpt>
<trkpt lat="46.3592782" lon="14.2978707">
<ele>568.89</ele>
<time>2026-07-27T16:45:35.857Z</time>
</trkpt>
<trkpt lat="46.3593448" lon="14.2976122">
<ele>566.48</ele>
<time>2026-07-27T16:45:42.654Z</time>
</trkpt>
<trkpt lat="46.3593183" lon="14.2973470">
<ele>571.90</ele>
<time>2026-07-27T16:45:52.797Z</time>
</trkpt>
<trkpt lat="46.3592089" lon="14.2971324">
<ele>579.68</ele>
<time>2026-07-27T16:46:03.225Z</time>
</trkpt>
<trkpt lat="46.3590918" lon="14.2969110">
<ele>582.69</ele>
<time>2026-07-27T16:46:12.734Z</time>
</trkpt>
<trkpt lat="46.3589823" lon="14.2966993">
<ele>588.88</ele>
<time>2026-07-27T16:46:21.815Z</time>
</trkpt>
<trkpt lat="46.3588555" lon="14.2965091">
<ele>586.10</ele>
<time>2026-07-27T16:46:30.856Z</time>
</trkpt>
<trkpt lat="46.3586840" lon="14.2963866">
<ele>587.18</ele>
<time>2026-07-27T16:46:39.676Z</time>
</trkpt>
<trkpt lat="46.3585029" lon="14.2962873">
<ele>588.38</ele>
<time>2026-07-27T16:46:47.036Z</time>
</trkpt>
<trkpt lat="46.3583247" lon="14.2962211">
<ele>588.05</ele>
<time>2026-07-27T16:46:53.657Z</time>
</trkpt>
<trkpt lat="46.3581509" lon="14.2961276">
<ele>587.87</ele>
<time>2026-07-27T16:46:59.236Z</time>
</trkpt>
<trkpt lat="46.3579635" lon="14.2960266">
<ele>587.11</ele>
<time>2026-07-27T16:47:04.594Z</time>
</trkpt>
<trkpt lat="46.3578122" lon="14.2958856">
<ele>584.07</ele>
<time>2026-07-27T16:47:09.756Z</time>
</trkpt>
<trkpt lat="46.3576608" lon="14.2956957">
<ele>580.79</ele>
<time>2026-07-27T16:47:16.055Z</time>
</trkpt>
<trkpt lat="46.3575127" lon="14.2955366">
<ele>578.52</ele>
<time>2026-07-27T16:47:21.916Z</time>
</trkpt>
<trkpt lat="46.3573531" lon="14.2953716">
<ele>579.80</ele>
<time>2026-07-27T16:47:27.797Z</time>
</trkpt>
<trkpt lat="46.3571804" lon="14.2952451">
<ele>580.46</ele>
<time>2026-07-27T16:47:34.116Z</time>
</trkpt>
<trkpt lat="46.3570147" lon="14.2951179">
<ele>579.92</ele>
<time>2026-07-27T16:47:40.495Z</time>
</trkpt>
<trkpt lat="46.3568374" lon="14.2950227">
<ele>579.06</ele>
<time>2026-07-27T16:47:47.232Z</time>
</trkpt>
<trkpt lat="46.3566626" lon="14.2949280">
<ele>578.91</ele>
<time>2026-07-27T16:47:53.818Z</time>
</trkpt>
<trkpt lat="46.3566593" lon="14.2946528">
<ele>580.84</ele>
<time>2026-07-27T16:48:01.238Z</time>
</trkpt>
<trkpt lat="46.3567450" lon="14.2944196">
<ele>583.82</ele>
<time>2026-07-27T16:48:08.035Z</time>
</trkpt>
<trkpt lat="46.3568082" lon="14.2941709">
<ele>584.84</ele>
<time>2026-07-27T16:48:13.796Z</time>
</trkpt>
<trkpt lat="46.3566293" lon="14.2942161">
<ele>582.67</ele>
<time>2026-07-27T16:48:23.697Z</time>
</trkpt>
<trkpt lat="46.3564719" lon="14.2940832">
<ele>585.52</ele>
<time>2026-07-27T16:48:32.818Z</time>
</trkpt>
<trkpt lat="46.3562950" lon="14.2939302">
<ele>591.03</ele>
<time>2026-07-27T16:48:41.195Z</time>
</trkpt>
<trkpt lat="46.3561154" lon="14.2938225">
<ele>590.44</ele>
<time>2026-07-27T16:48:47.056Z</time>
</trkpt>
<trkpt lat="46.3559452" lon="14.2937026">
<ele>588.73</ele>
<time>2026-07-27T16:48:52.555Z</time>
</trkpt>
<trkpt lat="46.3557701" lon="14.2936107">
<ele>583.97</ele>
<time>2026-07-27T16:48:58.758Z</time>
</trkpt>
<trkpt lat="46.3556660" lon="14.2933789">
<ele>580.49</ele>
<time>2026-07-27T16:49:06.797Z</time>
</trkpt>
<trkpt lat="46.3555786" lon="14.2931341">
<ele>582.37</ele>
<time>2026-07-27T16:49:15.556Z</time>
</trkpt>
<trkpt lat="46.3555836" lon="14.2928670">
<ele>582.89</ele>
<time>2026-07-27T16:49:22.816Z</time>
</trkpt>
<trkpt lat="46.3556415" lon="14.2925957">
<ele>583.42</ele>
<time>2026-07-27T16:49:29.734Z</time>
</trkpt>
<trkpt lat="46.3557358" lon="14.2923548">
<ele>587.16</ele>
<time>2026-07-27T16:49:36.225Z</time>
</trkpt>
<trkpt lat="46.3557875" lon="14.2920979">
<ele>596.65</ele>
<time>2026-07-27T16:49:42.835Z</time>
</trkpt>
<trkpt lat="46.3559021" lon="14.2918770">
<ele>589.79</ele>
<time>2026-07-27T16:49:50.054Z</time>
</trkpt>
<trkpt lat="46.3559835" lon="14.2915965">
<ele>585.23</ele>
<time>2026-07-27T16:49:55.955Z</time>
</trkpt>
<trkpt lat="46.3560043" lon="14.2913181">
<ele>585.62</ele>
<time>2026-07-27T16:50:02.858Z</time>
</trkpt>
<trkpt lat="46.3560612" lon="14.2910556">
<ele>588.23</ele>
<time>2026-07-27T16:50:09.937Z</time>
</trkpt>
<trkpt lat="46.3561117" lon="14.2907861">
<ele>593.41</ele>
<time>2026-07-27T16:50:16.814Z</time>
</trkpt>
<trkpt lat="46.3561485" lon="14.2905293">
<ele>597.75</ele>
<time>2026-07-27T16:50:23.037Z</time>
</trkpt>
<trkpt lat="46.3562608" lon="14.2903222">
<ele>596.17</ele>
<time>2026-07-27T16:50:30.594Z</time>
</trkpt>
<trkpt lat="46.3564322" lon="14.2904173">
<ele>596.27</ele>
<time>2026-07-27T16:50:38.286Z</time>
</trkpt>
<trkpt lat="46.3565758" lon="14.2905781">
<ele>593.62</ele>
<time>2026-07-27T16:50:45.229Z</time>
</trkpt>
</trkseg>
</trk>
</gpx>
